ScenicSpotID,ScenicSpotName,DescriptionDetail,Description,Phone,Address,ZipCode,OpenTime,Picture,Position,Class1,ParkingPosition,City,SrcUpdateTime,UpdateTime
C1_315081600H_000049,蘆竹溝觀光漁港,蘆竹溝是一處位於臺南市北門區三光里的漁村，早年由三寮灣西行在將軍溪出海口的北岸莊頭之間的河口溝渠多，必須以蘆竹搭建的溝渠便橋才能入莊，此地因而得名蘆竹溝。蘆竹溝漁港又名北門漁港，為臺南三大漁港之一，漁港擁有百艘機動膠筏，屬臺南最大的膠筏漁港，膠筏常被使用來載運牡蠣養殖場中的牡蠣，也經常有海釣客僱用膠筏出海垂釣，享受海岸的釣魚樂趣。蘆竹溝漁港鄰近牡蠣養殖場，可從漁港眺望養殖場上整齊排列的蚵架，日夜交接時，晚霞乍現，湖面也被染上鮮豔的色彩，形成壯觀療癒的漁港景緻，總吸引許多攝影好手架設腳架捕捉此景。&aring;,蘆竹溝是一處位於臺南市北門區三光里的漁村，早年由三寮灣西行在將軍溪出海口的北岸莊頭之間的河口溝渠多，必須以蘆竹搭建的溝渠便橋才能入莊，此地因而得名蘆竹溝。蘆竹溝漁港又名北門漁港，為臺南三大漁港之一，漁港擁有百艘機動膠筏，屬臺南最大的膠筏漁港，膠筏常被使用來載運牡蠣養殖場中的牡蠣，也經常有海釣客僱用膠筏出海垂釣，享受海岸的釣魚樂趣。蘆竹溝漁港鄰近牡蠣養殖場，可從漁港眺望養殖場上整齊排列的蚵架，日夜交接時，晚霞乍現，湖面也被染上鮮豔的色彩，形成壯觀療癒的漁港景緻，總吸引許多攝影好手架設腳架捕捉此景。&aring;,886-6-7861000,臺南市727北門區三光里三灣寮,727,全年皆可，無時間限制(00:00~24:00),"{'PictureUrl1': 'https://swcoast-nsa.travel/image/36613/640x480', 'PictureDescription1': '蘆竹溝漁港內停放了許多膠筏及漁船'}","{'PositionLon': 120.0962905883789, 'PositionLat': 23.23451042175293, 'GeoHash': 'wsjkhveqy'}",遊憩類,{},臺南市,2023-07-13T01:40:49+08:00,2023-07-13T02:10:57+08:00
C1_315081600H_000050,馬沙溝海洋休閒運動渡假中心,馬沙溝位於將軍區，原為一處沿海的傳統漁村，每到黃昏時分，能在此看見漫天晚霞映照著海面漁船點點的景象，讓此地在昔日有台南八景之一「綠汕帆影」的美稱。馬沙溝還擁有細柔沙灘及清澈海水，1980年代進行規劃後，設有眾多攤販及多元的水上活動，每到夏季總吸引大批遊客前往遊玩，為馬沙溝最輝煌的時期。馬沙溝的場域設施老舊而逐漸沒落，2018年時，雲嘉南濱海國家風景區管理處重新打造「馬沙溝海洋休閒運動渡假中心」，並於2020年6月營運，改建後的度假中心多了游泳區、水上摩托車等遊憩設施，豐富的設施加上得天獨厚的濱海條件，使得馬沙溝很快的又恢復了當時的盛況。精心改建後的馬沙溝除了多了豐富的休閒項目，戲水最注重的安全救援也有了妥善的規劃，遊憩區內的救生員不時關注著遊憩的安全狀況，給到此㇐遊的旅客安心舒適的遊玩體驗。,馬沙溝位於將軍區，原為一處沿海的傳統漁村，每到黃昏時分，能在此看見漫天晚霞映照著海面漁船點點的景象，讓此地在昔日有台南八景之一「綠汕帆影」的美稱。馬沙溝還擁有細柔沙灘及清澈海水，1980年代進行規劃後，設有眾多攤販及多元的水上活動，每到夏季總吸引大批遊客前往遊玩，為馬沙溝最輝煌的時期。馬沙溝的場域設施老舊而逐漸沒落，2018年時，雲嘉南濱海國家風景區管理處重新打造「馬沙溝海洋休閒運動渡假中心」，並於2020年6月營運，改建後的度假中心多了游泳區、水上摩托車等遊憩設施，豐富的設施加上得天獨厚的濱海條件，使得馬沙溝很快的又恢復了當時的盛況。精心改建後的馬沙溝除了多了豐富的休閒項目，戲水最注重的安全救援也有了妥善的規劃，遊憩區內的救生員不時關注著遊憩的安全狀況，給到此㇐遊的旅客安心舒適的遊玩體驗。...,886-6-7931580,臺南市725將軍區平沙里13鄰平沙140號,725,星期日 10：00–18：00星期一 10：00–18：00星期二 10：00–18：00星期三 10：00–18：00星期四 10：00–18：00星期五 10：00–18：00星期六 10：00–18：00,"{'PictureUrl1': 'https://swcoast-nsa.travel/image/36201/640x480', 'PictureDescription1': '重新改造後為南臺灣唯一合法的濱海遊樂區渡假中心'}","{'PositionLon': 120.08394622802734, 'PositionLat': 23.217479705810547, 'GeoHash': 'wsjkhdd7w'}",遊憩類,{},如遇氣候狀況不佳臨時休園，將公告於「馬沙溝海洋休閒運動渡假中心」臉書，造成您不便敬請見諒!,臺南市,2023-07-13T01:40:49+08:00,2023-07-13T02:10:57+08:00
C1_315081600H_000051,將軍觀光漁港,將軍漁港是假日漁市及漁貨拍賣市場，也是將來供作台灣環島海上綠色公路航線的重要港口。進入將軍漁港港區可以欣賞漁船、漁村景象，認識各式各樣的漁獲，也可以吃到當天現撈的新鮮海產，從事近海漁業的漁民大多在半夜或凌晨出海，直至中午或下午才會進港，將漁獲分類。每天下午1-2點間，拍賣場開始熱鬧拍賣新鮮漁貨，不管是魚蝦扇貝都是最新鮮美味的，歡迎前來逛逛漁市、大快朵頤一番！近年夏季臺南市政府皆會於將軍漁港辦理臺南夏日音樂節-將軍吼，邀請知名歌手到場開唱，還有精彩煙火秀等表演，吸引全臺民眾到此感受熱情的夏日氛圍。,將軍漁港是假日漁市及漁貨拍賣市場，也是將來供作台灣環島海上綠色公路航線的重要港口。進入將軍漁港港區可以欣賞漁船、漁村景象，認識各式各樣的漁獲，也可以吃到當天現撈的新鮮海產，從事近海漁業的漁民大多在半夜或凌晨出海，直至中午或下午才會進港，將漁獲分類。每天下午1-2點間，拍賣場開始熱鬧拍賣新鮮漁貨，不管是魚蝦扇貝都是最新鮮美味的，歡迎前來逛逛漁市、大快朵頤一番！近年夏季臺南市政府皆會於將軍漁港辦理臺南夏日音樂節-將軍吼，邀請知名歌手到場開唱，還有精彩煙火秀等表演，吸引全臺民眾到此感受熱情的夏日氛圍。,886-6-7930460,臺南市725將軍區平沙里156號、157號,725,全年皆可，無時間限制(00:00~24:00)漁獲拍賣時間：夏天14:00冬天13:30開始至漁貨賣完,"{'PictureUrl1': 'https://swcoast-nsa.travel/image/36619/640x480', 'PictureDescription1': '進入停車場後即可看到將軍漁港的地標'}","{'PositionLon': 120.08799743652344, 'PositionLat': 23.21055030822754, 'GeoHash': 'wsjkh9m7m'}",遊憩類,{},臺南市,2023-07-13T01:40:49+08:00,2023-07-13T02:10:57+08:00
C1_315081600H_000053,觀海樓,觀海樓區域因台江國家公園管理處工程整修所需，至112年10月17日止為維護民眾安全，非經許可禁止進入。登樓望遠，360度美景盡收眼底觀海樓位於鹽埕安檢所旁，是一座融合傳統洗石子與交趾陶、原木欄杆的三層樓高瞭望台，地處潟湖的正中心，周圍空曠視野相當遼闊，七股潟湖、網仔寮沙洲等景都能盡收眼底。白天可在此觀賞潟湖特殊的淺海養殖景觀，傍晚則可享受多彩霞光照映於水面上所形成的療癒美景，是一處相當有看頭的觀海景點，而前往觀海樓的路程路燈較少，夜晚行經時務必小心慢行。,觀海樓區域因台江國家公園管理處工程整修所需，至112年10月17日止為維護民眾安全，非經許可禁止進入。登樓望遠，360度美景盡收眼底觀海樓位於鹽埕安檢所旁，是一座融合傳統洗石子與交趾陶、原木欄杆的三層樓高瞭望台，地處潟湖的正中心，周圍空曠視野相當遼闊，七股潟湖、網仔寮沙洲等景都能盡收眼底。白天可在此觀賞潟湖特殊的淺海養殖景觀，傍晚則可享受多彩霞光照映於水面上所形成的療癒美景，是一處相當有看頭的觀海景點，而前往觀海樓的路程路燈較少，夜晚行經時務必小心慢行。,886-6-7872611,臺南市724七股區潟湖(鹽埕海巡安檢所旁),724,全年皆可，無時間限制(00:00~24:00),"{'PictureUrl1': 'https://swcoast-nsa.travel/image/1328/640x480', 'PictureDescription1': '七股觀海樓夕陽'}","{'PositionLon': 120.0771713256836, 'PositionLat': 23.14487075805664, 'GeoHash': 'wsj7smms8'}",{},觀海樓區域因台江國家公園管理處工程整修所需，至112年10月17日止為維護民眾安全，非經許可禁止進入。,臺南市,2023-07-13T01:40:49+08:00,2023-07-13T02:10:57+08:00
C1_315081600H_000055,蚵寮漁港,蚵寮漁港，吃蚵最讚蚵寮漁港為台南市北門區附近沿海低窪地區，地形上受外傘頂洲之遮蔽，冬、夏季平均潮差約1公尺，海象溫和。此漁港是利用海岸沙洲後側之潟湖水域或鹽田魚塭間之排水道就地興建，土壤鹽份含量較高，多開發為魚塭及鹽田。港域狹小，水深不足，稍大型船隻必須等候潮始能進出。 漫步在這個安靜純樸的漁村中，彷彿走在被時間遺忘的凝固空間中，當地美食自然以蚵仔為最可口的菜餚，不管是蚵嗲還是蚵仔麵線，保證讓喜愛海鮮的遊客食指大動。,蚵寮漁港，吃蚵最讚蚵寮漁港為台南市北門區附近沿海低窪地區，地形上受外傘頂洲之遮蔽，冬、夏季平均潮差約1公尺，海象溫和。此漁港是利用海岸沙洲後側之潟湖水域或鹽田魚塭間之排水道就地興建，土壤鹽份含量較高，多開發為魚塭及鹽田。港域狹小，水深不足，稍大型船隻必須等候潮始能進出。 漫步在這個安靜純樸的漁村中，彷彿走在被時間遺忘的凝固空間中，當地美食自然以蚵仔為最可口的菜餚，不管是蚵嗲還是蚵仔麵線，保證讓喜愛海鮮的遊客食指大動。,886-6-7861000,臺南市727北門區沿海低窪地區,727,全年皆可，無時間限制(00:00~24:00),"{'PictureUrl1': 'https://swcoast-nsa.travel/image/36703/640x480', 'PictureDescription1': '膠筏及漁船停放在蚵寮漁港內'}","{'PositionLon': 120.1333999633789, 'PositionLat': 23.28544044494629, 'GeoHash': 'wsjkmwyrx'}",遊憩類,{},臺南市,2023-07-13T01:40:49+08:00,2023-07-13T02:10:57+08:00
C1_315081600H_000056,台灣烏腳病醫療紀念館,烏腳病是一種盛行於台灣西南沿海地區的流行性下肢周邊血管疾病，據信烏腳病發生原因極可能是濱海鄉鎮民眾，飲用含有砷過量的深井水，造成的慢性砷中毒，甚至伴隨有肝、腎、膀胱等癌症併發。烏腳病紀念園區，前身為北門鄉歷史最悠久的診所─金河診所，經營者為畢業於東京醫學專門學校、返鄉服務的「烏腳病之父」王金河醫師，過去金河診所免費給予醫療協助，更是病患精神上的重要支柱。館內收藏台灣醫療文物、烏腳病患者醫療資料等為主，其中有許多以防腐劑泡存的烏腳病患者殘肢，在基督十字架前安息著，讓旅客到訪紀念館一遊時，感念過去醫療人員及教會的無私奉獻與大愛，也見證受難者的苦難歲月。,烏腳病是一種盛行於台灣西南沿海地區的流行性下肢周邊血管疾病，據信烏腳病發生原因極可能是濱海鄉鎮民眾，飲用含有砷過量的深井水，造成的慢性砷中毒，甚至伴隨有肝、腎、膀胱等癌症併發。烏腳病紀念園區，前身為北門鄉歷史最悠久的診所─金河診所，經營者為畢業於東京醫學專門學校、返鄉服務的「烏腳病之父」王金河醫師，過去金河診所免費給予醫療協助，更是病患精神上的重要支柱。館內收藏台灣醫療文物、烏腳病患者醫療資料等為主，其中有許多以防腐劑泡存的烏腳病患者殘肢，在基督十字架前安息著，讓旅客到訪紀念館一遊時，感念過去醫療人員及教會的無私奉獻與大愛，也見證受難者的苦難歲月。,886-6-7862012,臺南市727北門區永隆里27號,727,每週四至週日(週一~三休館)，10:00AM ~ 4:00PM，歡迎團體預約參觀，以便園區志工為您做深入導覽。註：配合年度休假假期調整，如遇假期休館日順延一日休館。,"{'PictureUrl1': 'https://swcoast-nsa.travel/image/2310/640x480', 'PictureDescription1': '烏腳病紀念館'}","{'PositionLon': 120.12371063232422, 'PositionLat': 23.26959991455078, 'GeoHash': 'wsjkmkp7j'}",{},免費參觀,臺南市,2023-07-13T01:40:49+08:00,2023-07-13T02:10:57+08:00
C1_315081600H_000057,北門潟湖,北門區之生態環境屬於潟湖生態，蘊含著豐富之魚、蝦、貝類及紅樹林景觀，常見許多鷺鳥、水鳥，彈塗魚和各種螃蟹，具有潟湖觀光生態旅遊之魅力。最讓人注目的是每年10月到翌年4月到此作客的黑腹燕鷗，每到黃昏成群的黑腹燕鷗會在空中群聚飛舞，依照風向變換各種不同隊型，相當壯觀。海茄苳紅樹林曾經大量生長在北門蚵寮西邊的北門潟湖區沼澤地帶，後來開發為海埔新生地或闢為魚塭，經常可見許多蚵架插置潟湖中，形成另一特殊的海岸景觀。在台南政府全力復育紅樹林的政策下，潟湖南邊之頭港大排水，出海口長有面積約6公頃的海茄苳；在急水溪出海口淤沙較多的北門潟湖區海茄苳也再度繁殖，並引進種植水筆仔，在這兩個據點設置紅樹林保護區，以翠綠的生態景觀驚豔遊客。,北門區之生態環境屬於潟湖生態，蘊含著豐富之魚、蝦、貝類及紅樹林景觀，常見許多鷺鳥、水鳥，彈塗魚和各種螃蟹，具有潟湖觀光生態旅遊之魅力。最讓人注目的是每年10月到翌年4月到此作客的黑腹燕鷗，每到黃昏成群的黑腹燕鷗會在空中群聚飛舞，依照風向變換各種不同隊型，相當壯觀。海茄苳紅樹林曾經大量生長在北門蚵寮西邊的北門潟湖區沼澤地帶，後來開發為海埔新生地或闢為魚塭，經常可見許多蚵架插置潟湖中，形成另一特殊的海岸景觀。在台南政府全力復育紅樹林的政策下，潟湖南邊之頭港大排水，出海口長有面積約6公頃的海茄苳；在急水溪出海口淤沙較多的北門潟湖區海茄苳也再度繁殖，並引進種植水筆仔，在這兩個據點設置紅樹林保護區，以翠綠的生態景觀驚豔遊客。,886-6-7861000,臺南市727北門區永華里,727,全年皆可，無時間限制(00:00~24:00),"{'PictureUrl1': 'https://swcoast-nsa.travel/image/2524/640x480', 'PictureDescription1': '北門潟湖晨曦'}","{'PositionLon': 120.10552978515625, 'PositionLat': 23.259729385375977, 'GeoHash': 'wsjkm461t'}",文化類,{},臺南市,2023-07-13T01:40:49+08:00,2023-07-13T02:10:57+08:00
C1_315081600H_000059,七股鹽山園區,七股鹽場過去曾是臺灣最大的曬鹽場，主要供應國內農工業用鹽，然而隨著時代變遷，曬鹽不符經濟效益，2002年5月七股鹽場關閉曬鹽場，結束338年的榮耀曬鹽史。七股鹽山原屬七股鹽場的曬鹽堆置場，經長年置放後自然結塊，質地極為堅硬，約六層樓高的皚皚鹽峰聳立，蔚為奇觀。臺鹽隨後轉型產業觀光，七股鹽山的休閒遊憩時代正式開啟，以不同的方式，為臺灣的鹽業發展史留下見證。 七股鹽山園區內除了有壯觀好拍的鹽山景觀，還有豐富的遊憩設施及體驗，像是可舒適遊覽園區的遊園車、提供團體租借的烤肉區、鹽田的傳統設施「龍骨水車」體驗，以及旅客到訪鹽山一定要製作留念的諾鹽罐DIY、好吃好玩的鹽滷豆花DIY等，是一處寓教於樂的必遊景點。 開放時間 ⬛️夏季3月~10月 09:00-18:00 ⬛️冬季11月~2月 08:30-17:30 ⬛️休園日:除夕整日及政府公告之颱風假。,七股鹽場過去曾是臺灣最大的曬鹽場，主要供應國內農工業用鹽，然而隨著時代變遷，曬鹽不符經濟效益，2002年5月七股鹽場關閉曬鹽場，結束338年的榮耀曬鹽史。七股鹽山原屬七股鹽場的曬鹽堆置場，經長年置放後自然結塊，質地極為堅硬，約六層樓高的皚皚鹽峰聳立，蔚為奇觀。臺鹽隨後轉型產業觀光，七股鹽山的休閒遊憩時代正式開啟，以不同的方式，為臺灣的鹽業發展史留下見證。 七股鹽山園區內除了有壯觀好拍的鹽山景觀，還有豐富的遊憩設施及體驗，像是可舒適遊覽園區的遊園車、提供團體租借的烤肉區、鹽田的傳統設施「龍骨水車」體驗，以及旅客到訪鹽山一定要製作留念的諾鹽罐DIY、好吃好玩的鹽滷豆花DIY等，是一處寓教於樂的必遊景點。 開放時間 ⬛️夏季3月~10月 09:00-18:00 ⬛️冬季11月~2月 08:30-1...,886-6-7800511#49,臺南市724七股區鹽埕里66號,724,夏季3月~10月 09:00-18:00冬季11月~2月 08:30-17:30休園日:除夕整日及政府公告之颱風假,"{'PictureUrl1': 'https://swcoast-nsa.travel/image/2475/640x480', 'PictureDescription1': '七股鹽山'}","{'PositionLon': 120.0999984741211, 'PositionLat': 23.154130935668945, 'GeoHash': 'wsj7szn4s'}",遊憩類,https://cigu.tybio.com.tw,{},機車、腳踏車（每輛）、徒步（每人）收清潔費50元小客車（乘客免費）每車收清潔費100元，大客車免費(限20人座以上),臺南市,2023-07-13T01:40:49+08:00,2023-07-13T02:10:57+08:00
C1_315081600H_000062,龍山宮,龍山宮位於七股區的龍山里，一抵達龍山里就能看見宏偉的宮廟外觀，為村里的重要建築地標，也是里民重要的信仰中心，當地人都稱龍山宮為「王宮」，主要祭祀王爺，也奉祀五府千歲、天上聖母、田都元帥、中壇元帥、將軍府、福德正神、註生娘娘等神明。龍山宮內部擁有著富麗堂皇的裝潢，抬頭能看見精緻的藻井，牆面上還有壁畫等吸睛裝飾，富有傳統建築之美。龍山宮前有一處龍山漁港，當地漁獲的買賣都在此，每天早上6:30開始漁獲拍賣，不僅可以買到新鮮的現貨，熱鬧又別開生面的市場交易，值得前往參觀，也可由此乘船遊覽鄰近沙洲、欣賞蚵棚美景，以及聆聽導覽。,龍山宮位於七股區的龍山里，一抵達龍山里就能看見宏偉的宮廟外觀，為村里的重要建築地標，也是里民重要的信仰中心，當地人都稱龍山宮為「王宮」，主要祭祀王爺，也奉祀五府千歲、天上聖母、田都元帥、中壇元帥、將軍府、福德正神、註生娘娘等神明。龍山宮內部擁有著富麗堂皇的裝潢，抬頭能看見精緻的藻井，牆面上還有壁畫等吸睛裝飾，富有傳統建築之美。龍山宮前有一處龍山漁港，當地漁獲的買賣都在此，每天早上6:30開始漁獲拍賣，不僅可以買到新鮮的現貨，熱鬧又別開生面的市場交易，值得前往參觀，也可由此乘船遊覽鄰近沙洲、欣賞蚵棚美景，以及聆聽導覽。,886-6-7871058,臺南市724七股區龍山里19鄰208號,724,參觀或開放時間為 06:00-21:00,"{'PictureUrl1': 'https://swcoast-nsa.travel/image/36631/640x480', 'PictureDescription1': '龍山宮位於七股區的龍山里，一抵達龍山里就能看見宏偉的宮廟外觀，為村里的重要建築地標，也是里民重要的信仰中心'}","{'PositionLon': 120.11341857910156, 'PositionLat': 23.1382999420166, 'GeoHash': 'wsj7thpym'}",{},臺南市,2023-07-13T01:40:49+08:00,2023-07-13T02:10:57+08:00
C1_315081600H_000064,四草砲台,清道光年間，中英發生第一次鴉片戰爭，當時為防止英軍進入臺灣，時任臺灣兵備道的姚瑩奏議於安平、台江地區興建17座砲台，四草砲台為其中一座。四草砲台被列為國定二級古蹟，現已不見古砲，只留下砲臺城壘牆垣，砲台牆上共有13個圓形砲孔，此牆成為一旁臺南市鎮海國小的圍牆。四草砲台位於四草大眾廟前，周邊有知名景點四草綠色隧道，可乘坐觀光竹筏通過河道，享受優美自然生態。,清道光年間，中英發生第一次鴉片戰爭，當時為防止英軍進入臺灣，時任臺灣兵備道的姚瑩奏議於安平、台江地區興建17座砲台，四草砲台為其中一座。四草砲台被列為國定二級古蹟，現已不見古砲，只留下砲臺城壘牆垣，砲台牆上共有13個圓形砲孔，此牆成為一旁臺南市鎮海國小的圍牆。四草砲台位於四草大眾廟前，周邊有知名景點四草綠色隧道，可乘坐觀光竹筏通過河道，享受優美自然生態。,886-6-2991111,臺南市709安南區四草里顯草街1段381號(四草大眾廟埕右前方),709,全年皆可，無時間限制(00:00~24:00),"{'PictureUrl1': 'https://swcoast-nsa.travel/image/36638/640x480', 'PictureDescription1': '四草砲台是國定古蹟遺址，但現在只留下砲臺城壘牆垣，是鎮海國小的圍牆'}","{'PositionLon': 120.13481140136719, 'PositionLat': 23.01905059814453, 'GeoHash': 'wsj6vwrrx'}",{},臺南市,2023-07-13T01:40:49+08:00,2023-07-13T02:10:57+08:00
C1_315081600H_000065,鄭成功紀念公園,鄭成功紀念公園位於城西街二段，相傳1661年時．鄭成功是由鹿耳門登陸台灣，而為紀念鄭成功事蹟，鹿耳門聖母廟捐地建立此座紀念公園。公園入口是一座氣勢宏偉、富有中國傳統建築風格的紅色牌樓，進入公園左側為「成功林」，成功林是為了紀念鄭成功登陸三百五十年，在此種植的一片樹林。公園內還有一座高大的鄭成功雕像及一座紀念碑，碑上刻有經國先生所題的「民族英雄鄭成功鹿耳門登陸紀念碑」字樣。樸實的園區內有舒適的涼亭及寬敞的步道，現已成為附近居民飯後散步的好去處，,鄭成功紀念公園位於城西街二段，相傳1661年時．鄭成功是由鹿耳門登陸台灣，而為紀念鄭成功事蹟，鹿耳門聖母廟捐地建立此座紀念公園。公園入口是一座氣勢宏偉、富有中國傳統建築風格的紅色牌樓，進入公園左側為「成功林」，成功林是為了紀念鄭成功登陸三百五十年，在此種植的一片樹林。公園內還有一座高大的鄭成功雕像及一座紀念碑，碑上刻有經國先生所題的「民族英雄鄭成功鹿耳門登陸紀念碑」字樣。樸實的園區內有舒適的涼亭及寬敞的步道，現已成為附近居民飯後散步的好去處，,886-6-2991111,臺南市709安南區城西街2段,709,全年皆可，無時間限制(00:00~24:00),"{'PictureUrl1': 'https://swcoast-nsa.travel/image/36640/640x480', 'PictureDescription1': '公園入口是一座氣勢宏偉、富有中國傳統建築風格的紅色牌樓'}","{'PositionLon': 120.11482238769531, 'PositionLat': 23.058759689331055, 'GeoHash': 'wsj7jm8zn'}",遊憩類,{},臺南市,2023-07-13T01:40:49+08:00,2023-07-13T02:10:57+08:00
C1_315081600H_000066,土城正統鹿耳門聖母廟,臺南是台灣的發源地，正統鹿耳門聖母廟緣起於十六世紀前，因奉祀鹿耳門媽祖而興建。為臺灣唯一奉祀有八百年以上歷史鹿耳門媽金身，及建築面積第一大規模之媽祖廟。現今廟宇共分為五王殿、媽祖殿、佛祖殿、大士殿、天公殿等，仿紫金城宮殿式的北方建築；每年大年初一起舉辦新春嘉年華系列活動，以及大年過的元宵高空煙火秀、炸蜂炮、迓春牛遊行等活動，人潮絡繹不絕！鹿耳門媽祖的活動不僅如此，農曆三月廿三日鹿耳門媽壽誕舉行白米捐獻濟貧，虱目魚料理免費品嚐；每逢丑、辰、未、戌年舉行的三年一次的土城香醮；另外廟方附設福德錢、文物館、文創館、香客大樓，在在兼顧文化、觀光、美食、休閒、慈善，使得正統鹿耳門聖母廟成為臺南地區的首屈一指的觀光廟宇。鹿耳門天后宮歷史概述西元1611年（明永曆十五年）鹿耳門媽顯靈助漲潮水以利鄭成功大軍入臺降服荷軍。西元1612年，荷人投降，鄭王為酬謝鹿耳門媽而重建神廟，並增祀隨艦護軍之文、武館媽及國聖媽；鹿耳門嶼漸成為台灣門戶，躍為軍商重鎮，鹿耳門媽的地位益形崇高且神威顯赫，屢顯聖跡。西元1831年（道光十一年）曾文溪氾濫，聖母廟遭洪水沖毀，鹿耳門媽等神尊於是寄祀三郊海安宮。西元1918年（民國七年）二建聖母廟落成安座，並將寄祀海安宮之鹿耳門媽等七十餘神尊迎回奉祀。西元1913年（日、大正二年）泉州富美宮流放一艘五府千歲王船途經險惡臺灣海峽停靠土城沿海，經媽祖靈示為邀請來護佑萬民，於是土城民眾迎回築一王宮奉祀。西元1916年（大正五年）前往迎回因古聖母廟受洪患臨時寄祀三郊鎮港海安宮之鹿耳門媽等七十餘尊神像。西元1918年（大正七年）二建神廟落成，名為保安宮，直到1960年才更名為《鹿耳門聖母廟》。西元1981年，歷經多次維修重建，在媽祖神威庇佑下，三建神廟終於落成。,臺南是台灣的發源地，正統鹿耳門聖母廟緣起於十六世紀前，因奉祀鹿耳門媽祖而興建。為臺灣唯一奉祀有八百年以上歷史鹿耳門媽金身，及建築面積第一大規模之媽祖廟。現今廟宇共分為五王殿、媽祖殿、佛祖殿、大士殿、天公殿等，仿紫金城宮殿式的北方建築；每年大年初一起舉辦新春嘉年華系列活動，以及大年過的元宵高空煙火秀、炸蜂炮、迓春牛遊行等活動，人潮絡繹不絕！鹿耳門媽祖的活動不僅如此，農曆三月廿三日鹿耳門媽壽誕舉行白米捐獻濟貧，虱目魚料理免費品嚐；每逢丑、辰、未、戌年舉行的三年一次的土城香醮；另外廟方附設福德錢、文物館、文創館、香客大樓，在在兼顧文化、觀光、美食、休閒、慈善，使得正統鹿耳門聖母廟成為臺南地區的首屈一指的觀光廟宇。鹿耳門天后宮歷史概述西元1611年（明永曆十五年）鹿耳門媽顯靈助漲潮水以利鄭成功大...,886-6-2577547,臺南市709安南區城安路160號,709,全年皆可，05:00 - 21:00,"{'PictureUrl1': 'https://swcoast-nsa.travel/image/2565/640x480', 'PictureDescription1': '聖母廟元宵節煙火秀'}","{'PositionLon': 120.12724304199219, 'PositionLat': 23.068029403686523, 'GeoHash': 'wsj7jx3vp'}",{},臺南市,2023-07-13T01:40:49+08:00,2023-07-13T02:10:57+08:00
C1_315081600H_000067,鹿耳門天后宮,鹿耳門繁華夢，文化季延續熱情早期鹿耳門原指一條港道，是臺灣咽喉、臺江的主要航線，古稱「天險」，為兵家必爭之地，是全臺「鹽運、糖運、布匹與貨物」的進出口，而媽祖天后保佑航行順利。惟後經多次天災，臺江內海變成泥濘陸地，港口機能喪失從此聚落衰退，退化成小漁村，天后宮也塌陷。經民國之後臺灣經濟復甦，使重建為今日格局。鹿耳門天后宮內所供奉的媽祖，乃是用大陸珍貴的「宣芝木材」所雕刻而成。 此天后宮外型巍峨雄壯，處處顯現出中國廟堂之美，包括正門前的龍柱、門神、斗拱、屋脊的剪黏藝術、交趾燒、廟牆雕刻、藻井、迴廊、天井等，都是鹿耳門天后宮值得仔細參觀的地方。而鹿耳門天后宮每年農曆12月至翌年3月期間舉行文化季，內容豐富且特色突出，主要分為9大部分：禮俗文化、宗教信仰、漁村古風、農村懷舊、臺江溯源、民意廣場、薪火相傳、文化營隊、文化出版物印製發行等，結合民俗藝術、人文宗教與自然生態等特色的藝文活動，於每年農曆12月至翌年3月期間舉行，活動期長達4個月，在天后宮管委會的規畫籌備之下，每年大約都有70多項動、靜態的單元展演，把人帶入了歷史與鄉土的情感中，活絡人久蜇的熱誠，充實了人們的內心與精神。(本篇資訊內容參考引用來源：鹿耳門天后宮網站),鹿耳門繁華夢，文化季延續熱情早期鹿耳門原指一條港道，是臺灣咽喉、臺江的主要航線，古稱「天險」，為兵家必爭之地，是全臺「鹽運、糖運、布匹與貨物」的進出口，而媽祖天后保佑航行順利。惟後經多次天災，臺江內海變成泥濘陸地，港口機能喪失從此聚落衰退，退化成小漁村，天后宮也塌陷。經民國之後臺灣經濟復甦，使重建為今日格局。鹿耳門天后宮內所供奉的媽祖，乃是用大陸珍貴的「宣芝木材」所雕刻而成。 此天后宮外型巍峨雄壯，處處顯現出中國廟堂之美，包括正門前的龍柱、門神、斗拱、屋脊的剪黏藝術、交趾燒、廟牆雕刻、藻井、迴廊、天井等，都是鹿耳門天后宮值得仔細參觀的地方。而鹿耳門天后宮每年農曆12月至翌年3月期間舉行文化季，內容豐富且特色突出，主要分為9大部分：禮俗文化、宗教信仰、漁村古風、農村懷舊、臺江溯源、民意廣場、薪...,886-6-2841386,臺南市709安南區媽祖宮一街136號,709,全年皆可，06:00~21:00,"{'PictureUrl1': 'https://swcoast-nsa.travel/image/36781/640x480', 'PictureDescription1': '鹿耳門天后宮牌樓與正門'}","{'PositionLon': 120.12448120117188, 'PositionLat': 23.037229537963867, 'GeoHash': 'wsj7j3zcx'}",https://www.luerhmen.org.tw/,{},臺南市,2023-07-13T01:40:49+08:00,2023-07-13T02:10:57+08:00
C1_315081600H_000070,台灣鹽博物館,&quot;台灣鹽博物館自2022年1月10日起閉館整修&quot;台灣鹽博物館是台灣唯一有關鹽產業的主題博物館，保存台灣數百年的鹽業文化資產。「鹽」為鹽工汗水與淚水的結晶，鹽堆狀的外觀造型格外有特色，遠望感覺就像兩座白色金字塔矗立在鹽田裡。鹽博館東面為廣盈鐘乳石館，北面為鹽工住宅群，西面則為荒廢的機械鹽田，並與七股鹽山遙遙相望。走進大廳首先映入眼簾的是仿造當年鹽田風光景緻，讓人返回四、五十年代鹽田生活情境裡，體會鹽工生活的酸甜苦辣。館內二樓是台灣鹽業文化發展的歷史縮影，透過當地耆老與鹽工們口述故事、陳列泛黃的老照片，再到與日常生活有關鹽的各種妙用，非常適合小朋友從中探索；除了觀賞鹽的知識外，館中也有各項鹽商品與鹽咖啡，特別滋味不能錯過！門票資訊票價介紹票種票價身分全票NT$130一般民眾優待票NT$80台南市民團體票NT$100學生、老師、志工、軍警20人以上團體半票NT$504-12歲孩童65歳以上長者身心障礙手冊陪同者1人-(需同時入場)免費NT$0未滿4歳孩童持身心障礙手冊本人七股居民-需出示證件※購買優待票或免費入場者請主動出示證明與鹽精靈有約-定時導覽平日: 10:30、14:30、15:30假日: 10:00、11:00、13:30、14:30、15:30※團體或其他時間如需導覽，請事先洽詢FB粉絲團或來電06-7800698,&quot;台灣鹽博物館自2022年1月10日起閉館整修&quot;台灣鹽博物館是台灣唯一有關鹽產業的主題博物館，保存台灣數百年的鹽業文化資產。「鹽」為鹽工汗水與淚水的結晶，鹽堆狀的外觀造型格外有特色，遠望感覺就像兩座白色金字塔矗立在鹽田裡。鹽博館東面為廣盈鐘乳石館，北面為鹽工住宅群，西面則為荒廢的機械鹽田，並與七股鹽山遙遙相望。走進大廳首先映入眼簾的是仿造當年鹽田風光景緻，讓人返回四、五十年代鹽田生活情境裡，體會鹽工生活的酸甜苦辣。館內二樓是台灣鹽業文化發展的歷史縮影，透過當地耆老與鹽工們口述故事、陳列泛黃的老照片，再到與日常生活有關鹽的各種妙用，非常適合小朋友從中探索；除了觀賞鹽的知識外，館中也有各項鹽商品與鹽咖啡，特別滋味不能錯過！門票資訊票價介紹票種票價身分全票NT$130一般民眾優...,886-3-8875306,臺南市724七股區鹽埕里69號,724,"{'PictureUrl1': 'https://swcoast-nsa.travel/image/2528/640x480', 'PictureDescription1': '台灣鹽博物館外觀'}","{'PositionLon': 120.10552215576172, 'PositionLat': 23.155290603637695, 'GeoHash': 'wsj7tp61m'}",{},'台灣鹽博物館自2022年1月10日起閉館整修',臺南市,2023-07-13T01:40:49+08:00,2023-07-13T02:10:57+08:00
C1_315081600H_000071,黑面琵鷺生態展示館,黑面琵鷺生態展示館因進行建築物除鏽補強工程，自112年4月6日（週四）起暫停對外開放，恢復開放時間將另行通知。黑面琵鷺生態展示館距黑面琵鷺賞鳥亭及主棲地不遠，建築物位於水上，特殊外型是為了不打擾自然生態，內部規劃有展示室空間，詳細介紹黑面琵鷺，包括黑面琵鷺生命史、濕地生態、保育運動及永續發展。 黑面琵鷺有「黑面舞者」美稱，被列為瀕臨滅絕動物保護，目前每年已有穩定的黑面琵鷺群，飛到七股曾文溪口來渡冬，約於9月至10月抵台，一直待到翌年的3月至5月。黑面琵鷺是白天休息，晚間覓食，下午4、5點開始，牠們才會開始玩耍、洗澡，或是互相整理羽毛，幸運的話更可以看到黑面琵鷺振趐飛翔的英姿。 除了大家耳熟能詳的黑面琵鷺外，曾文溪出海口大約有200多種候鳥，若單純以候鳥來看，冬天可以觀察到的鳥種較多，較常見的有鷗科、鷸科，留鳥則有常見的斑鳩、白頭翁等，鳥類資源相當豐富。,黑面琵鷺生態展示館因進行建築物除鏽補強工程，自112年4月6日（週四）起暫停對外開放，恢復開放時間將另行通知。黑面琵鷺生態展示館距黑面琵鷺賞鳥亭及主棲地不遠，建築物位於水上，特殊外型是為了不打擾自然生態，內部規劃有展示室空間，詳細介紹黑面琵鷺，包括黑面琵鷺生命史、濕地生態、保育運動及永續發展。 黑面琵鷺有「黑面舞者」美稱，被列為瀕臨滅絕動物保護，目前每年已有穩定的黑面琵鷺群，飛到七股曾文溪口來渡冬，約於9月至10月抵台，一直待到翌年的3月至5月。黑面琵鷺是白天休息，晚間覓食，下午4、5點開始，牠們才會開始玩耍、洗澡，或是互相整理羽毛，幸運的話更可以看到黑面琵鷺振趐飛翔的英姿。 除了大家耳熟能詳的黑面琵鷺外，曾文溪出海口大約有200多種候鳥，若單純以候鳥來看，冬天可以觀察到的鳥種較多，較常見的...,886-6-7881180#204,臺南市724七股區十份里海埔47號,724,每日 09:00-17:00 (免門票，周一休館),"{'PictureUrl1': 'https://swcoast-nsa.travel/image/36717/640x480', 'PictureDescription1': '黑面琵鷺生態展示館正門口'}","{'PositionLon': 120.06262969970703, 'PositionLat': 23.081470489501953, 'GeoHash': 'wsj7k1fgq'}",{},免費參觀,臺南市,2023-07-13T01:40:49+08:00,2023-07-13T02:10:57+08:00
C1_315081600H_000074,北門提溴塔,北門提溴塔，戰時軍火製造工廠溴素是重要的化工原料，廣泛用在阻燃劑、滅火劑、製冷劑、醫藥、農藥、化學肥料等用途。戰時，日本殖民帝國因軍事戰機燃料中的爆發劑之所需，乃由鹽田濃海水或滷水中提煉，由於生產原料來自鹽場生產的滷水，因此這種類似的軍火原料製造工廠，興建地點皆在鹽場附近。1939年，日本曹達、日本鹽業、臺灣拓殖三個會社於高雄市合組「南日本化學工業株式會社」，在臺南市安平設安平工廠，在布袋、北門等地設分工廠，其中北門溴磚塔就是其中之ㄧ。北門提溴塔組成主要以水泥、木材、磚塊結構搭建及鐵皮覆蓋，戰後，鐵皮及木材被民眾拆除，僅遺留現今仍可見到的「三合一，再加一」的紅磚高塔。根據當地耆老的口述，滷源從北門中洲、井仔腳附近（當時北門鹽場包括蚵寮、王爺港、井仔腳 、北門、中洲五區），利用排竹（四方孟宗竹）做的管子穿洞運送鹽滷，以製造溴素。目前位於臺17線旁上的北門溴磚塔，面積大小約十幾坪，遠望外觀建築逐漸剝落，但仍不減其當年所肩負重擔的事蹟。,北門提溴塔，戰時軍火製造工廠溴素是重要的化工原料，廣泛用在阻燃劑、滅火劑、製冷劑、醫藥、農藥、化學肥料等用途。戰時，日本殖民帝國因軍事戰機燃料中的爆發劑之所需，乃由鹽田濃海水或滷水中提煉，由於生產原料來自鹽場生產的滷水，因此這種類似的軍火原料製造工廠，興建地點皆在鹽場附近。1939年，日本曹達、日本鹽業、臺灣拓殖三個會社於高雄市合組「南日本化學工業株式會社」，在臺南市安平設安平工廠，在布袋、北門等地設分工廠，其中北門溴磚塔就是其中之ㄧ。北門提溴塔組成主要以水泥、木材、磚塊結構搭建及鐵皮覆蓋，戰後，鐵皮及木材被民眾拆除，僅遺留現今仍可見到的「三合一，再加一」的紅磚高塔。根據當地耆老的口述，滷源從北門中洲、井仔腳附近（當時北門鹽場包括蚵寮、王爺港、井仔腳 、北門、中洲五區），利用排竹（四方孟宗竹...,886-6-7861000,臺南市727北門區位於臺17線142KM處附近旁(近北門國小),727,全年皆可，無時間限制(00:00~24:00),"{'PictureUrl1': 'https://swcoast-nsa.travel/image/2521/640x480', 'PictureDescription1': '北門提溴塔'}","{'PositionLon': 120.12535858154297, 'PositionLat': 23.2618408203125, 'GeoHash': 'wsjkmd8w5'}",{},臺南市,2023-07-13T01:40:49+08:00,2023-07-13T02:10:57+08:00
C1_315081600H_000077,六孔碼頭,六孔碼頭搭漁筏，暢遊潟湖樂逍遙想距離潟湖更親近些？搭觀光漁筏是近年來七股最熱門的旅遊方式，六孔碼頭是供遊客搭乘竹筏遊潟湖的小碼頭，不但可搭乘膠筏遊潟湖（適宜的潮汐時間可向船家或民宿詢問），沿途欣賞蚵棚、定置漁網、逛沙洲外，若天氣晴朗，還可欣賞潟湖落日餘暉之美，若遇上服務親切的觀光漁筏船長，船上還會烤蚵仔、虱目魚供遊客品嚐。 潟湖上滿佈蚵棚與竹竿圈起的漁場，漁民操作觀光漁筏巡遊其間，就如同開車般自如。一排排的竹竿圍籬長得都一樣，但漁民可是很清楚這是誰家的漁場。有時漁民會當場示範定置網如何操作。 在這片水域中穿梭，最常看到的就是整排低矮的蚵架，由於水流穩定與海水乾淨，所孕育的蚵仔可算是當地最出名的特產，潟湖中時可見蚵農採收蚵仔的情景，也有釣客悠遊垂鉤。 觀光漁筏船行約20分鐘即可到達沙洲，除了角眼沙蟹、招潮蟹外，兩側大片的木麻黃防風林，則是白鷺鷥最愛的棲息地，偶爾還能看見白鷺鷥等幾種候鳥的鳥巢，甚至嗷嗷待哺的幼鳥，傍晚時分可以看見成鳥歸巢的景象。詳情可洽台江國家公園六孔管理站暨遊客中心06-788-0220,六孔碼頭搭漁筏，暢遊潟湖樂逍遙想距離潟湖更親近些？搭觀光漁筏是近年來七股最熱門的旅遊方式，六孔碼頭是供遊客搭乘竹筏遊潟湖的小碼頭，不但可搭乘膠筏遊潟湖（適宜的潮汐時間可向船家或民宿詢問），沿途欣賞蚵棚、定置漁網、逛沙洲外，若天氣晴朗，還可欣賞潟湖落日餘暉之美，若遇上服務親切的觀光漁筏船長，船上還會烤蚵仔、虱目魚供遊客品嚐。 潟湖上滿佈蚵棚與竹竿圈起的漁場，漁民操作觀光漁筏巡遊其間，就如同開車般自如。一排排的竹竿圍籬長得都一樣，但漁民可是很清楚這是誰家的漁場。有時漁民會當場示範定置網如何操作。 在這片水域中穿梭，最常看到的就是整排低矮的蚵架，由於水流穩定與海水乾淨，所孕育的蚵仔可算是當地最出名的特產，潟湖中時可見蚵農採收蚵仔的情景，也有釣客悠遊垂鉤。 觀光漁筏船行約20分鐘即可到達沙洲，除了角...,886-6-7880220,臺南市724七股區三股里海埔18號,724,全年皆可，無時間限制(00:00~24:00),"{'PictureUrl1': 'https://swcoast-nsa.travel/image/2474/640x480', 'PictureDescription1': '六孔碼頭'}","{'PositionLon': 120.07861328125, 'PositionLat': 23.12359046936035, 'GeoHash': 'wsj7s3w8d'}",遊憩類,{},臺南市,2023-07-13T01:40:49+08:00,2023-07-13T02:10:57+08:00
C1_315081600H_000081,七股海產街,嘗鮮好去處，七股海產街位在七股176縣道兩旁，到處是掛著海產招牌的餐飲店，整條路形成本地著名的「海產街」，遊客在此可以嚐到本地特產新鮮的虱目魚、鹹水吳郭魚、文蛤、鮮蝦、鮮蚵和各式魚產。餐廳價位走向大眾化，經濟實惠，也因此假日人潮洶湧。 七股地區以養殖漁業為大宗，最著名的鹹水吳郭魚、虱目魚、鮮蚵這三樣更可以稱之為七股的海鮮三寶，若是來到這裡不品嚐一下虱目魚的各式料理，或者不吃一碗蚵仔麵線的話，實在說不過去。 海產街的海鮮店開山始祖要算「安哥海產店」，安哥的出現帶動了七股一帶的海產店風潮，最盛時期還多達二十餘家。海產街的料理口味和價錢都以大眾化走向為主，每到假日人潮不斷。 至於想要品嚐精緻一點的海鮮料理，往鹽山方向有一間「龍門客棧」，店內裝潢以中國風為主，樓上的位置擁有良好的視野，可將七股風光盡收眼底，料理上頗具創意也講究擺盤，不僅用料新鮮，價錢上也經濟實惠，值得來嚐試看看。 虱目魚料理，本地的「外國安虱目魚」專賣店名氣也很響亮，不僅有獨家烹調的秘方，還自養、自售虱目魚，此外也提供釣魚場所供人免費釣魚。,嘗鮮好去處，七股海產街位在七股176縣道兩旁，到處是掛著海產招牌的餐飲店，整條路形成本地著名的「海產街」，遊客在此可以嚐到本地特產新鮮的虱目魚、鹹水吳郭魚、文蛤、鮮蝦、鮮蚵和各式魚產。餐廳價位走向大眾化，經濟實惠，也因此假日人潮洶湧。 七股地區以養殖漁業為大宗，最著名的鹹水吳郭魚、虱目魚、鮮蚵這三樣更可以稱之為七股的海鮮三寶，若是來到這裡不品嚐一下虱目魚的各式料理，或者不吃一碗蚵仔麵線的話，實在說不過去。 海產街的海鮮店開山始祖要算「安哥海產店」，安哥的出現帶動了七股一帶的海產店風潮，最盛時期還多達二十餘家。海產街的料理口味和價錢都以大眾化走向為主，每到假日人潮不斷。 至於想要品嚐精緻一點的海鮮料理，往鹽山方向有一間「龍門客棧」，店內裝潢以中國風為主，樓上的位置擁有良好的視野，可將七股風光盡...,886-6-7872611,臺南市724七股區大埕里176縣道,724,全年皆可,"{'PictureUrl1': 'https://swcoast-nsa.travel/image/134/640x480', 'PictureDescription1': '七股海產街'}","{'PositionLon': 120.11377716064453, 'PositionLat': 23.138179779052734, 'GeoHash': 'wsj7tk0jt'}",{},臺南市,2023-07-13T01:40:49+08:00,2023-07-13T02:10:57+08:00
C1_315081600H_000084,四草野生動物保護區,四草的生態環境特殊，被列為台灣四大濕地之一，裡面包括鹽田、水道、運河、溝渠等，豐富的環境可供水鳥棲息與覓食。這裡的鳥類超過160種，其中有21種瀕臨絕種、稀有鳥類，如黑面琵鷺、高蹺鴴、反嘴鴴等。四草最重要的景觀－濕地，孕育的動植物生態極為特殊，生物在這裡相生相繫、互生互依。成就這麼豐富濕地景觀的功臣應當屬－紅海欖、欖李及海茄苳等通稱為紅樹林的植物，它們的地下莖抓住許多水流中的有機物，讓濕地孕育出多彩的生態奇觀。每年9~11月是賞候鳥最佳時節，特別是9、10月時鹽田池水放乾，淺水期間可提供更多的食物，雙十節前後開始進入黑面琵鷺賞鳥的高峰期，5~6月則是高蹺鴴繁殖的高峰期。提醒賞鳥的朋友，在台灣賞鳥記得一句名言：「離鳥愈近，鳥離您愈遠」，遠觀才是最近的距離，尊重自然才能永續生存。,四草的生態環境特殊，被列為台灣四大濕地之一，裡面包括鹽田、水道、運河、溝渠等，豐富的環境可供水鳥棲息與覓食。這裡的鳥類超過160種，其中有21種瀕臨絕種、稀有鳥類，如黑面琵鷺、高蹺鴴、反嘴鴴等。四草最重要的景觀－濕地，孕育的動植物生態極為特殊，生物在這裡相生相繫、互生互依。成就這麼豐富濕地景觀的功臣應當屬－紅海欖、欖李及海茄苳等通稱為紅樹林的植物，它們的地下莖抓住許多水流中的有機物，讓濕地孕育出多彩的生態奇觀。每年9~11月是賞候鳥最佳時節，特別是9、10月時鹽田池水放乾，淺水期間可提供更多的食物，雙十節前後開始進入黑面琵鷺賞鳥的高峰期，5~6月則是高蹺鴴繁殖的高峰期。提醒賞鳥的朋友，在台灣賞鳥記得一句名言：「離鳥愈近，鳥離您愈遠」，遠觀才是最近的距離，尊重自然才能永續生存。,886-6-2840073,臺南市709安南區四草大道上,709,週一~週五8:00~17:30，週六、日需預約,"{'PictureUrl1': 'https://swcoast-nsa.travel/image/36648/640x480', 'PictureDescription1': '野生的高蹺鴴準備降落在水中'}","{'PositionLon': 120.13771057128906, 'PositionLat': 23.029529571533203, 'GeoHash': 'wsj7jb3se'}",{},臺南市,2023-07-13T01:40:49+08:00,2023-07-13T02:10:57+08:00
C1_315081600H_000086,四草大眾廟,四草大眾廟迄今已二百餘年歷史，為安南區四草漁民信仰中心，每年農曆十一月十五日為鎮海元帥壽誕。訪客到此地一遊，除了參拜大眾爺，保佑閤家平安之外，廟後方排水道的紅樹林區，自然形成水上的綠色隧道景觀，不只遮住了豔陽的炙熱，也擋住了寒風的吹襲，冬暖夏涼，乘著膠筏緩緩地移動，棲息於兩岸旁不時有鷺鷥、夜鷺或其他鳥類低空飛過，引起一陣陣驚嘆聲。每年3至5月該區也是冬候鳥北返之遷移期，此時四草的天空，萬鳥奔騰飛翔，景象壯觀更令人難忘。位於廟東側的「抹香鯨陳列館」（票價每人收費十元）存放一對母子鯨的實體展示物，是目前國內最大、最完整的標本。館內同時展示先民所使用的農漁生活用具，極具觀賞與教學之價值。營業時間須留意◼️夏令時段（清明假期後至白露）：早上8：30至下午5：30◼️冬令時段（白露後至清明假期）：早上8：00至下午5：00◼️竹筏港實施總量管制，當日船票售完即不再販售，不便之處敬請見諒!,四草大眾廟迄今已二百餘年歷史，為安南區四草漁民信仰中心，每年農曆十一月十五日為鎮海元帥壽誕。訪客到此地一遊，除了參拜大眾爺，保佑閤家平安之外，廟後方排水道的紅樹林區，自然形成水上的綠色隧道景觀，不只遮住了豔陽的炙熱，也擋住了寒風的吹襲，冬暖夏涼，乘著膠筏緩緩地移動，棲息於兩岸旁不時有鷺鷥、夜鷺或其他鳥類低空飛過，引起一陣陣驚嘆聲。每年3至5月該區也是冬候鳥北返之遷移期，此時四草的天空，萬鳥奔騰飛翔，景象壯觀更令人難忘。位於廟東側的「抹香鯨陳列館」（票價每人收費十元）存放一對母子鯨的實體展示物，是目前國內最大、最完整的標本。館內同時展示先民所使用的農漁生活用具，極具觀賞與教學之價值。營業時間須留意◼️夏令時段（清明假期後至白露）：早上8：30至下午5：30◼️冬令時段（白露後至清明假期）：早上...,886-6-2841610,臺南市709安南區大眾路360號,709,夏令時段（清明假期後至白露）：早上8：30至下午5：30冬令時段（白露後至清明假期）：早上8：00至下午5：00,"{'PictureUrl1': 'https://swcoast-nsa.travel/image/697/640x480', 'PictureDescription1': '四草大眾廟外觀'}","{'PositionLon': 120.1351318359375, 'PositionLat': 23.019939422607422, 'GeoHash': 'wsj6vwxsz'}",{},臺南市,2023-07-13T01:40:49+08:00,2023-07-13T02:10:57+08:00
C1_315081600H_000087,青鯤鯓扇形鹽田,扇形鹽田位於將軍鯤鯓里，屬於七股鹽場第一工區，介於將軍漁港南方和青鯤鯓北方，由臺鹽於1975年開闢，1977年開始曬鹽，為臺灣最年輕且具有特色的鹽田。扇形鹽田以鹽工宿舍為核心向外發散成扇形鹽田，鹽田中的扇骨為給水溝、排水溝、給鹵溝、道路，扇骨之間劃分為一塊塊的鹽田，其中收鹽的結晶池位於最靠近宿舍的位置，便於鹽工就近作業。從扇形鹽田的開闢到轉為機械化曬鹽，短短不過十年，許多曬鹽勞務原屬於短期工作，只有在產鹽旺季才會募集當地居民協助收鹽，所以並未如臺區與南鹽區的鹽工落地生根，2002年曬鹽結束後，很快就人去樓空，目前已廢曬。黃昏期間可在鹽田周邊欣賞多彩晚霞，霞光照映在鹽田水面，形成浪漫場景，為近期熱門打卡點之一，而從空中俯瞰更可一窺扇形鹽田紋理之美。,扇形鹽田位於將軍鯤鯓里，屬於七股鹽場第一工區，介於將軍漁港南方和青鯤鯓北方，由臺鹽於1975年開闢，1977年開始曬鹽，為臺灣最年輕且具有特色的鹽田。扇形鹽田以鹽工宿舍為核心向外發散成扇形鹽田，鹽田中的扇骨為給水溝、排水溝、給鹵溝、道路，扇骨之間劃分為一塊塊的鹽田，其中收鹽的結晶池位於最靠近宿舍的位置，便於鹽工就近作業。從扇形鹽田的開闢到轉為機械化曬鹽，短短不過十年，許多曬鹽勞務原屬於短期工作，只有在產鹽旺季才會募集當地居民協助收鹽，所以並未如臺區與南鹽區的鹽工落地生根，2002年曬鹽結束後，很快就人去樓空，目前已廢曬。黃昏期間可在鹽田周邊欣賞多彩晚霞，霞光照映在鹽田水面，形成浪漫場景，為近期熱門打卡點之一，而從空中俯瞰更可一窺扇形鹽田紋理之美。,886-6-7861000,臺南市725將軍區鯤鯓里,725,全年皆可，無時間限制(00:00~24:00),"{'PictureUrl1': 'https://swcoast-nsa.travel/image/24539/640x480', 'PictureDescription1': '扇形鹽田'}","{'PositionLon': 120.0890121459961, 'PositionLat': 23.193870544433594, 'GeoHash': 'wsj7uwq4h'}",{},臺南市,2023-07-13T01:40:49+08:00,2023-07-13T02:10:57+08:00
C1_315081600H_000089,東隆宮王爺信仰文物館,東隆文化中心，民俗文物豐富東隆宮王爺信仰文物館佔地200多坪，外觀為宮廷與傳統閩南式混合的建築設計。位於館內三樓的東隆宮王爺信仰文物館，最大特色在於展示王爺信仰的淵源及早年農村廟會迎神的過程。館內大量蒐集有關早期王爺信仰的文獻資料，並邀請雕刻家把王爺信仰中宋江陣、36節的「蜈蚣陣」、神轎、報馬仔、牌班等數十種陣頭的樣式，用樟木雕刻保存下來，每尊人物表情生動、活潑，除讓遊客體驗當時民間流傳各式陣頭熱鬧表演的情景外，更以透過靜態文物展示的方式，深入瞭解請王、送王船儀式、廟會建醮等民俗藝術的知識。 水滸英雄館 東隆宮王爺信仰文物館的另一項特色就是擁有《水滸傳》中梁山泊108條好漢的陶塑人像。原本梁山泊與王爺信仰一點關係都沒有，當年因廟方管理人員喜愛而蒐藏，後禮聘中國廣東石灣陶藝場名家，耗時三年時間製作完成108尊栩栩如生的交趾陶人像，每尊人像雕工精細，也充分地展現出鋤強扶弱好漢的粗曠性格，是國內難得一見的民俗藝術作品。 禮俗文物館 位於四樓東側的禮俗文物館為王爺信仰文物延伸副館，館內主要展示民間祭祀禮俗文物，包括有金銀紙類、祭祀法器及祝壽排場，並逐一做詳盡說明與用途介紹，提供研究與保存民間習俗的主題文物館。,東隆文化中心，民俗文物豐富東隆宮王爺信仰文物館佔地200多坪，外觀為宮廷與傳統閩南式混合的建築設計。位於館內三樓的東隆宮王爺信仰文物館，最大特色在於展示王爺信仰的淵源及早年農村廟會迎神的過程。館內大量蒐集有關早期王爺信仰的文獻資料，並邀請雕刻家把王爺信仰中宋江陣、36節的「蜈蚣陣」、神轎、報馬仔、牌班等數十種陣頭的樣式，用樟木雕刻保存下來，每尊人物表情生動、活潑，除讓遊客體驗當時民間流傳各式陣頭熱鬧表演的情景外，更以透過靜態文物展示的方式，深入瞭解請王、送王船儀式、廟會建醮等民俗藝術的知識。 水滸英雄館 東隆宮王爺信仰文物館的另一項特色就是擁有《水滸傳》中梁山泊108條好漢的陶塑人像。原本梁山泊與王爺信仰一點關係都沒有，當年因廟方管理人員喜愛而蒐藏，後禮聘中國廣東石灣陶藝場名家，耗時三年時間...,886-6-7850355,臺南市727北門區三寮灣三光村127-3號,727,早上08:30至下午16:30（中午11:30～13:00休息）每週一休館，如有需要請事先聯繫,"{'PictureUrl1': 'https://swcoast-nsa.travel/image/36747/640x480', 'PictureDescription1': '東隆宮文化中心外觀為宮廷與傳統閩南式混合的建築設計，除了廟宇之外很少見如此宏偉'}","{'PositionLon': 120.11170196533203, 'PositionLat': 23.238279342651367, 'GeoHash': 'wsjkjnqsv'}",{},每人清潔費100元（團體可事前預約）,臺南市,2023-07-13T01:40:49+08:00,2023-07-13T02:10:57+08:00
C1_315081600H_000094,雙春濱海遊憩區,雙春濱海遊憩區是位在台南北門的生態遊憩場所，園區內規劃紅樹林觀察區，網羅台灣珍貴的4種原生紅樹林：海茄苳、水筆仔、欖李、紅海欖（亦稱五梨跤），適合帶著孩子一同前往，認識台灣特有生態。在成為遊憩區前，這裡多以漁塭養殖為主，地域稱為永春，後來面積擴大，延伸出了內外永春兩處，才成為今日的「雙春」。雙春濱海遊憩區設置有南北兩條木棧道，架設在紅樹林與防風林之間，讓遊客能夠近距離觀察濕地生態，除了紅樹林外，招潮蟹、彈塗魚還有水鳥，都是雙春最迷人的景緻。紅樹林生態木棧道讓人置身於綠色隧道，與四草綠色隧道不同的是，雙春的綠色隧道是陸地版，旅人能夠悠閒地漫步其中，體會被翠綠簇擁的浪漫氛圍。除了紅樹林生態步道，雙春濱海遊憩區還擁有美麗的黃金沙灘，許多旅人會在落日時分，欣賞夕陽落下海平面壯觀美景。另有一處水上星空露營區，純白色的帳篷座落在海濱，所見景緻如畫。,雙春濱海遊憩區是位在台南北門的生態遊憩場所，園區內規劃紅樹林觀察區，網羅台灣珍貴的4種原生紅樹林：海茄苳、水筆仔、欖李、紅海欖（亦稱五梨跤），適合帶著孩子一同前往，認識台灣特有生態。在成為遊憩區前，這裡多以漁塭養殖為主，地域稱為永春，後來面積擴大，延伸出了內外永春兩處，才成為今日的「雙春」。雙春濱海遊憩區設置有南北兩條木棧道，架設在紅樹林與防風林之間，讓遊客能夠近距離觀察濕地生態，除了紅樹林外，招潮蟹、彈塗魚還有水鳥，都是雙春最迷人的景緻。紅樹林生態木棧道讓人置身於綠色隧道，與四草綠色隧道不同的是，雙春的綠色隧道是陸地版，旅人能夠悠閒地漫步其中，體會被翠綠簇擁的浪漫氛圍。除了紅樹林生態步道，雙春濱海遊憩區還擁有美麗的黃金沙灘，許多旅人會在落日時分，欣賞夕陽落下海平面壯觀美景。另有一處水上星空...,886-6-7865355,臺南市727北門區雙春村35-5號,727,"{'PictureUrl1': 'https://swcoast-nsa.travel/image/36757/640x480', 'PictureDescription1': '雙春濱海遊憩區有著小忘憂森林的美名，走在木棧道上還可以近距離觀察濕地生態'}","{'PositionLon': 120.11296844482422, 'PositionLat': 23.312009811401367, 'GeoHash': 'wsjkt5zd7'}",遊憩類,{},●全票：150 元/人　（適用一般成人及十二歲以上青少年）●半票：100 元/人　（適用年滿六十五歳身分證明之本人、六歳以上，未滿十二歳之兒童）　　　　　　　　　　　　　　　　　　...,臺南市,2023-07-13T01:40:49+08:00,2023-07-13T02:10:57+08:00
C1_315081600H_000096,三寮灣東隆宮,東隆宮是三寮灣先民們隨著鄭成功渡海來臺開墾，為保佑平安渡海，特迎請李府千歲神像護佑，後眾生為感念千歲神威大顯，初乃創草寮、建公厝奉祀。東隆宮以傳統閩式建築設計，內主祀神明有李、溫、吳、池府千歲及保生大帝。廟內同時供祀二艘永遠駐廟的王船，一木一銅，啟建於西元1976年間；銅製王船為全台唯一的泉州式古帆船，水手、船舍雕工精細，人物造型神態活現，深具民俗藝術價值。此地王船文化信仰乃源自屏東東港溪流域，廟方為弘揚王爺故鄉的特有文化，特在東隆宮旁的文化中心三、四樓設置王爺信仰文物館、水滸英雄館及禮俗文物等三大主題館，展現宗教的力與美。熱鬧的「送王船」活動，每三年舉行一次，是恭送「溫王爺」乘船代天巡狩，所乘之船號稱「溫王船」的木造王船，會在溫府千歲誕辰日的農曆十一月初一日啟行，先「遷船」遶庄接受膜拜，後轉「航」火化；信眾認為「溫王爺」將在代天巡狩後，升天向玉皇大帝報告，之後才返廟坐鎮，成為台灣著名宗教文化活動！,東隆宮是三寮灣先民們隨著鄭成功渡海來臺開墾，為保佑平安渡海，特迎請李府千歲神像護佑，後眾生為感念千歲神威大顯，初乃創草寮、建公厝奉祀。東隆宮以傳統閩式建築設計，內主祀神明有李、溫、吳、池府千歲及保生大帝。廟內同時供祀二艘永遠駐廟的王船，一木一銅，啟建於西元1976年間；銅製王船為全台唯一的泉州式古帆船，水手、船舍雕工精細，人物造型神態活現，深具民俗藝術價值。此地王船文化信仰乃源自屏東東港溪流域，廟方為弘揚王爺故鄉的特有文化，特在東隆宮旁的文化中心三、四樓設置王爺信仰文物館、水滸英雄館及禮俗文物等三大主題館，展現宗教的力與美。熱鬧的「送王船」活動，每三年舉行一次，是恭送「溫王爺」乘船代天巡狩，所乘之船號稱「溫王船」的木造王船，會在溫府千歲誕辰日的農曆十一月初一日啟行，先「遷船」遶庄接受膜拜，後...,886-6-7850135,臺南市727北門區三光里95號,727,參觀或開放時間為 05:00-20:00,"{'PictureUrl1': 'https://swcoast-nsa.travel/image/2481/640x480', 'PictureDescription1': '三寮灣東隆宮'}","{'PositionLon': 120.11174774169922, 'PositionLat': 23.23883056640625, 'GeoHash': 'wsjkjnqxy'}",{},臺南市,2023-07-13T01:40:49+08:00,2023-07-13T02:10:57+08:00
C1_315081600H_000138,錢來也雜貨店,錢來也雜貨店興建於西元1952年，為傳統斜瓦平房的老建築。早期做為台鹽鹽工福利社，提供購買日常用品及育樂中心，直到北門鹽場停止鹽業生產工作，福利社也正式劃下句點。西元2003年，留法建築師林雅茵率領一批參加多元就業方案的中高齡失業者，在此展開化腐朽為神奇的改造行動，重新賦予錢來也雜貨店新時代意義，經過閒置空間改造，十分具有當地特色風情，牆壁外觀是利用當地廢棄瓦片、貝殼、蚵殼鋪至而成，屋前掛著金元寶的招牌，象徵生意興隆、財源滾滾。2005年經典偶像劇《王子變青蛙》也特別到此取景拍攝，將錢來也設定為劇中女主角的住家，電視劇播出後，吸引許多遊客前來拍照留影，目前錢來也內部販售琳瑯滿目的童玩及古早味零嘴，勾起無數旅客的童年回憶。,錢來也雜貨店興建於西元1952年，為傳統斜瓦平房的老建築。早期做為台鹽鹽工福利社，提供購買日常用品及育樂中心，直到北門鹽場停止鹽業生產工作，福利社也正式劃下句點。西元2003年，留法建築師林雅茵率領一批參加多元就業方案的中高齡失業者，在此展開化腐朽為神奇的改造行動，重新賦予錢來也雜貨店新時代意義，經過閒置空間改造，十分具有當地特色風情，牆壁外觀是利用當地廢棄瓦片、貝殼、蚵殼鋪至而成，屋前掛著金元寶的招牌，象徵生意興隆、財源滾滾。2005年經典偶像劇《王子變青蛙》也特別到此取景拍攝，將錢來也設定為劇中女主角的住家，電視劇播出後，吸引許多遊客前來拍照留影，目前錢來也內部販售琳瑯滿目的童玩及古早味零嘴，勾起無數旅客的童年回憶。,886-6-7861515,臺南市727北門區北門區舊埕187號,727,星期日08:30–17:30星期一08:30–17:30星期二08:30–17:30星期三08:30–17:30星期四08:30–17:30星期五08:30–17:30星期六08:30–17:30,"{'PictureUrl1': 'https://swcoast-nsa.travel/image/2566/640x480', 'PictureDescription1': '錢來也雜貨店因偶像劇而走紅成為熱門觀光景點，現在仍維持雜貨店的特色，賣著傳統小零嘴'}","{'PositionLon': 120.12399291992188, 'PositionLat': 23.26803970336914, 'GeoHash': 'wsjkm7zd5'}",{},臺南市,2023-07-13T01:40:49+08:00,2023-07-13T02:10:57+08:00
C1_315081600H_000145,篤加聚落文物展覽館,篤加聚落是由邱姓家族逐漸繁衍發展而成，清一色住戶皆姓邱，是臺灣目前保存最完整且最大的單姓血緣型聚落。篤加聚落的祖先早期從福建移墾臺灣、成家立業、繁衍後代、聚族而居，這樣的歷程如同是早期開發臺南地區，形成聚落的縮影。篤加聚落位於七股區，為一處環境優美的漁村，早期主要盛產虱目魚，近期則為臺灣烏魚子重要產地，養殖面積共超過250公頃。「篤加聚落文物展覽館」是臺南首座聚落型文物館，以社區博物館的理念規劃經營，分四區八主題，整體空間動線採多媒體、實物、照片、文獻、影片等方式，呈現篤加聚落文化的多樣面貌。展館平時不對外開放，如欲參觀請事前洽詢社區活動中心。,篤加聚落是由邱姓家族逐漸繁衍發展而成，清一色住戶皆姓邱，是臺灣目前保存最完整且最大的單姓血緣型聚落。篤加聚落的祖先早期從福建移墾臺灣、成家立業、繁衍後代、聚族而居，這樣的歷程如同是早期開發臺南地區，形成聚落的縮影。篤加聚落位於七股區，為一處環境優美的漁村，早期主要盛產虱目魚，近期則為臺灣烏魚子重要產地，養殖面積共超過250公頃。「篤加聚落文物展覽館」是臺南首座聚落型文物館，以社區博物館的理念規劃經營，分四區八主題，整體空間動線採多媒體、實物、照片、文獻、影片等方式，呈現篤加聚落文化的多樣面貌。展館平時不對外開放，如欲參觀請事前洽詢社區活動中心。,886-6-7873683,臺南市724七股區篤加里篤加47之7號,724,文物館由篤加社區運作，平常不對外開放如欲參訪可洽+886-6-7873772預約參觀,"{'PictureUrl1': 'https://swcoast-nsa.travel/image/36663/640x480', 'PictureDescription1': '篤加聚落為早期從福建移墾台灣的邱姓家族發展而成，是臺灣目前保存最完整且最大的單姓血緣型聚落'}","{'PositionLon': 120.12767028808594, 'PositionLat': 23.159589767456055, 'GeoHash': 'wsj7v8463'}",{},免費參觀,臺南市,2023-07-13T01:40:49+08:00,2023-07-13T02:10:57+08:00
C1_315081600H_000152,北門鹽場(北門舊埕州北場鹽田),北門鹽場，重建觀光新面貌臺南市擁有北門與七股二個鹽場，二者卻是迥異的鹽場，七股鹽場均是土盤鹽田，有最新的鹽田；北門鹽場則全是瓦盤鹽田，有台灣目前最老的現址鹽田(1818年所開闢的井仔腳鹽田)；本鹽場介於急水溪以南、三寮灣溪以北，因歷史久遠，鹽工經驗豐富，產鹽色質稱冠全台，七股鹽場、安順鹽場、烏樹林鹽場的開闢，均需靠北門鹽工的支援，使得這裏和新厝鹽田一樣，成為台灣鹽鄉的原鄉。2000年時，因新闢的濱海快速道路從中穿過，不僅使得本鹽場較他場提早結束，也使鹽田景光受損嚴重，而今重新整建為觀光鹽田後，舊埕不舊，有了嶄新的面貌。,北門鹽場，重建觀光新面貌臺南市擁有北門與七股二個鹽場，二者卻是迥異的鹽場，七股鹽場均是土盤鹽田，有最新的鹽田；北門鹽場則全是瓦盤鹽田，有台灣目前最老的現址鹽田(1818年所開闢的井仔腳鹽田)；本鹽場介於急水溪以南、三寮灣溪以北，因歷史久遠，鹽工經驗豐富，產鹽色質稱冠全台，七股鹽場、安順鹽場、烏樹林鹽場的開闢，均需靠北門鹽工的支援，使得這裏和新厝鹽田一樣，成為台灣鹽鄉的原鄉。2000年時，因新闢的濱海快速道路從中穿過，不僅使得本鹽場較他場提早結束，也使鹽田景光受損嚴重，而今重新整建為觀光鹽田後，舊埕不舊，有了嶄新的面貌。,886-6-7957850#11,臺南市727北門區舊埕,727,星期日：09:00 – 17:00星期一：09:00 – 17:00星期二：09:00 – 17:00星期三：09:00 – 17:00星期四：09:00 – 17:00星期五：09:00 – 17:00星期六：09:00 – 17:00,"{'PictureUrl1': 'https://swcoast-nsa.travel/image/36666/640x480', 'PictureDescription1': '北門鹽場也是瓦盤鹽田，產鹽直到民國89年，後為發展觀光而復曬'}","{'PositionLon': 120.12024688720703, 'PositionLat': 23.266700744628906, 'GeoHash': 'wsjkm7sfk'}",{},臺南市,2023-07-13T01:40:49+08:00,2023-07-13T02:10:57+08:00
C1_315081600H_000154,北門遊客中心(北門婚紗美地),遊客中心特色導覽，揭露鹽鄉濱海風情雲嘉南濱海國家風景區管理處北門遊客中心是由北門洗滌鹽工廠舊建物群中的西南側倉庫群所改建，外觀仍保留著原工廠山牆斜屋頂造型。全館佈設由北而南以地理分區概念介紹雲嘉南濱海國家風景區的景點，並整合區內「鹽業歷史」、「濕地生態」、「宗教人文」、「地方產業」與「文學藝術」等觀光資源，規劃主題區介紹與多媒體互動區。館內除了有簡報室可欣賞觀光資源影片，以及各項多媒體展區與遊客互動外，館外也展示也十分精采：◎素人畫家－洪通的藝術展牆：無師自通的北門素人畫家洪通先生，有「東方畢卡索」之稱。其作品畫面流露出靈性與強烈的精神力量、筆觸細膩、紋理形式繁瑣，神秘的文字畫與用色豐富的畫風，至今仍為人所稱道。管理處運用其多元神秘的瑰麗畫作，妝點於遊客中心東側門窗及西側外牆，歡迎您細細欣賞。◎海翁返北門－抹香鯨標本區：說起這抹香鯨標本與北門的淵源可深了。2005年12月29日當時的北門鄉民發現了這位擱淺於王爺港汕上的巨大訪客（身長約14公尺、重達50公噸的雄性抹香鯨），由於體積與重量過於龐大而就地先行掩埋。2008年2月，在當時臺南縣政府、國立臺灣博物館及專業團隊與熱心的北門鄉親支持下，抹香鯨破土重出，標本製作完成後並於國立台灣博物館展出，2009年移展至臺南市蕭壠文化園區，並於當年12月4日運回北門遊客中心，受到北門鄉親熱烈的歡迎。※北門遊客中心開放及簡報室影片播放注意事項：一、開館時間：除了除夕日休館外，每日開放時間為上午9時至下午17時30分。二、北門遊客中心內部多媒體展示設備眾多，為利營運維護，及保持遊客服務空間之乾淨舒適，全館禁止飲食及攜帶寵物入館。三、簡報室影片預約：（一）座位數：本遊客中心簡報室共計121個座位（另有3格供輪椅停放之空間）。（二）影片欣賞一律採固定場次放映，如需加開場次，請透過線上預約申請。（三）各場次均將準時依表訂時間放映，請提前於開場前5分鐘進場。（四）鑑於簡報室於影片播放時，燈光昏暗，為保障遊客入場的安全，及已準時進場的遊客權益，凡逾播放時間到場者，恕不開放進場。※影片播放場次場次時間 影片內容及片長09:30 鹽田文化（6分鐘）10:30 北國來的嬌客&關關雎鳩（8分鐘）11:30 漁村美術館 （6分鐘） 13:30 王爺祭 （30分鐘） 14:30 濱海信仰傳千古（5分鐘）15:30 羅曼蒂克大道 （5分鐘） 16:30 鮮食美味在這裡 （5分鐘）備註：以上影片播放時間與場次得由本處視需要調整後公告。,遊客中心特色導覽，揭露鹽鄉濱海風情雲嘉南濱海國家風景區管理處北門遊客中心是由北門洗滌鹽工廠舊建物群中的西南側倉庫群所改建，外觀仍保留著原工廠山牆斜屋頂造型。全館佈設由北而南以地理分區概念介紹雲嘉南濱海國家風景區的景點，並整合區內「鹽業歷史」、「濕地生態」、「宗教人文」、「地方產業」與「文學藝術」等觀光資源，規劃主題區介紹與多媒體互動區。館內除了有簡報室可欣賞觀光資源影片，以及各項多媒體展區與遊客互動外，館外也展示也十分精采：◎素人畫家－洪通的藝術展牆：無師自通的北門素人畫家洪通先生，有「東方畢卡索」之稱。其作品畫面流露出靈性與強烈的精神力量、筆觸細膩、紋理形式繁瑣，神秘的文字畫與用色豐富的畫風，至今仍為人所稱道。管理處運用其多元神秘的瑰麗畫作，妝點於遊客中心東側門窗及西側外牆，歡迎您細細欣賞...,886-6-7861017,臺南市727北門區北門里200號,727,每日 09:00-17:30（除夕日休館）,"{'PictureUrl1': 'https://swcoast-nsa.travel/image/2518/640x480', 'PictureDescription1': '入口意象'}","{'PositionLon': 120.12397003173828, 'PositionLat': 23.26715087890625, 'GeoHash': 'wsjkm7xsg'}",{},臺南市,2023-07-13T01:40:49+08:00,2023-07-13T02:10:57+08:00
C1_315081600H_000248,七股紅樹林保護區,強韌海茄冬，紅樹林展現生命力！紅樹林之名，始於已消失的紅茄苳，現今泛指生長於海岸潮間帶之間的木本植群，緣於河口地區特殊的生態環境，在河口海邊發育的紅樹林，每天要忍受潮水漲退潮的嚴厲考驗，環境乾濕度的改變相當劇烈，一般植物鮮有在此討生活的本領，所以紅樹林又有「潮汐林」之稱。七股溪、將軍溪出海口皆有紅樹林的自然生態體系。3百多年前，本區的紅樹林即已十分茂盛，當時的漚汪溪還被荷蘭人稱之為「綠谷」。其中七股溪以「海茄苳」為主，而將軍溪則以「水筆仔」較具優勢。七股紅樹林保護區位於七股溪出海口附近，因河川上游大量的腐植質與營養鹽堆積，使得土質較一般海岸線肥沃，為招潮蟹、各種魚蝦貝類等生物和眾多鳥類提供了良好的多樣性生態系，進而構築成完整的食物鏈。七股居民多以養殖漁業維生，這片紅樹林因而吸引大量以魚類為主食的白鷺鷥前來棲息，七股紅樹林保護區沿路設有三層樓高視野極佳的觀鳥亭，可觀看海鳥、白鷺鷥等鳥類之飛舞英姿外，還可看到很多在地居民的特殊捕魚景觀。建議觀賞點：紅樹林賞鳥亭,強韌海茄冬，紅樹林展現生命力！紅樹林之名，始於已消失的紅茄苳，現今泛指生長於海岸潮間帶之間的木本植群，緣於河口地區特殊的生態環境，在河口海邊發育的紅樹林，每天要忍受潮水漲退潮的嚴厲考驗，環境乾濕度的改變相當劇烈，一般植物鮮有在此討生活的本領，所以紅樹林又有「潮汐林」之稱。七股溪、將軍溪出海口皆有紅樹林的自然生態體系。3百多年前，本區的紅樹林即已十分茂盛，當時的漚汪溪還被荷蘭人稱之為「綠谷」。其中七股溪以「海茄苳」為主，而將軍溪則以「水筆仔」較具優勢。七股紅樹林保護區位於七股溪出海口附近，因河川上游大量的腐植質與營養鹽堆積，使得土質較一般海岸線肥沃，為招潮蟹、各種魚蝦貝類等生物和眾多鳥類提供了良好的多樣性生態系，進而構築成完整的食物鏈。七股居民多以養殖漁業維生，這片紅樹林因而吸引大量以魚類為主...,886-6-7861000,臺南市724七股區,724,紅樹林賞鳥亭︰全年皆可，無時間限制(00:00~24:00),"{'PictureUrl1': 'https://swcoast-nsa.travel/image/2456/640x480', 'PictureDescription1': '七股紅樹林'}","{'PositionLon': 120.08970642089844, 'PositionLat': 23.118389129638672, 'GeoHash': 'wsj7s8wdk'}",{},臺南市,2023-07-13T01:40:49+08:00,2023-07-13T02:10:57+08:00
C1_315081600H_000273,國聖港燈塔,立於沙洲之上，國境極西的燈塔民國46年（西元1957年）興建的國聖港燈塔，位於臺南市七股區國聖港，也是台灣極西的燈塔，為一方錐形鋼架結構，塔身顏色為黑白相間。原國聖港燈塔啟用發光後，因受颱風襲擊及海潮侵蝕，沙洲盡失，整個燈塔陷入汪洋大海之中，民國58年遭受「衛歐拉」颱風摧襲，塔身倒塌，無法使用；民國59年6月移至附近頂頭額汕另建新塔，代替舊塔發光。 一日遊建議行程：七股鹽山&rarr;臺灣鹽博物館&rarr;七股潟湖搭船&rarr;國聖港燈塔。晚上無照明，不建議夜間前往。因北堤堤防北邊入口因風勢關係易沙土淤積，請民眾前往時注意安全，以免車輪陷入泥沙中。建議從北堤堤防南邊入口進入。,立於沙洲之上，國境極西的燈塔民國46年（西元1957年）興建的國聖港燈塔，位於臺南市七股區國聖港，也是台灣極西的燈塔，為一方錐形鋼架結構，塔身顏色為黑白相間。原國聖港燈塔啟用發光後，因受颱風襲擊及海潮侵蝕，沙洲盡失，整個燈塔陷入汪洋大海之中，民國58年遭受「衛歐拉」颱風摧襲，塔身倒塌，無法使用；民國59年6月移至附近頂頭額汕另建新塔，代替舊塔發光。 一日遊建議行程：七股鹽山&rarr;臺灣鹽博物館&rarr;七股潟湖搭船&rarr;國聖港燈塔。晚上無照明，不建議夜間前往。因北堤堤防北邊入口因風勢關係易沙土淤積，請民眾前往時注意安全，以免車輪陷入泥沙中。建議從北堤堤防南邊入口進入。,886-6-7861000,臺南市724七股區國聖港,724,燈塔坐落於開放空間且無人駐守，可隨時任意觀賞。,"{'PictureUrl1': 'https://swcoast-nsa.travel/image/36735/640x480', 'PictureDescription1': '國聖港燈塔於2022年整修完畢'}","{'PositionLon': 120.03585052490234, 'PositionLat': 23.100690841674805, 'GeoHash': 'wsj77mr7q'}",遊憩類,{},「本停車處所位置偏僻，曾發生宵小打破車窗偷竊財物等案件，遊客下車時切勿將皮包、筆電或其他貴重物品放置車內，避免遭竊」,臺南市,2023-07-13T01:40:49+08:00,2023-07-13T02:10:57+08:00
C1_315081600H_000299,青山漁港,青鯤鯓是一座位於將軍區的漁村，在此可感受到濃厚的純樸味，而臺南海線地區共有7座漁港，其中位於安平、將軍兩大漁港間的就是青鯤鯓的青山漁港。青山漁港早年被稱為剝蝦村，因為這裡是火燒蝦乾的起源地，火燒蝦乾製作方式相當費時費工，需先剝殼再挑起蝦內的筋，並置放於陽光下長時間曝曬，利用天然日光及海風調味，保留蝦子的鮮甜，是青鯤鯓獨有的道地天然臺灣味。白天可在青山漁港選購新鮮漁貨及特色乾貨，運氣好還有機會參與到熱鬧的漁貨叫賣，周邊也有多家美味蚵嗲及海鮮餐廳，傍晚時分則可在此欣賞鹽田及漁港夕陽美景，有美食又有美景的青山漁港相當值得一遊！,青鯤鯓是一座位於將軍區的漁村，在此可感受到濃厚的純樸味，而臺南海線地區共有7座漁港，其中位於安平、將軍兩大漁港間的就是青鯤鯓的青山漁港。青山漁港早年被稱為剝蝦村，因為這裡是火燒蝦乾的起源地，火燒蝦乾製作方式相當費時費工，需先剝殼再挑起蝦內的筋，並置放於陽光下長時間曝曬，利用天然日光及海風調味，保留蝦子的鮮甜，是青鯤鯓獨有的道地天然臺灣味。白天可在青山漁港選購新鮮漁貨及特色乾貨，運氣好還有機會參與到熱鬧的漁貨叫賣，周邊也有多家美味蚵嗲及海鮮餐廳，傍晚時分則可在此欣賞鹽田及漁港夕陽美景，有美食又有美景的青山漁港相當值得一遊！,886-6-7920186,臺南市725將軍區南26鄉道101號,725,每天約下午2點開始至賣完為止,"{'PictureUrl1': 'https://swcoast-nsa.travel/image/2536/640x480', 'PictureDescription1': '青山漁港'}","{'PositionLon': 120.08609771728516, 'PositionLat': 23.18967056274414, 'GeoHash': 'wsj7uts18'}",遊憩類,{},臺南市,2023-07-13T01:40:49+08:00,2023-07-13T02:10:57+08:00
C1_315081600H_000300,四草綠色隧道,四草綠色隧道所指的是四草大眾廟後方排水道的紅樹林區，這條河道因兩側遍佈樹齡逾50年的原生紅樹林，自然形成一彎如隧道般的景象，號稱「迷你版亞馬遜森林」，同時也是臺灣唯一的水上綠色河道。四草綠色隧道的航行路線分成兩條：紅樹林隧道及四草台江之旅，在上竹筏之前，每位乘客都需要穿上救生衣，再領取遮陽和保護頭部的斗笠，準備妥當後就可以登上竹筏，開啟這場綠色隧道探險啦！隧道兩旁不時有鷺鷥、夜鷺或其他鳥類低空飛過，四草大眾廟紅樹林保護區林相優美，擁有五梨跤、水筆仔、欖李、海茄苳四種紅樹林。船上的解說員也會沿途細說當地生態，遊客也亦可透過望遠鏡觀察紅樹林下的招潮蟹、彈塗魚等生物，是生態旅遊的最佳場域，亦是攝影師最愛捕捉的自然美景。,四草綠色隧道所指的是四草大眾廟後方排水道的紅樹林區，這條河道因兩側遍佈樹齡逾50年的原生紅樹林，自然形成一彎如隧道般的景象，號稱「迷你版亞馬遜森林」，同時也是臺灣唯一的水上綠色河道。四草綠色隧道的航行路線分成兩條：紅樹林隧道及四草台江之旅，在上竹筏之前，每位乘客都需要穿上救生衣，再領取遮陽和保護頭部的斗笠，準備妥當後就可以登上竹筏，開啟這場綠色隧道探險啦！隧道兩旁不時有鷺鷥、夜鷺或其他鳥類低空飛過，四草大眾廟紅樹林保護區林相優美，擁有五梨跤、水筆仔、欖李、海茄苳四種紅樹林。船上的解說員也會沿途細說當地生態，遊客也亦可透過望遠鏡觀察紅樹林下的招潮蟹、彈塗魚等生物，是生態旅遊的最佳場域，亦是攝影師最愛捕捉的自然美景。,886-6-2841610,臺南市709安南區大眾路360號,709,08:00-17:00,"{'PictureUrl1': 'https://swcoast-nsa.travel/image/13063/640x480', 'PictureDescription1': '四草綠色隧道'}","{'PositionLon': 120.13613891601562, 'PositionLat': 23.01963996887207, 'GeoHash': 'wsj6vy87n'}",{},臺南市,2023-07-13T01:40:49+08:00,2023-07-13T02:10:57+08:00
C1_315081600H_000305,北門嶼基督教會,早年的臺灣西南沿海地區，居民常年飲用含砷地下水而盛行烏腳病，許多病患因而深受身心靈上的折磨，在這段歲月中，北門嶼基督教會的設立讓病患們獲得心靈上的寄託，教會與王金河醫師合作，共同為病患的身體與心理奉獻付出。位於教堂後方的建築被稱為「北門小白宮」，這裡也見證了當時這段重要歷史，擁有潔白典雅的外觀，近期成為許多旅客參觀拍照的景點。而附近的永隆溝是日治時期運鹽的主要航道，早年是繁華的渡頭，現今則是漁民賴以為生的經濟動脈，遊客可以站在橋上觀賞水上人家的美景，感受過去北門的風華。,早年的臺灣西南沿海地區，居民常年飲用含砷地下水而盛行烏腳病，許多病患因而深受身心靈上的折磨，在這段歲月中，北門嶼基督教會的設立讓病患們獲得心靈上的寄託，教會與王金河醫師合作，共同為病患的身體與心理奉獻付出。位於教堂後方的建築被稱為「北門小白宮」，這裡也見證了當時這段重要歷史，擁有潔白典雅的外觀，近期成為許多旅客參觀拍照的景點。而附近的永隆溝是日治時期運鹽的主要航道，早年是繁華的渡頭，現今則是漁民賴以為生的經濟動脈，遊客可以站在橋上觀賞水上人家的美景，感受過去北門的風華。,886-6-7862138,臺南市727北門區永隆里北門31號,727,★禮拜時間：台語 - 禮拜天 上午 09:30 (聚會20人)　　　　　　華語 - 禮拜六 上午 09:00 (聚會8人)★各項聚會：兒童歡聚 - 六 下午2:00-5:00 (聚會8人)　　　　　　家庭禮拜 - 週五 晚間7:00-8:00 (聚會5人)　　　　　　新眼光讀經 - 週六 6:30-7:30 (聚會3人)(2017年度資料),"{'PictureUrl1': 'https://swcoast-nsa.travel/image/2299/640x480', 'PictureDescription1': '北門嶼基督教會 (1)'}","{'PositionLon': 120.12397003173828, 'PositionLat': 23.270000457763672, 'GeoHash': 'wsjkmkpte'}",{},臺南市,2023-07-13T01:40:49+08:00,2023-07-13T02:10:57+08:00
C1_315081600H_000306,北門自行車道,北門自行車道是一條富含鹽業歷史文化的自行車道，全長約3公里，沿途可近距離觀賞景觀鹽湖、竹篙鹽埕、鹽田遺址、紅樹林、鹽灘濕地生態、北門潟湖。自行車道大部分路段皆鋪上AC柏油路面，有安全護欄、解說牌、指標牌，能讓旅客感受舒適安全的騎乘體驗。車道上還有遮蔭涼亭、休閒座椅、賞鳥平台等設施，黃昏時可停下腳步欣賞鹽田夕陽美景，冬季還有機會欣賞到成千上萬隻黑腹燕鷗群飛翔。位於自行車道沿線周邊有許多熱門景點，如北門婚紗美地、水晶教堂、錢來也雜貨店，其中錢來也雜貨店提供自行車租借服務，可在此租借自行車，騎乘在北門自行車道上享受濱海美景與海風的熱情。,北門自行車道是一條富含鹽業歷史文化的自行車道，全長約3公里，沿途可近距離觀賞景觀鹽湖、竹篙鹽埕、鹽田遺址、紅樹林、鹽灘濕地生態、北門潟湖。自行車道大部分路段皆鋪上AC柏油路面，有安全護欄、解說牌、指標牌，能讓旅客感受舒適安全的騎乘體驗。車道上還有遮蔭涼亭、休閒座椅、賞鳥平台等設施，黃昏時可停下腳步欣賞鹽田夕陽美景，冬季還有機會欣賞到成千上萬隻黑腹燕鷗群飛翔。位於自行車道沿線周邊有許多熱門景點，如北門婚紗美地、水晶教堂、錢來也雜貨店，其中錢來也雜貨店提供自行車租借服務，可在此租借自行車，騎乘在北門自行車道上享受濱海美景與海風的熱情。,886-6-7861000,臺南市727北門區,727,全年皆可，無時間限制(00:00~24:00),"{'PictureUrl1': 'https://swcoast-nsa.travel/image/36678/640x480', 'PictureDescription1': '北門自行車道地標與魚籠意象造型的竹隧道'}","{'PositionLon': 120.12151336669922, 'PositionLat': 23.264850616455078, 'GeoHash': 'wsjkm7jzd'}",遊憩類,{},臺南市,2023-07-13T01:40:49+08:00,2023-07-13T02:10:57+08:00
C1_315081600H_000369,井仔腳瓦盤鹽田,井仔腳瓦盤鹽田是北門的第一座鹽田，也是現存最古老的瓦盤鹽田遺址，原為清領時期的瀨東鹽場，西元1818年遷移此至，至今未再移位，是台灣最古老的現址鹽田，至今已有200年歷史。史書上記載，鄭氏諮議參軍陳永華，認為當時原住民族製鹽技術尚不成熟，故產出的鹽味苦澀，於是改革製鹽方法。在海邊築埕，在其上鋪碎瓦片，引水至鹽池，經由日曬成瓦上的結晶鹽，推進人工造鹽產業的進程。以厚約6公厘的瓦缸片鋪成的瓦盤鹽田，呈現出馬賽克拼貼般的美麗藝術，為延續其曬鹽產業文化的精神，將鹽場復育，讓「井仔腳」特殊的曬鹽景觀保留在北門永華里的海岸邊。夕陽西下，晚霞餘暉倒映在鹽田中，此地更是攝影好手捕捉落日美景的勝地，現已成為雲嘉南濱海國家風景區內最具特色的觀光鹽田。井仔腳瓦盤鹽田讓人重溫了居民共有的生活回憶，遊客更可體驗傳統曬鹽、挑鹽、收鹽的樂趣，深入了解臺灣製鹽史地的點點滴滴，是一處適合親子同遊的深度旅遊景點。,井仔腳瓦盤鹽田是北門的第一座鹽田，也是現存最古老的瓦盤鹽田遺址，原為清領時期的瀨東鹽場，西元1818年遷移此至，至今未再移位，是台灣最古老的現址鹽田，至今已有200年歷史。史書上記載，鄭氏諮議參軍陳永華，認為當時原住民族製鹽技術尚不成熟，故產出的鹽味苦澀，於是改革製鹽方法。在海邊築埕，在其上鋪碎瓦片，引水至鹽池，經由日曬成瓦上的結晶鹽，推進人工造鹽產業的進程。以厚約6公厘的瓦缸片鋪成的瓦盤鹽田，呈現出馬賽克拼貼般的美麗藝術，為延續其曬鹽產業文化的精神，將鹽場復育，讓「井仔腳」特殊的曬鹽景觀保留在北門永華里的海岸邊。夕陽西下，晚霞餘暉倒映在鹽田中，此地更是攝影好手捕捉落日美景的勝地，現已成為雲嘉南濱海國家風景區內最具特色的觀光鹽田。井仔腳瓦盤鹽田讓人重溫了居民共有的生活回憶，遊客更可體驗傳統曬...,886-6-7861629,臺南市727北門區復育鹽田西南郊,727,09:00-17:30,"{'PictureUrl1': 'https://swcoast-nsa.travel/image/35604/640x480', 'PictureDescription1': '一見雙雕鹽畫'}","{'PositionLon': 120.1075668334961, 'PositionLat': 23.25882911682129, 'GeoHash': 'wsjkm45sm'}",https://www.tnshio.com/page/about/index.aspx?kind=54,{},開放時間：夏令時間(五月-十月): 09:30-18:00冬令時間(十一月-四月): 09:00-17:30若有特殊拍攝需求者，如商業、非商業錄攝影活動等(不限一般遊客)，請事先洽...,臺南市,2023-07-13T01:40:49+08:00,2023-07-13T02:10:57+08:00
C1_315081600H_000486,水晶教堂,水晶教堂位於洲北鹽田與中洲鹽田交界。西濱空曠平坦，早年以鹽田為最大地景，突出於地表者為鹽堆，水晶教堂即以鹽堆之大堆連結小堆為造形意象。以鹽的白色為主色調，取結晶鹽的晶瑩剔透為其發想，結合曾經撫慰無數烏腳病患的教會意念，乃有水晶教堂此名。水晶教堂完成於西元2014年，成為拍攝婚紗的熱門景點，視野遼闊，空曠幽遠，南可遠眺西山、「狗氤氲」及提溴塔，也可往西通往井仔腳鹽田。水晶教堂夜間點燈時間：夏令(3月1日至9月30日)：假日18時至18時30分冬令(10月1日至2月28/29日)：假日17時30分至18時,水晶教堂位於洲北鹽田與中洲鹽田交界。西濱空曠平坦，早年以鹽田為最大地景，突出於地表者為鹽堆，水晶教堂即以鹽堆之大堆連結小堆為造形意象。以鹽的白色為主色調，取結晶鹽的晶瑩剔透為其發想，結合曾經撫慰無數烏腳病患的教會意念，乃有水晶教堂此名。水晶教堂完成於西元2014年，成為拍攝婚紗的熱門景點，視野遼闊，空曠幽遠，南可遠眺西山、「狗氤氲」及提溴塔，也可往西通往井仔腳鹽田。水晶教堂夜間點燈時間：夏令(3月1日至9月30日)：假日18時至18時30分冬令(10月1日至2月28/29日)：假日17時30分至18時,886-6-7861515,臺南市727北門區北門里200號,727,(一)夏令(3月1日至9月30日)：平日營業時間為9時30分至17時30分、假日為9時30分至18時30分。(二)冬令(10月1日至2月28/29日)：平日營業時間為9時至17時、假日為9時至18時。,"{'PictureUrl1': 'https://swcoast-nsa.travel/image/2511/640x480', 'PictureDescription1': '水晶教堂矗立湖畔上'}","{'PositionLon': 120.12267303466797, 'PositionLat': 23.264490127563477, 'GeoHash': 'wsjkm7ntm'}",遊憩類,{},保險清潔費：＄20元/人※台南市北門區居民、3歳以下孩童 憑證件免費入場※持身心障礙手冊本人 優惠半價$10元,臺南市,2023-07-13T01:40:49+08:00,2023-07-13T02:10:57+08:00
C1_315081600H_000489,洪通故居,位於北門區鯤江里的新厝仔是「東方畢卡索」素人畫家-洪通故居的所在地。不識字無師自通的他，在五十歲那年瘋狂投入作畫，畫風以神秘文字畫與豐富的色彩、帶點靈魅的畫風而聞名。早年的童乩經驗、民俗信仰及生活經驗，深刻影響他繪畫精神體質，使他作畫時有一種宗教式的催眠，畫作的表現充滿熱鬧、神幻及宗教信仰的意象。所以，他的畫除了有象形文字般的圖像，也有民間符籙的熟悉感。抽象及充滿童趣的畫風、用色大膽鮮艷，引來國內外矚目，當時的總統蔣經國也曾親自造訪。成名後的洪通，即使三餐不繼也不肯賣畫，生性固執的他有「三不」：一是「不賣畫」，他說賣了就沒了，再也畫不出同樣的畫；二是「不畫耳」，有耳朵就會聽到人間是非叫罵聲，乾脆就不畫耳，除非帶著漂亮的耳環，所以我們在洪通的畫中可以發現有很多人物是沒有耳朵的；三是「不住他人設計之屋」，不願住政府提供的房子，自畫了一幅「金鑾寶殿」，期許能蓋出自己的畫室。而因特殊性格與不喜與外界接觸，直至1978年辭世，留下了令人驚豔的作品，也留下了謎樣的人生。雲嘉南管理處結合在地特色與社區意象，為社區牆面漆上洪通的畫作，讓到訪的遊客們可以了解洪通的生平及感受洪通的異想世界，進到村莊裡除了在洪通的畫室外可看到昔日的生活片，並在多處民宅的牆面也可欣賞到洪通的畫作。另外，在鯤江里新厝的新安宮裡也有洪通的畫作常態展，歡迎有興趣的民眾可以前往欣賞呦!雲嘉南管理處表示，洪通的事蹟已漸漸被世人所淡忘，他卻是北門不可抹滅的傳奇，鹽分地帶藝術文學的代表人物之一，就此被遺忘令人感到惋惜。希望藉由營造北門洪通故居的人文景點，帶領遊客深入北門各角落。北門地區除了是一個婚紗美地之外，也是一個充滿鹽分地帶藝術氣息的好地方，誠摯地歡迎大家一同來探索洪通的靈魅、狂想世界。,位於北門區鯤江里的新厝仔是「東方畢卡索」素人畫家-洪通故居的所在地。不識字無師自通的他，在五十歲那年瘋狂投入作畫，畫風以神秘文字畫與豐富的色彩、帶點靈魅的畫風而聞名。早年的童乩經驗、民俗信仰及生活經驗，深刻影響他繪畫精神體質，使他作畫時有一種宗教式的催眠，畫作的表現充滿熱鬧、神幻及宗教信仰的意象。所以，他的畫除了有象形文字般的圖像，也有民間符籙的熟悉感。抽象及充滿童趣的畫風、用色大膽鮮艷，引來國內外矚目，當時的總統蔣經國也曾親自造訪。成名後的洪通，即使三餐不繼也不肯賣畫，生性固執的他有「三不」：一是「不賣畫」，他說賣了就沒了，再也畫不出同樣的畫；二是「不畫耳」，有耳朵就會聽到人間是非叫罵聲，乾脆就不畫耳，除非帶著漂亮的耳環，所以我們在洪通的畫中可以發現有很多人物是沒有耳朵的；三是「不住他人設...,886-6-7861000,臺南市727北門區蚵寮1003之1號,727,每日06:00~17:30,"{'PictureUrl1': 'https://swcoast-nsa.travel/image/36776/640x480', 'PictureDescription1': '洪通為素人畫家被稱東方畢卡索，不識字無師自通，照片牆上為他的畫作，充滿熱鬧、神幻及宗教信仰的意象'}","{'PositionLon': 120.14158630371094, 'PositionLat': 23.28169059753418, 'GeoHash': 'wsjkmyk3t'}",{},臺南市,2023-07-13T01:40:49+08:00,2023-07-13T02:10:57+08:00
C1_315081600H_000511,七股遊客中心,※前往六號小島步道因潮汐因素，於漲潮時水面覆蓋步道人員無法行走，為避免潮汐影響遊客體驗，可至交通部中央氣象局 查詢潮汐時間七股遊客中心的建築主體，以「堤」作為主要發想概念，為了減低人為建築對自然環境造成的視覺割裂感，使用了當地常見的元素，海堤、河堤、鹽堤等構造物為設計元素，並利用折板系統，將「堤」轉換為空間，就像堆砌如山的鹽塊，受雨水沖刷崩落後而成形，陡若峭壁、時似緩坡，其中亦能看出山谷之形，蘊含著大自然力量作用於大地之意涵。建築主體以灰白色為基調，在藍天的襯托下，這道「堤」潔白閃耀，晨昏皆能為這座建築賦予更多樣的面貌。利用建築結構在空間中創造鹽山地景的意象，增加建築與在地風貌的兼容性，此建築作為此地特殊自然景觀的象徵，並落實愛護海洋環境、彰顯海濱之美的初衷。七股遊客中心作為串連鄰近景點的資訊站，除了已是新的觀光地標外，更提供了一處濱海深度旅遊的據點，更好地提供遊客友善、多元的服務。六號小島這座可愛的水上小屋除了是拍照打卡聖地外，​還榮獲了榮獲 2022 美國 MUSE DESIGN AWARDS 設計大獎，「六號小島」所在位置剛好是80年前日治時期七股南鹽區的第六生產區，故以此命名。作品以七股鹽場的鹽業發展變遷為基底，詮釋曾經歷鹽業變遷的居民心境與鹽工人生縮影，轉化成一座島嶼和小屋的水上裝置藝術，並結合早期鹽田的「鹽風車」意向，傳達一種「寂靜美」的空間意境。宛如孤島上的小屋，隨著日照時段而有不同的光影變化，而外觀「鹽」色代表製鹽的自然要素：陽光、海水與海風。作品也刻意營造可遇不可求的「登島」機緣，景觀池水位會隨潮汐漲退，如水位淹過步道將不開放，可於岸邊靜賞孤島小屋之感，或到訪前查詢七股潮汐表。七股遊客中心環境藝術裝置作品 - 六號小島​設計師 | 陳昱良 老師​位置 | 七股遊客中心景觀池​,※前往六號小島步道因潮汐因素，於漲潮時水面覆蓋步道人員無法行走，為避免潮汐影響遊客體驗，可至交通部中央氣象局 查詢潮汐時間七股遊客中心的建築主體，以「堤」作為主要發想概念，為了減低人為建築對自然環境造成的視覺割裂感，使用了當地常見的元素，海堤、河堤、鹽堤等構造物為設計元素，並利用折板系統，將「堤」轉換為空間，就像堆砌如山的鹽塊，受雨水沖刷崩落後而成形，陡若峭壁、時似緩坡，其中亦能看出山谷之形，蘊含著大自然力量作用於大地之意涵。建築主體以灰白色為基調，在藍天的襯托下，這道「堤」潔白閃耀，晨昏皆能為這座建築賦予更多樣的面貌。利用建築結構在空間中創造鹽山地景的意象，增加建築與在地風貌的兼容性，此建築作為此地特殊自然景觀的象徵，並落實愛護海洋環境、彰顯海濱之美的初衷。七股遊客中心作為串連鄰近景點的資...,886-6-7801751,臺南市724七股區塩埕里塩埕102-8號,724,星期日09:00–17:30星期一09:00–17:30星期二09:00–17:30星期三09:00–17:30星期四09:00–17:30星期五09:00–17:30星期六09:00–17:30註：除夕日休館,"{'PictureUrl1': 'https://swcoast-nsa.travel/image/2461/640x480', 'PictureDescription1': '七股遊客中心階梯'}","{'PositionLon': 120.10308837890625, 'PositionLat': 23.153959274291992, 'GeoHash': 'wsj7tp03s'}",{},臺南市,2023-07-13T01:40:49+08:00,2023-07-13T02:10:57+08:00
C1_315081600H_000517,馬沙溝3D彩繪村,馬沙溝3D彩繪村以李聖宮為中心點，畫作分散在各個角落，可能在大街上也可能在巷弄中，讓遊客體驗到「轉角是藝術，巷弄有驚喜」的氛圍，別於一般彩繪村。走進馬沙溝3D彩繪村，像是走進了奇幻世界，牆面、地面上的充滿童趣與當地漁村特色的彩繪藝術讓人嘆為觀止，而馬沙溝濃厚的純樸生活感和人情味，更是有股魔幻現實的氛圍。其中最有特色、最令人驚豔的彩繪《天馬行空》，位置就在李聖宮前，這幅畫作足足有兩層樓高，氣勢驚人。馬沙溝是誠品書局創辦人吳清友先生的故鄉，因此另有一幅《開卷有益》，繪著堆疊的書本成為書牆，裡面則以毛筆為橋樑，映出誠品文化的韻味。童趣的畫風呈現馬沙溝小漁村特有的漁村風情，周邊還有《喵喵愛吃土魠》《河馬望月》以及《貓仔曬魚》等畫作。不論是大章魚還是烏魚子，這些充滿象徵的漁村產物，全都成了3D彩繪圖的主角。這些彩繪作品的作者曾進成老師，更會貼心地標示出最佳拍照點，讓來訪的旅人輕鬆拍出好照片！,馬沙溝3D彩繪村以李聖宮為中心點，畫作分散在各個角落，可能在大街上也可能在巷弄中，讓遊客體驗到「轉角是藝術，巷弄有驚喜」的氛圍，別於一般彩繪村。走進馬沙溝3D彩繪村，像是走進了奇幻世界，牆面、地面上的充滿童趣與當地漁村特色的彩繪藝術讓人嘆為觀止，而馬沙溝濃厚的純樸生活感和人情味，更是有股魔幻現實的氛圍。其中最有特色、最令人驚豔的彩繪《天馬行空》，位置就在李聖宮前，這幅畫作足足有兩層樓高，氣勢驚人。馬沙溝是誠品書局創辦人吳清友先生的故鄉，因此另有一幅《開卷有益》，繪著堆疊的書本成為書牆，裡面則以毛筆為橋樑，映出誠品文化的韻味。童趣的畫風呈現馬沙溝小漁村特有的漁村風情，周邊還有《喵喵愛吃土魠》《河馬望月》以及《貓仔曬魚》等畫作。不論是大章魚還是烏魚子，這些充滿象徵的漁村產物，全都成了3D彩繪圖的...,886-9-72619067,臺南市725將軍區平沙里54號,725,"{'PictureUrl1': 'https://swcoast-nsa.travel/image/36779/640x480', 'PictureDescription1': '馬沙溝3D彩繪村著名的飛天馬彩繪，一進到彩繪村就能遇見它哦'}","{'PositionLon': 120.0953598022461, 'PositionLat': 23.217140197753906, 'GeoHash': 'wsjkhfdc8'}",遊憩類,{},臺南市,2023-07-13T01:40:49+08:00,2023-07-13T02:10:57+08:00
C1_315081600H_000535,七股頂山賞鳥亭,七股頂山地區多為魚塭及廢鹽灘地，對鳥類來說食源充足，人為干擾少，因此鳥況相當豐富，常見的鳥類有黑面琵鷺、黑腹燕鷗、反嘴鴴等。「頂山賞鳥亭」於106年設立，是一處木製兩層樓式建築，屬於遮掩式的賞鳥亭，設計得以觀看東、南、西、北四面鳥況，同時可提供觀看道路兩側、水面上、飛翔中、及接近水面等不同視角。賞鳥亭也規劃了無障礙設施及停車場，讓行動不便者能享受完善的賞鳥行程。頂山賞鳥亭的建築四面皆設有大大小小的觀賞窗，牆面貼有鳥類導覽牌，以圖文介紹周邊經常出沒的鳥類，賞鳥民眾可透過導覽牌對生態有更深的認識。擁有完善規劃的七股頂山賞鳥亭是一處適合親子走訪親近生態的好去處。,七股頂山地區多為魚塭及廢鹽灘地，對鳥類來說食源充足，人為干擾少，因此鳥況相當豐富，常見的鳥類有黑面琵鷺、黑腹燕鷗、反嘴鴴等。「頂山賞鳥亭」於106年設立，是一處木製兩層樓式建築，屬於遮掩式的賞鳥亭，設計得以觀看東、南、西、北四面鳥況，同時可提供觀看道路兩側、水面上、飛翔中、及接近水面等不同視角。賞鳥亭也規劃了無障礙設施及停車場，讓行動不便者能享受完善的賞鳥行程。頂山賞鳥亭的建築四面皆設有大大小小的觀賞窗，牆面貼有鳥類導覽牌，以圖文介紹周邊經常出沒的鳥類，賞鳥民眾可透過導覽牌對生態有更深的認識。擁有完善規劃的七股頂山賞鳥亭是一處適合親子走訪親近生態的好去處。,886-3-8875306,臺南市724七股區七股頂山南25,724,全天開放,"{'PictureUrl1': 'https://swcoast-nsa.travel/image/2460/640x480', 'PictureDescription1': '七股頂山賞鳥亭'}","{'PositionLon': 120.11280059814453, 'PositionLat': 23.17313003540039, 'GeoHash': 'wsj7v4x3r'}",文化類,{},臺南市,2023-07-13T01:40:49+08:00,2023-07-13T02:10:57+08:00
C1_315081700H_000001,官田水雉生態教育園區,官田水雉復育區位於官田區，是由高鐵贊助成立，臺南市政府農業處接手管理後，就正式更名為官田水雉生態教育園區，逐步朝向生態教育與觀光的步伐邁進，園區內不但有豐富水生植物，更有許多水鳥的生態，其中最重要的鳥類生態，是與菱角田共生的凌波仙子-水雉，在這裡只要透過望遠鏡頭就可觀察到水雉的生態奧妙，所以經常吸引不少賞鳥人士前往觀察。在臺灣所見到的這種水雉，是全世界八種中唯一具有繁殖羽（夏羽）與非繁殖羽（冬羽）不同形態，以及定期遷移的習性。當時在宜蘭、臺北、桃園、新竹、臺中、彰化、臺南、高雄、屏東、臺東等地，均可見其蹤影。由於土地的開發和環境的破壞，目前僅能在臺南八掌溪至曾文溪兩溪間平原區域的菱角田中發現。農委會於民國78年公告水雉為第二級珍貴稀有之保育類動物。,官田水雉復育區位於官田區，是由高鐵贊助成立，臺南市政府農業處接手管理後，就正式更名為官田水雉生態教育園區，逐步朝向生態教育與觀光的步伐邁進，園區內不但有豐富水生植物，更有許多水鳥的生態，其中最重要的鳥類生態，是與菱角田共生的凌波仙子-水雉，在這裡只要透過望遠鏡頭就可觀察到水雉的生態奧妙，所以經常吸引不少賞鳥人士前往觀察。在臺灣所見到的這種水雉，是全世界八種中唯一具有繁殖羽（夏羽）與非繁殖羽（冬羽）不同形態，以及定期遷移的習性。當時在宜蘭、臺北、桃園、新竹、臺中、彰化、臺南、高雄、屏東、臺東等地，均可見其蹤影。由於土地的開發和環境的破壞，目前僅能在臺南八掌溪至曾文溪兩溪間平原區域的菱角田中發現。農委會於民國78年公告水雉為第二級珍貴稀有之保育類動物。,886-6-5793911,臺南市720官田區裕隆路,720,鄰近火車站：隆田火車站,星期一：休園星期二：09:00～17:00星期三：09:00～17:00星期四：09:00～17:00星期五：09:00～17:00星期六：09:00～17:00星期日：09:00～17:00,"{'PictureUrl1': 'https://www.siraya-nsa.gov.tw/image/248/640x480', 'PictureDescription1': '兩隻水雉在互相追逐'}","{'PositionLon': 120.31310272216797, 'PositionLat': 23.18446922302246, 'GeoHash': 'wsjecu976'}",文化類,裕隆路沿線皆可停車,{},無門票收費,※園區內生態豐富，易有蚊蟲叮咬，建議攜帶防蚊液或穿著長袖衣物,臺南市,2023-07-13T01:40:49+08:00,2023-07-13T02:10:57+08:00
C1_315081700H_000010,斑芝花高爾夫俱樂部,斑芝花高爾夫俱樂部，於1989年在秋高氣爽的臺南市東山區斑芝花谷規劃動工，自始至終秉持一切合法的信念勤奮拓墾，終於在1993年開放使用，一時之間，成為南臺灣天空最閃亮的休閒巨星，即使秋冬季節，氣候依舊怡人，與同季節的北部球場相比，實在是令球友感覺無限舒暢，因此，成為南臺灣高爾夫球愛好者最嚮往的競技聖地。,斑芝花高爾夫俱樂部，於1989年在秋高氣爽的臺南市東山區斑芝花谷規劃動工，自始至終秉持一切合法的信念勤奮拓墾，終於在1993年開放使用，一時之間，成為南臺灣天空最閃亮的休閒巨星，即使秋冬季節，氣候依舊怡人，與同季節的北部球場相比，實在是令球友感覺無限舒暢，因此，成為南臺灣高爾夫球愛好者最嚮往的競技聖地。,886-6-6862208,臺南市733東山區東原里斑芝花坑39號,733,鄰近火車站：新營車站（再搭乘計程車前往）,每日開放,"{'PictureUrl1': 'https://www.siraya-nsa.gov.tw/image/697/640x480', 'PictureDescription1': '球場場地遼闊風景宜人'}","{'PositionLon': 120.44963073730469, 'PositionLat': 23.286550521850586, 'GeoHash': 'wsjskzhtz'}",文化類,園區內有設置停車場,{},實際收費標準請洽斑芝花高爾夫俱樂部。,※建議先行預約,臺南市,2023-07-13T01:40:49+08:00,2023-07-13T02:10:57+08:00
C1_315081700H_000011,六重溪平埔文化園區,近年來，平埔族文化尋根風潮興起，臺南市政府為維護平埔文化特色，成立「六重溪平埔文化園區」重建公廨，也讓中斷許久的夜祭活動，才有更完善的空間辦理，搭建傳統竹屋，收藏平埔族生活器皿等文物。由竹籠厝搭建的公廨分為兩室，分別祀奉清水老君與太祖五姊妹，太祖五姊妹沒有形體，以5個甕依序排列，用米酒與檳榔祭祀，每年農曆9月14日晚上到9月15日凌晨，則是太祖五姊妹的夜祭。,近年來，平埔族文化尋根風潮興起，臺南市政府為維護平埔文化特色，成立「六重溪平埔文化園區」重建公廨，也讓中斷許久的夜祭活動，才有更完善的空間辦理，搭建傳統竹屋，收藏平埔族生活器皿等文物。由竹籠厝搭建的公廨分為兩室，分別祀奉清水老君與太祖五姊妹，太祖五姊妹沒有形體，以5個甕依序排列，用米酒與檳榔祭祀，每年農曆9月14日晚上到9月15日凌晨，則是太祖五姊妹的夜祭。,886-6-6900399,臺南市732白河區六溪里六重溪76-15號,732,鄰近公車站：石牌站（大臺南公車黃10-1）,每日開放,"{'PictureUrl1': 'https://www.siraya-nsa.gov.tw/image/700/640x480', 'PictureDescription1': '六重溪文化園區西拉雅族公廨'}","{'PositionLon': 120.46257781982422, 'PositionLat': 23.31290054321289, 'GeoHash': 'wsjst5ypm'}",文化類,{},無門票收費,臺南市,2023-07-13T01:40:49+08:00,2023-07-13T02:10:57+08:00
C1_315081700H_000014,中興大學新化林場,新化林場占地370餘公頃，原本是中興大學的實驗林場，也是臺灣唯一的低海拔亞熱帶林場，更是休閒度假的好去處。園區擁有全臺最大的桃花心木林，因此每逢4月來到這裡，就能欣賞隨風飛揚、充滿詩意的桃花心木落葉；而同一時間來到這裡，還有螢火蟲可以欣賞。5～10月則是賞蝶的最佳季節，也因此植物園的步行路線上，隨處可見鳳蝶最愛吃的馬兜鈴，可以想見這裡鳳蝶漫天飛舞的美麗景象。森林浴步道是新化林場最吸引遊客的設施，分佈在整個植物園區，狀似蜘蛛網一般，四通八逹，步道有的隨山坡起伏，也有沿著山陵線或山谷開闢，難易兼具，配合整齊壯觀的桃花心木森林景觀，綠草如茵的草坪及浺瀜池湖光山色，漫步林下，感受滿山花草樹木的纏綿多情，泉聲鳥聲的輕喚，更是讓人流連忘返。,新化林場占地370餘公頃，原本是中興大學的實驗林場，也是臺灣唯一的低海拔亞熱帶林場，更是休閒度假的好去處。園區擁有全臺最大的桃花心木林，因此每逢4月來到這裡，就能欣賞隨風飛揚、充滿詩意的桃花心木落葉；而同一時間來到這裡，還有螢火蟲可以欣賞。5～10月則是賞蝶的最佳季節，也因此植物園的步行路線上，隨處可見鳳蝶最愛吃的馬兜鈴，可以想見這裡鳳蝶漫天飛舞的美麗景象。森林浴步道是新化林場最吸引遊客的設施，分佈在整個植物園區，狀似蜘蛛網一般，四通八逹，步道有的隨山坡起伏，也有沿著山陵線或山谷開闢，難易兼具，配合整齊壯觀的桃花心木森林景觀，綠草如茵的草坪及浺瀜池湖光山色，漫步林下，感受滿山花草樹木的纏綿多情，泉聲鳥聲的輕喚，更是讓人流連忘返。,886-6-5900022,臺南市712新化區知義里口埤76號,712,鄰近公車站：口埤站（大台南公車綠13）,星期一：08:00~17:00星期二：08:00~17:00星期三：08:00~17:00星期四：08:00~17:00星期五：08:00~17:00星期六：07:00~17:00星期日：07:00~17:00,"{'PictureUrl1': 'https://www.siraya-nsa.gov.tw/image/648/640x480', 'PictureDescription1': '新化林場是散步健行的好場所'}","{'PositionLon': 120.35289001464844, 'PositionLat': 23.02676010131836, 'GeoHash': 'wsjdfxyk9'}",文化類,南173線道沿線皆可停車,{},全票: 100 元 (1) 一般遊客。半票: 50 元  (1) 中興大學校友。 (2) 滿6歲以上各級學校學生。 (3) 30人以上購買全票之團體。 (4) 設籍於臺南市之居民（...,※新化林場生態豐富，請注意蚊蟲或蜜蜂侵擾，建議穿著長袖衣物※夏季易有午後雷陣雨，建議攜帶雨具※於南173線道停車時請注意車輛，勿影響交通,臺南市,2023-07-13T01:40:49+08:00,2023-07-13T02:10:57+08:00
C1_315081700H_000015,柳營尖山埤渡假村,尖山埤水庫四面環山，擁有豐富的生態景觀，環境清幽，水庫內樹種與植物繁多，一年四季中數以百種的的花木輪流綻放美麗的花朵，宛如一座小型的花園，每當仲夏之際，總會吸引蝴蝶翩然而至，交織出一幅吸引人的自然景致。臺糖公司並於尖山埤水庫建立「柳營尖山埤渡假村」，入選為「新南瀛勝景」之「三園」中的一園，以豐富秀麗的自然景觀、完善的設施規劃，成為南臺灣別具特色的渡假勝地。「若把西湖比西子，濃妝淡抹總相宜」，將水庫比喻為西湖，把尖山埤視為江南風情，這就是尖山埤渡假村當初一開始設計的緣起，淡雅悠閒的風情，散發迷人的韻味。,尖山埤水庫四面環山，擁有豐富的生態景觀，環境清幽，水庫內樹種與植物繁多，一年四季中數以百種的的花木輪流綻放美麗的花朵，宛如一座小型的花園，每當仲夏之際，總會吸引蝴蝶翩然而至，交織出一幅吸引人的自然景致。臺糖公司並於尖山埤水庫建立「柳營尖山埤渡假村」，入選為「新南瀛勝景」之「三園」中的一園，以豐富秀麗的自然景觀、完善的設施規劃，成為南臺灣別具特色的渡假勝地。「若把西湖比西子，濃妝淡抹總相宜」，將水庫比喻為西湖，把尖山埤視為江南風情，這就是尖山埤渡假村當初一開始設計的緣起，淡雅悠閒的風情，散發迷人的韻味。,886-6-6233888,臺南市736柳營區旭山里60號,736,鄰近公車站：江南度假村站(大台南公車黃3、黃4),住宿- 24小時 遊樂設施：每日 08：00~17：00,"{'PictureUrl1': 'https://www.siraya-nsa.gov.tw/image/691/640x480', 'PictureDescription1': '尖山埤江南渡假村'}","{'PositionLon': 120.3923110961914, 'PositionLat': 23.26515007019043, 'GeoHash': 'wsjs7e712'}",文化類,園區內設有停車場,{},門票費用：全票150元、團體票120元、65歲以上老人票75元,※園區生態豐富，建議攜帶防蚊液或穿著長袖衣物※園區內有大片水域，請勿自行下水,臺南市,2023-07-13T01:40:49+08:00,2023-07-13T02:10:57+08:00
C1_315081700H_000022,臺南左鎮化石園區,菜寮溪流域擁有得天獨厚的化石寶庫，自1931年開始受到關注。臺北帝國大學地質學教授早坂一郎在臺南進行地質調查時，於菜寮溪流域採集許多鹿角化石，並請當地陳春木先生（後人稱為化石爺爺）協助採集許多珍貴古象、犀牛、水牛等動物化石，奠定菜寮溪成為研究臺灣古生物的據點，後來成立菜寮化石館，現經過重新整建擴館而成為大家現在所看到的臺南左鎮化石園區。菜寮溪出土化石不計其數，曾在菜寮溪撿拾左鎮人頭蓋骨，後又發現犀牛牙齒，經由台日學者與臺灣省立博物館團隊的合作，挖掘出完整度甚高的犀牛化石，生存在約距今90萬年前到45萬年前，命名為早坂中國犀。左鎮化石園區累計收藏猛獁象、劍齒象、古鹿、鱷魚、貝類等海相和陸相生物化石，大量陸相脊椎動物化石出土是一大特色，加上左鎮人頭骨碎片、早坂中國犀復原骨架等蒐藏品，可謂臺灣無可取代的化石寶庫。如今，左鎮化石園區從單一館舍蛻變、擴展為五大展館。自然史教育館模擬左鎮的地層岩壁，在這裡能體驗多元互動裝置，如化石挖掘、河床化石觀察；故事館介紹新化丘陵，展示包含新港文書在內的西拉雅族文物，認識「化石爺爺」陳春木一生採集化石的貢獻；生命演化館呈現海洋生物的搶灘戰，曾經稱霸地球的恐龍坐落在中庭，之後哺乳動物崛起於歷史舞台，見證生命演化的繁盛與衰落；化石館設置擴增實境互動沙盤，能了解菜寮溪流域化石的來源，然而最引人注目的，莫過於早坂中國犀全身骨架化石；探索館揭曉左鎮人之謎，走近化石清修室則能一睹化石的復原實況；到彩繪魔法互動教室，和自己著色的菜寮流域生物群互動和餵食。資料來源：臺南左鎮化石園區網站,菜寮溪流域擁有得天獨厚的化石寶庫，自1931年開始受到關注。臺北帝國大學地質學教授早坂一郎在臺南進行地質調查時，於菜寮溪流域採集許多鹿角化石，並請當地陳春木先生（後人稱為化石爺爺）協助採集許多珍貴古象、犀牛、水牛等動物化石，奠定菜寮溪成為研究臺灣古生物的據點，後來成立菜寮化石館，現經過重新整建擴館而成為大家現在所看到的臺南左鎮化石園區。菜寮溪出土化石不計其數，曾在菜寮溪撿拾左鎮人頭蓋骨，後又發現犀牛牙齒，經由台日學者與臺灣省立博物館團隊的合作，挖掘出完整度甚高的犀牛化石，生存在約距今90萬年前到45萬年前，命名為早坂中國犀。左鎮化石園區累計收藏猛獁象、劍齒象、古鹿、鱷魚、貝類等海相和陸相生物化石，大量陸相脊椎動物化石出土是一大特色，加上左鎮人頭骨碎片、早坂中國犀復原骨架等蒐藏品，可謂臺灣無可...,886-6-5731174,臺南市713左鎮區榮和里61-23號,713,鄰近公車站：頂菜寮（大臺南公車綠10-1、綠12）,星期一：09:00-17:00星期二：09:00-17:00星期三：休園星期四：09:00-17:00星期五：09:00-17:00星期六：09:00-17:00星期日：09:00-17:00,"{'PictureUrl1': 'https://www.siraya-nsa.gov.tw/image/669/640x480', 'PictureDescription1': '臺南左鎮化石園區大門'}","{'PositionLon': 120.38915252685547, 'PositionLat': 23.064250946044922, 'GeoHash': 'wsje5w8wy'}",文化類,臺南左鎮化石博物館有設置停車場,{},左鎮化石園區門票：全票100元、優惠票70元、半票50元,※園區內有多樣珍貴化石展品，請勿奔跑碰撞,臺南市,2023-07-13T01:40:49+08:00,2023-07-13T02:10:57+08:00
C1_315081700H_000032,曾文水庫風景區,曾文水庫沉浸式體驗－即刻出發  曾文水庫風景區坐擁煙波浩瀚的山水之色，整個園區內規劃了10個活動遊憩區，包括溪畔遊樂區、木瓜園旅館區、大壩景觀區、湖濱別墅區等，其觀光發展條件優越，也使得旅人有更多重的體驗。走上風景區的至高點&mdash;觀景樓，將收穫曾文水庫無死角的壯闊景色。旅人更能乘遊艇遊湖賞鷹，探訪曾文水庫秘境，飽覽山水奇景。騎著自行車沿著水庫內全程約10公里環湖道路，開啟一場鐵馬輕旅行也別有一番快意，多元的遊玩體驗任君挑選。走進綠蔭，去邂逅「曾文之眼」，一座外牆全以玻璃帷幕打造而成的開放式遊客中心，在陽光下，綠意盎然的自然風光和樹影倒映於建築之上，成功讓人為建築與自然生態完美共存，曾文之眼的建築之美絕對值得一探究竟。曾文水庫育樂有限公司 ( 曾文水庫觀光遊艇 )客服專線：05-2521895、0965007987客服時間：AM 08:00 - PM 17:00,曾文水庫沉浸式體驗－即刻出發  曾文水庫風景區坐擁煙波浩瀚的山水之色，整個園區內規劃了10個活動遊憩區，包括溪畔遊樂區、木瓜園旅館區、大壩景觀區、湖濱別墅區等，其觀光發展條件優越，也使得旅人有更多重的體驗。走上風景區的至高點&mdash;觀景樓，將收穫曾文水庫無死角的壯闊景色。旅人更能乘遊艇遊湖賞鷹，探訪曾文水庫秘境，飽覽山水奇景。騎著自行車沿著水庫內全程約10公里環湖道路，開啟一場鐵馬輕旅行也別有一番快意，多元的遊玩體驗任君挑選。走進綠蔭，去邂逅「曾文之眼」，一座外牆全以玻璃帷幕打造而成的開放式遊客中心，在陽光下，綠意盎然的自然風光和樹影倒映於建築之上，成功讓人為建築與自然生態完美共存，曾文之眼的建築之美絕對值得一探究竟。曾文水庫育樂有限公司 ( 曾文水庫觀光遊艇 )客服專線：05-252...,886-6-5753251,臺南市715楠西區密枝里70號,715,鄰近公車站：曾文二橋站(可搭乘綠24線前往),星期一：08：00~17：00星期二：08：00~17：00星期三：08：00~17：00星期四：08：00~17：00星期五：08：00~17：00星期六：08：00~17：00星期日：08：00~17：00,"{'PictureUrl1': 'https://www.siraya-nsa.gov.tw/image/581/640x480', 'PictureDescription1': '俯瞰曾文水庫的山光湖色'}","{'PositionLon': 120.4968490600586, 'PositionLat': 23.21010971069336, 'GeoHash': 'wsjsjcr0s'}",文化類,曾文水庫內有設置停車場,{},曾文水庫門票：全票100元、半票50元停車收費：大型車50 元、小型車 40 元、機車20 元,※夏日山區易有午後雷陣雨，建議攜帶雨具※山區蚊蟲多，建議攜帶防蚊液或穿著長袖衣物,臺南市,2023-07-13T01:40:49+08:00,2023-07-13T02:10:57+08:00
C1_315081700H_000033,白河林初埤木棉花道,與春天最美麗的約定 全球最美麗的花海街道之一木棉花道主要位於南90及附近路段沿路，沿著南90前進，轉入田間道路即可看見春日最火紅的花海大道。2015年經西班牙休閒旅遊網站「Boredpanda」選為被譽為全球最美花海街道之一，白河「林初埤木棉花道」，連綿超過數百公尺的道路上，木棉花火紅盛開的美景是網紅IG人氣打卡聖地。染得橘紅的棉花道，兩側有著碧綠的稻田與紅、綠相間的蓮田，遼闊的田野風情與藍天白雲相互輝映，璞質的風情彷彿是一幅渾然天成的鄉間田園畫作，年年吸引攝影同好專挑日出晨曦或夕陽拍攝，展現出花道不同的風貌，記錄木棉花道最美的瞬間。騎鐵馬漫遊林初埤是一款深入體驗在地美好風情的旅遊方式，不但能欣賞木棉花道美麗的景致，還能享受鄉村自在愜意的洗禮。不妨順遊鄰近的小南海風景區，有著約5公里兼具散步與單車的環湖賞景步道，以小南海吊橋為起點，銜接起埤塘旁的普陀寺與對岸的生態公園，不時可見成群白鷺鷥棲息於埤塘，環境十分清幽宜人。,與春天最美麗的約定 全球最美麗的花海街道之一木棉花道主要位於南90及附近路段沿路，沿著南90前進，轉入田間道路即可看見春日最火紅的花海大道。2015年經西班牙休閒旅遊網站「Boredpanda」選為被譽為全球最美花海街道之一，白河「林初埤木棉花道」，連綿超過數百公尺的道路上，木棉花火紅盛開的美景是網紅IG人氣打卡聖地。染得橘紅的棉花道，兩側有著碧綠的稻田與紅、綠相間的蓮田，遼闊的田野風情與藍天白雲相互輝映，璞質的風情彷彿是一幅渾然天成的鄉間田園畫作，年年吸引攝影同好專挑日出晨曦或夕陽拍攝，展現出花道不同的風貌，記錄木棉花道最美的瞬間。騎鐵馬漫遊林初埤是一款深入體驗在地美好風情的旅遊方式，不但能欣賞木棉花道美麗的景致，還能享受鄉村自在愜意的洗禮。不妨順遊鄰近的小南海風景區，有著約5公里兼具散步...,886-6-6855102,臺南市732白河區玉豐里林初埤,732,鄰近公車站：林初埤站（大台南公車黃6-1）,全天開放,"{'PictureUrl1': 'https://www.siraya-nsa.gov.tw/image/608/640x480', 'PictureDescription1': '木棉花盛開時整條路都被染成鮮豔的紅色'}","{'PositionLon': 120.40994262695312, 'PositionLat': 23.378150939941406, 'GeoHash': 'wsjsgzzge'}",文化類,南90線道沿線皆可停車,{},無門票收費,※每年花期約3月至4月中上旬，花期約莫2週（花況視實際氣候影響）※南90線道路段較窄，停車時請注意勿阻礙交通,臺南市,2023-07-13T01:40:49+08:00,2023-07-13T02:10:57+08:00
C1_315081700H_000034,虎頭山,玉井舊名噍吧哖，西元1915年日本統治期間，余清芳等人率領在玉井南化山山區的大型武裝抗日行動，死傷慘烈稱為噍吧哖事件。虎頭山位於玉井東方，海拔239公尺。 顧名思義因為山的形狀像老虎頭而得名，是噍吧哖事件的古戰場，山頂建有抗日余清芳烈士的紀念碑，係玉井至高點，站在山上能一眼望盡嘉南平原，玉井。楠西及重巒疊翠的阿里山支脈壯麗優美的景色。上山沿途兩旁植滿愛文及土芒果樹，當4、5月滿山花開， 6、7月果實纍纍時，更是美麗。在山頂周邊更增建了好幾家格調高雅頗具人文氣息的優美景觀庭園餐廳，除了觀賞雲霧繚繞的山下遼闊景觀之外，還可邊聆聽優美音樂，品嘗咖啡、道地玉井芒果冰品及特製芒果餐點。,玉井舊名噍吧哖，西元1915年日本統治期間，余清芳等人率領在玉井南化山山區的大型武裝抗日行動，死傷慘烈稱為噍吧哖事件。虎頭山位於玉井東方，海拔239公尺。 顧名思義因為山的形狀像老虎頭而得名，是噍吧哖事件的古戰場，山頂建有抗日余清芳烈士的紀念碑，係玉井至高點，站在山上能一眼望盡嘉南平原，玉井。楠西及重巒疊翠的阿里山支脈壯麗優美的景色。上山沿途兩旁植滿愛文及土芒果樹，當4、5月滿山花開， 6、7月果實纍纍時，更是美麗。在山頂周邊更增建了好幾家格調高雅頗具人文氣息的優美景觀庭園餐廳，除了觀賞雲霧繚繞的山下遼闊景觀之外，還可邊聆聽優美音樂，品嘗咖啡、道地玉井芒果冰品及特製芒果餐點。,886-6-900399,臺南市714玉井區虎頭山,714,鄰近公車站：虎頭山站(大台南公車綠20-1小黃公車),每日開放,"{'PictureUrl1': 'https://www.siraya-nsa.gov.tw/image/630/640x480', 'PictureDescription1': '虎頭山上的景觀餐廳視野非常好'}","{'PositionLon': 120.48683166503906, 'PositionLat': 23.125619888305664, 'GeoHash': 'wsjet9zu6'}",文化類,{},無門票收費,※夏季山區亦有午後雷陣雨，建議攜帶雨具※山區蚊蟲較多，建議攜帶防蚊液或穿著長袖衣物,臺南市,2023-07-13T01:40:49+08:00,2023-07-13T02:10:57+08:00
C1_315081700H_000037,八田與一紀念園區,八田與一紀念園區是為紀念嘉南大圳建造者八田與一先生所設立的。八田與一又被稱為「嘉南大圳之父」，在1910年，八田與一即來到臺灣南部投入烏山頭水庫和嘉南大圳漫長的探勘工作。位於烏山頭水庫北側的八田與一紀念園區在2009年進行翻修，在2011年正式啟用，擁有完整的日式建築群。為了更忠實地保留原貌，當時負責修復工程的技師還遠赴八田與一的故鄉&mdash;石川縣考察當地的建築特點，並以日本的木匠技術為翻修之依據，只為了使此園區更貼近日式建築美學。八田宅中的家具陳設就如同當年的擺設一般，讓人猶如走進時光隧道。戶外庭園則為小橋流水之景緻，其中的水池造景更是以臺灣的形狀建造，由此更能看出八田與一對臺灣這塊土地的深厚情感。,八田與一紀念園區是為紀念嘉南大圳建造者八田與一先生所設立的。八田與一又被稱為「嘉南大圳之父」，在1910年，八田與一即來到臺灣南部投入烏山頭水庫和嘉南大圳漫長的探勘工作。位於烏山頭水庫北側的八田與一紀念園區在2009年進行翻修，在2011年正式啟用，擁有完整的日式建築群。為了更忠實地保留原貌，當時負責修復工程的技師還遠赴八田與一的故鄉&mdash;石川縣考察當地的建築特點，並以日本的木匠技術為翻修之依據，只為了使此園區更貼近日式建築美學。八田宅中的家具陳設就如同當年的擺設一般，讓人猶如走進時光隧道。戶外庭園則為小橋流水之景緻，其中的水池造景更是以臺灣的形狀建造，由此更能看出八田與一對臺灣這塊土地的深厚情感。,886-6-6984740,臺南市720官田區嘉南里66號,720,鄰近火車站：林鳳營車站、隆田車站鄰近公車站：嘉南里站、烏山頭水庫站,園区営業時間：9時～17時　水曜日営業しません動画館の営業時間：9時～12時、13時～16時半　水曜日営業しません八田宅の営業時間：9時～16時半　水曜日営業しません（雨の日は営業しておりません）定休日：水曜日（祝日の場合は翌日を休日になります）,"{'PictureUrl1': 'https://www.siraya-nsa.gov.tw/image/575/640x480', 'PictureDescription1': '八田與一紀念園區八田宅戶外庭園'}","{'PositionLon': 120.36466979980469, 'PositionLat': 23.2143497467041, 'GeoHash': 'wsjs4fnck'}",文化類,八田與一紀念園區周圍有設置停車場烏山頭水庫內有設置停車場,{},烏山頭水庫門票：全票100元、半票60元、優待票40元停車收費：大客車80元、小客車50元、機車20元,※平日如欲進入園區參觀請先至烏山頭水庫大門購票亭購票※假日可於烏山頭水庫與八田與一紀念園區交界處之售票口購票。動畫館開館時間調整為：除週三外，每日9:00~12:00及13:00~...,臺南市,2023-07-13T01:40:49+08:00,2023-07-13T02:10:57+08:00
C1_315081700H_000040,南化遊客中心,位於烏山腳下的南化遊客中心建築造型俐落，融入自然地景的銀級綠建築，是管理處最南端的服務據點，南化遊客中心還提供淋浴間及熱開水，讓自行車族及遊客有個舒適休憩空間，順便欣賞烏山迷人山景。南化遊客中心館內展示南化芒果與蜂蜜生態，親子可以進行互動遊戲，打造寓教於樂的學習環境。戶外也擺設許多可愛的藝術裝置，跟著達卡浪、莎韻一起躺著曬太陽，還有兒時玩的傳聲筒，可以感受美好時光；遊客中心不定期結合在地產業與特色文化，推出體驗活動或者小農市集讓遊客有玩、有吃、有得買。,位於烏山腳下的南化遊客中心建築造型俐落，融入自然地景的銀級綠建築，是管理處最南端的服務據點，南化遊客中心還提供淋浴間及熱開水，讓自行車族及遊客有個舒適休憩空間，順便欣賞烏山迷人山景。南化遊客中心館內展示南化芒果與蜂蜜生態，親子可以進行互動遊戲，打造寓教於樂的學習環境。戶外也擺設許多可愛的藝術裝置，跟著達卡浪、莎韻一起躺著曬太陽，還有兒時玩的傳聲筒，可以感受美好時光；遊客中心不定期結合在地產業與特色文化，推出體驗活動或者小農市集讓遊客有玩、有吃、有得買。,886-6-5771046,臺南市716南化區西埔里西埔1-3,716,鄰近公車站：界址站(高雄客運8035、大臺南公車綠27),星期一： 09:00-17:00星期二： 09:00-17:00星期三： 09:00-17:00星期四： 09:00-17:00星期五： 09:00-17:00星期六： 09:00-17:00星期日： 09:00-17:00,"{'PictureUrl1': 'https://www.siraya-nsa.gov.tw/image/606/640x480', 'PictureDescription1': '南化遊客中心大草皮與建築'}","{'PositionLon': 120.47808074951172, 'PositionLat': 23.036840438842773, 'GeoHash': 'wsjej99rq'}",文化類,遊客中心有設置停車場,{},無門票收費,※園區鄰近山區，易有蚊蟲叮咬，建議攜帶防蚊液或穿著長袖衣物,臺南市,2023-07-13T01:40:49+08:00,2023-07-13T02:10:57+08:00
C1_315081700H_000100,官田遊客中心(交通部觀光局西拉雅國家風景區管理處行政中心),2020年8月啟用的官田遊客中心佔地約11公頃，園區景觀以「鄉村聚落」及西拉雅族元素融入進嘉南平原之地形意象打造而成，其交通位置方便且設備齊全，未來將成為當地觀光新地標，以此作為串連各大風景區的樞紐，結合鄰近的國道三號烏山頭交流道、八田與一紀念園區及烏山頭水庫，打造一條交通便利的旅遊線，更好地帶動當地觀光。吸睛建築的整體配置，延續西拉雅族傳統聚落面向水域來設計，被山水之色環抱著的土地，以建築主體環繞出一完整的戶外廣場作為象徵，主體為一座兩層樓高的綠建築。除了完善的設施，同時也規劃引進地方農特產品進駐展售，提供地方農特產品行銷窗口，使其成為多功能園區，為到此旅遊的遊客和當地居民提供更友善、多元的服務。自駕建議行車路線:南下於國道３號烏山頭交流道下&rarr;171線道往六甲、官田方向&rarr;左轉165線道&rarr;左轉福田路99號即到達。北上於國道3號官田系統交流道&rarr;東西向84號快速道路北門-玉井線&rarr;往北門方向下官田匝道&rarr;右轉台一線往官田方向&rarr;右轉後潭路&rarr;左轉福田路即到達。建議大眾運輸轉乘路線:鄰近公車站：1.官田遊客中心：橘5、台灣好行-菱波官田線(假日行駛)轉乘方式：1.可搭火車到善化車站下車，轉乘公車橘5開往六甲站至＂官田遊客中心＂下車。2.可搭火車到新市或新營車站下車，轉乘公車菱波官田線至「官田遊客中心」站下車。,2020年8月啟用的官田遊客中心佔地約11公頃，園區景觀以「鄉村聚落」及西拉雅族元素融入進嘉南平原之地形意象打造而成，其交通位置方便且設備齊全，未來將成為當地觀光新地標，以此作為串連各大風景區的樞紐，結合鄰近的國道三號烏山頭交流道、八田與一紀念園區及烏山頭水庫，打造一條交通便利的旅遊線，更好地帶動當地觀光。吸睛建築的整體配置，延續西拉雅族傳統聚落面向水域來設計，被山水之色環抱著的土地，以建築主體環繞出一完整的戶外廣場作為象徵，主體為一座兩層樓高的綠建築。除了完善的設施，同時也規劃引進地方農特產品進駐展售，提供地方農特產品行銷窗口，使其成為多功能園區，為到此旅遊的遊客和當地居民提供更友善、多元的服務。自駕建議行車路線:南下於國道３號烏山頭交流道下&rarr;171線道往六甲、官田方向&rarr...,886-6-6900399,臺南市720官田區官田里福田路99號,720,鄰近火車站：隆田車站鄰近公車站牌：1.官田遊客中心：橘5、台灣好行-菱波官田線(假日行駛)轉乘方式：1.可搭火車到善化車站下車，轉乘公車橘5開往六甲站至＂官田遊客中心＂下車。2.可搭火車到新市或新營車站下車，轉乘公車菱波官田線至「官田遊客中心」站下車。,星期一：09:00~17:00星期二：09:00~17:00星期三：09:00~17:00星期四：09:00~17:00星期五：09:00~17:00星期六：09:00~17:00星期日：09:00~17:00,"{'PictureUrl1': 'https://www.siraya-nsa.gov.tw/image/14003/640x480', 'PictureDescription1': '交通部觀光局西拉雅國家風景區管理處行政中心暨官田遊客中心'}","{'PositionLon': 120.33621215820312, 'PositionLat': 23.18852996826172, 'GeoHash': 'wsjefm64u'}",官田遊客中心園區中有停車場,{},免門票,1.本場地為本處提供遊客服務使用。2.本場地訂有場地使用管理要點，詳見本處行政資訊網/便民服務/表單下載 第八點。3.若有場地使用相關問題，請洽遊客中心服務人員〈+886-6-69...,臺南市,2023-07-13T01:40:49+08:00,2023-07-13T02:10:57+08:00
C1_315081700H_000127,南瀛天文教育園區,大內區因為低光害，是南台灣公認最適合觀賞星星的地方，因此有「星星的故鄉」之美名。位於大內的南瀛天文教育園區中，不但有專業望遠鏡讓民眾親眼感受天文之美，展館內還有好多有關宇宙的祕密與知識，以及精彩的3D星象劇場，讓追「星」族們可以勇闖太空來場圓夢之旅。天文觀測館：為園區最早開放之建築，整體外觀以尖稜造型來設計「星曜」的意象，設置不同口徑之天文望遠鏡，提供天文觀測功能。白天，民眾可於觀星平臺上，遠眺曾文溪的曲流、河階地形與月世界的泥岩惡地，並透過天文望遠鏡觀測太陽黑子；每逢週六及特殊天象更開放夜間觀星，進行天文望遠鏡觀測體驗，並搭配星空導覽解說服務，拉近民眾與大自然的距離。天文展示館：展示館配合地勢及自然條件設計，以「月亮」為象徵意象。採用高科技虛擬實境的展示手法，提供民眾體驗導向的展項設計，營造一處具科技、幻想的天文場域，透過生動、活潑而豐富的天文主題，結合熱門天文主題特展，啟發民眾對天文科學的喜愛。星象館：建築體順勢延展成半圓形球體，象徵「太陽」意象，星象劇場為本館展示的主軸，國內第一個採用數位球幕3D的星象劇場，運用目前全世界最新技術「全天域3D成像」數位星象儀，超越地點、天候、月相、時間的限制，提供遊客一個真實而撼動人心的模擬星空。,大內區因為低光害，是南台灣公認最適合觀賞星星的地方，因此有「星星的故鄉」之美名。位於大內的南瀛天文教育園區中，不但有專業望遠鏡讓民眾親眼感受天文之美，展館內還有好多有關宇宙的祕密與知識，以及精彩的3D星象劇場，讓追「星」族們可以勇闖太空來場圓夢之旅。天文觀測館：為園區最早開放之建築，整體外觀以尖稜造型來設計「星曜」的意象，設置不同口徑之天文望遠鏡，提供天文觀測功能。白天，民眾可於觀星平臺上，遠眺曾文溪的曲流、河階地形與月世界的泥岩惡地，並透過天文望遠鏡觀測太陽黑子；每逢週六及特殊天象更開放夜間觀星，進行天文望遠鏡觀測體驗，並搭配星空導覽解說服務，拉近民眾與大自然的距離。天文展示館：展示館配合地勢及自然條件設計，以「月亮」為象徵意象。採用高科技虛擬實境的展示手法，提供民眾體驗導向的展項設計，營...,886-6-5761076,臺南市742大內區曲溪里34-2號,742,鄰近公車站：南瀛天文園區站（大台南公車橘幹線）,星期一：公休星期二：09:00-17:00星期三：09:00-17:00星期四：09:00-17:00星期五：09:00-17:00星期六：09:00-21:00 星期日：09:00-17:00,"{'PictureUrl1': 'https://www.siraya-nsa.gov.tw/image/194/640x480', 'PictureDescription1': '南瀛天文教育園區場內常設展'}","{'PositionLon': 120.3917236328125, 'PositionLat': 23.117420196533203, 'GeoHash': 'wsjee86sd'}",文化類,南182線道沿線皆可停車,{},星象劇場3Ｄ：全票130元、半票100元星象劇場2Ｄ：全票100元、半票70元天文展示館：全票50元、半票40元天文展示館星際漫遊：20元戶外、天文觀測館免費參觀,※星象劇場場次有限，請提前到達※若要參觀全場館建議購買套票,臺南市,2023-07-13T01:40:49+08:00,2023-07-13T02:10:57+08:00
C1_315081700H_000150,二寮觀日出,攝影界流傳著日出三大聖地：北格頭、中五城、南二寮，其共通點是擁有壯美的低海拔雲海，二寮日出更是全臺灣海拔最低的觀日出勝地，被譽為「最接近城市的曙光」。清朗天氣時趕在破曉前，立高地眺望東方，中央山脈於晨光中浮現，陽光自山後躍出，光束斜射而出，彩光打亮白堊山丘，月世界隨著天光的潑灑，在色彩變幻無窮的雲霧中顯露真貌，竹影搖曳在晨曦中，一幅潑墨山水畫卷就此鋪開在眼前。近年來新建的全新觀景平臺更是有別於其他觀景平臺之狹小，取而代之的是可容納近兩千人的寬闊場域，周邊也設置了停車場及廁所，供到此朝聖的遊客使用。,攝影界流傳著日出三大聖地：北格頭、中五城、南二寮，其共通點是擁有壯美的低海拔雲海，二寮日出更是全臺灣海拔最低的觀日出勝地，被譽為「最接近城市的曙光」。清朗天氣時趕在破曉前，立高地眺望東方，中央山脈於晨光中浮現，陽光自山後躍出，光束斜射而出，彩光打亮白堊山丘，月世界隨著天光的潑灑，在色彩變幻無窮的雲霧中顯露真貌，竹影搖曳在晨曦中，一幅潑墨山水畫卷就此鋪開在眼前。近年來新建的全新觀景平臺更是有別於其他觀景平臺之狹小，取而代之的是可容納近兩千人的寬闊場域，周邊也設置了停車場及廁所，供到此朝聖的遊客使用。,886-6-6900399,臺南市713左鎮區二寮里,713,鄰近公車站：岡林站（大台南公車綠13、綠28），但須再步行約半小時才可到達,全天開放,"{'PictureUrl1': 'https://www.siraya-nsa.gov.tw/image/571/640x480', 'PictureDescription1': '二寮日出被譽為「最接近城市的曙光」'}","{'PositionLon': 120.41034698486328, 'PositionLat': 22.995399475097656, 'GeoHash': 'wsjdu40ju'}",文化類,觀景台有設置停車場,{},無門票收費,※二寮日出最佳觀賞時期為6~9月,臺南市,2023-07-13T01:40:49+08:00,2023-07-13T02:10:57+08:00
C1_315081700H_000158,南寶高爾夫球場,南寶高爾夫球場位於臺南市大內區頭社公廨旁，鄰近走馬瀨農場、曾文水庫、南元農場以及國立臺南藝術大學等景點，這裡的球道大多呈南北走向，以避免球友擊球時碰到正面逆光的情形。球場外圍原始樹林青鬱茂密，球道兩側則種滿桃花心木、樟樹等，景色宜人。,南寶高爾夫球場位於臺南市大內區頭社公廨旁，鄰近走馬瀨農場、曾文水庫、南元農場以及國立臺南藝術大學等景點，這裡的球道大多呈南北走向，以避免球友擊球時碰到正面逆光的情形。球場外圍原始樹林青鬱茂密，球道兩側則種滿桃花心木、樟樹等，景色宜人。,886-6-5762546,臺南市742大內區頭社里136號,742,鄰近公車站：頭社路口站(大台南公車橘1、橘20)約需再步行20分鐘鄰近火車站：善化火車站下車，再轉搭計程車往南寶高爾夫球場。,依球場規定,"{'PictureUrl1': 'https://www.siraya-nsa.gov.tw/image/677/640x480', 'PictureDescription1': '球場環境清幽是球員的最佳選擇'}","{'PositionLon': 120.37364196777344, 'PositionLat': 23.15169906616211, 'GeoHash': 'wsjeentkm'}",文化類,南寶高爾夫球場設有停車場,{},依球場規定(會員制),※球場生態豐富，建議攜帶防蚊液或穿著長袖衣物※擊球時建議塗抹防曬,臺南市,2023-07-13T01:40:49+08:00,2023-07-13T02:10:57+08:00
C1_315081700H_000159,臺南高爾夫球場,臺南新化球場，籌劃開發於戒嚴時期，由前立法委員梁許春菊女士在1967年間，鑑於高爾夫球運動日後將為逐漸普遍化的運動，又能培養高尚的品格，由當時社會賢達人是熱心參與，共同連署為發起人。同時，承蒙何應欽將軍等相關人士的幫忙在虎頭埤山麓地段規劃球場用地。在1971年3月完成前9洞，在1978年再完成後9洞，而為18洞的球場，一直到1998年，後9洞重新整理再度開放，同步開創南部高爾夫運動風潮！臺南高爾夫球場是南臺灣的老球場之一，距離臺南市區僅10餘公里，交通相當便利。碧草如茵的球場加上如詩如畫的優美景致，打起高爾夫球來更覺身心舒暢。,臺南新化球場，籌劃開發於戒嚴時期，由前立法委員梁許春菊女士在1967年間，鑑於高爾夫球運動日後將為逐漸普遍化的運動，又能培養高尚的品格，由當時社會賢達人是熱心參與，共同連署為發起人。同時，承蒙何應欽將軍等相關人士的幫忙在虎頭埤山麓地段規劃球場用地。在1971年3月完成前9洞，在1978年再完成後9洞，而為18洞的球場，一直到1998年，後9洞重新整理再度開放，同步開創南部高爾夫運動風潮！臺南高爾夫球場是南臺灣的老球場之一，距離臺南市區僅10餘公里，交通相當便利。碧草如茵的球場加上如詩如畫的優美景致，打起高爾夫球來更覺身心舒暢。,886-6-5901666,臺南市712新化區礁坑里100號,712,鄰近公車站：鳳凰新城站（大臺南公車綠14）,預約制,"{'PictureUrl1': 'https://www.siraya-nsa.gov.tw/image/651/640x480', 'PictureDescription1': '台南球場離台南市區非常近是台南市區擊球的第一選擇'}","{'PositionLon': 120.34085083007812, 'PositionLat': 23.0347900390625, 'GeoHash': 'wsje43me3'}",文化類,球場園區內設有停車場,{},"果嶺費定價：平日 2,400元　假日 3,000元電車費：450元果嶺費:平日早球:840球場日-星期一:960球場日-星期三:1080星期二、四、五:1440星期六、日、例假日:...",※擊球或餐飲需預約,臺南市,2023-07-13T01:40:49+08:00,2023-07-13T02:10:57+08:00
C1_315081700H_000160,臺南山上花園水道博物館,行經市道178號旁，稍不留意就會錯過坐落在大馬路旁的百年古蹟-原臺南水道，是一處見證大臺南地區水利發展的重要古蹟。退役後卸下光環，今日臺南水道蛻變為充滿歷史氛圍的自來水博物館，巴洛克式廠房保存良好，內部保留完善的機件組，都是難得一見的老古董，使人興起思古幽情。所謂水道就是自來水管道的五處設施，包括取水設施、沈澱池、濾過氣室，送出唧筒室以及淨水池，列為古蹟的歷史價值包括分列各處為建築體、西式鋼筋水泥、紅磚樓房、石砌平屋等等，還有保存完好的機件組，包括14座英國快濾筒及零組件、天井移動起重機，豎軸式電動機組等，這些機具在臺灣自來水產業的生產設備中，都是珍貴的文化遺產。參觀淨水池需登上189階的淨水池步道才能到達，外觀為天然石材與仿石塊兩種組合而成之灰色建物，形制固若碉堡。淨水池兩側各有一座水質檢驗室，頂部覆土與植披，設有59座鑄鐵通氣管柱。淨水池後方淨水井門上山牆中央有一圓形標誌，上有水泥切砌而成「南水」二字圖案，正是「臺南水道」標誌，為前來參觀的民眾，敘述著臺南水道曾經有過的輝煌歷史。《關於臺灣水道之父─濱野彌四郎》被譽為臺灣水道之父的濱野彌四郎（1863～1932年）生於日本千葉縣，東京帝國大學工業工程部畢業。1896年濱野彌四郎以英國人威廉‧巴爾頓的助手身分來臺，擔任臺灣總督府土木部技師。在臺工作的23年間，陸續參與並完成基隆、臺北、臺中、臺南等地的重要水道計畫，對於臺灣水道貢獻良多。,行經市道178號旁，稍不留意就會錯過坐落在大馬路旁的百年古蹟-原臺南水道，是一處見證大臺南地區水利發展的重要古蹟。退役後卸下光環，今日臺南水道蛻變為充滿歷史氛圍的自來水博物館，巴洛克式廠房保存良好，內部保留完善的機件組，都是難得一見的老古董，使人興起思古幽情。所謂水道就是自來水管道的五處設施，包括取水設施、沈澱池、濾過氣室，送出唧筒室以及淨水池，列為古蹟的歷史價值包括分列各處為建築體、西式鋼筋水泥、紅磚樓房、石砌平屋等等，還有保存完好的機件組，包括14座英國快濾筒及零組件、天井移動起重機，豎軸式電動機組等，這些機具在臺灣自來水產業的生產設備中，都是珍貴的文化遺產。參觀淨水池需登上189階的淨水池步道才能到達，外觀為天然石材與仿石塊兩種組合而成之灰色建物，形制固若碉堡。淨水池兩側各有一座水質檢...,886-6-5781900,臺南市743山上區山上里16 號,743,鄰近公車站：臺南水道博物館站（大台南公車綠2、綠10、綠11、台灣好行山博行線）,星期一：9:30~17:30星期二：9:30~17:30星期三：公休星期四：9:30~17:30星期五：9:30~17:30星期六：9:30~17:30星期日：9:30~17:30,"{'PictureUrl1': 'https://www.siraya-nsa.gov.tw/image/625/640x480', 'PictureDescription1': '臺南水道大門售票亭'}","{'PositionLon': 120.35999298095703, 'PositionLat': 23.09680938720703, 'GeoHash': 'wsje6uekx'}",文化類,台南山上花園水道博物館設有停車場,{},博物館區門票：全票100元、半票50元淨水池區：免費,※園區內生態豐富，易有蚊蟲叮咬，建議攜帶防蚊液或穿著長袖衣物※最後入園時間為下午4:30,臺南市,2023-07-13T01:40:49+08:00,2023-07-13T02:10:57+08:00
C1_315081700H_000161,李子園小舖,東山李子園清光緒年間，先民由大陸搬遷到此定居，將帶來的李子種子種在自家門前。那時家家戶戶皆有李子樹，彷彿一片李子園，因而將此地命名為李子園。隨著時代的變遷與農業結構改變，當地農民改種植香蕉與椪柑等農作物，為何現今李子園會種植咖啡呢？茲因早期日本人發現東山區的氣候與土壤適合栽種「阿拉比卡」咖啡豆，遂而引進咖啡開始種植培育，當時喝過咖啡的人都說「這東西聞起來很香，但是喝起來好苦，不好喝。」昔日那個年代對於咖啡的接受度很低，因此東山咖啡發展也就此中斷。早年被嫌棄的咖啡，現今喝咖啡卻成為一種時尚，一種品味，有些人更視為必需品，每天不喝一杯咖啡就混身不自在；也因為如此，東山在地的農民想起昔日，日本人曾經在此栽種咖啡，十年前開始重新種植咖啡，近年積極參與國際咖啡評鑑，獲得美國C.Q.I咖啡精品協會認證，品質大獲肯定，讓東山咖啡逐漸在國際市場展露頭角，成為台灣咖啡主要重要產地之一。由在地居民齊心打造的「李子園小舖」，是一處充滿藝術風情的溫馨旅遊資訊站。每當有旅人訪時，居民總是熱情邀約「進來做唷，來喝杯咖啡」，為路過旅人煮一杯香濃咖啡，好客心意配上手沖的溫度，只為了讓旅人感受自家烘焙的的好味道。除了品嚐東山咖啡香，李子園小舖也推出咖啡限定小旅行，帶領遊客體驗烘焙咖啡的樂趣，種下屬於自己的咖啡寶寶，還有機會體驗龍眼乾包咖啡豆的在地吃法，感受滿滿的山城人情味。,東山李子園清光緒年間，先民由大陸搬遷到此定居，將帶來的李子種子種在自家門前。那時家家戶戶皆有李子樹，彷彿一片李子園，因而將此地命名為李子園。隨著時代的變遷與農業結構改變，當地農民改種植香蕉與椪柑等農作物，為何現今李子園會種植咖啡呢？茲因早期日本人發現東山區的氣候與土壤適合栽種「阿拉比卡」咖啡豆，遂而引進咖啡開始種植培育，當時喝過咖啡的人都說「這東西聞起來很香，但是喝起來好苦，不好喝。」昔日那個年代對於咖啡的接受度很低，因此東山咖啡發展也就此中斷。早年被嫌棄的咖啡，現今喝咖啡卻成為一種時尚，一種品味，有些人更視為必需品，每天不喝一杯咖啡就混身不自在；也因為如此，東山在地的農民想起昔日，日本人曾經在此栽種咖啡，十年前開始重新種植咖啡，近年積極參與國際咖啡評鑑，獲得美國C.Q.I咖啡精品協會認證，...,886-6-6863327,臺南市733東山區高原里李子園93號,733,鄰近公車站：李子園站（大臺南公車黃11-1、黃13延）,每日08：00~17：00(依店家公告為準),"{'PictureUrl1': 'https://www.siraya-nsa.gov.tw/image/615/640x480', 'PictureDescription1': '李子園小舖的藝術裝潢'}","{'PositionLon': 120.5062484741211, 'PositionLat': 23.286909103393555, 'GeoHash': 'wsjsqpmbp'}",文化類,李仔園小舖有設置停車場,{},無門票費用,※咖啡導覽體驗活動，建議出發前洽詢李子園小舖。※夏季山區易有午後雷陣雨，建議攜帶雨具※山區蚊蟲較多，建議攜帶防蚊液或穿著長袖衣物,臺南市,2023-07-13T01:40:49+08:00,2023-07-13T02:10:57+08:00
C1_395000000A_000971,麻豆林家四房厝,由於經濟與政治上的實力，「麻豆林家」在當時的聲望與「台中霧峰林家」與「台北板橋林家」並稱，三者合稱「台灣三林」。隨著分家繼承與都市發展所造成的土地價格飆漲，清領時期所建的七座精美大宅，因所有權人想法的不同，有些遂遭受拆除改建的命運，「新四房厝」即為其中較早因此而遭拆除者。由於所有權人對舊宅保存看法不一，民國六十七年（西元1978年）五月，中軸線左半側部分遭拆除。,由於經濟與政治上的實力，「麻豆林家」在當時的聲望與「台中霧峰林家」與「台北板橋林家」並稱，三者合稱「台灣三林」。隨著分家繼承與都市發展所造成的土地價格飆漲，清領時期所建的七座精美大宅，因所有權人想法的不同，有些遂遭受拆除改建的命運，「新四房厝」即為其中較早因此而遭拆除者。由於所有權人對舊宅保存看法不一，民國六十七年（西元1978年）五月，中軸線左半側部分遭拆除。,886-6-2991111,臺南市721麻豆區和平路20號,721,由台南火車站前搭往麻豆的興南客運，於麻豆下車。,現為私宅,{},"{'PositionLon': 120.24495697021484, 'PositionLat': 23.179710388183594, 'GeoHash': 'wsjeb5xxw'}",{},免門票,臺南市,2023-07-13T01:40:49+08:00,2023-07-13T02:10:57+08:00
C1_397000000A_000235,內門308高地,內門308高地位處高雄內門與台南左鎮的交界稜線上，因海拔308公尺得名，當地人又稱作「望高寮」，是周遭山巒的至高點、欣賞惡地地形的最佳位置，南台灣的惡地地形分布於高雄與台南的淺山地帶，屬於寸草不生的泥岩區，鋸齒狀的裸露陡峭山脊，彷彿來到月球表面，故有「月世界」的響亮俗稱。308高地除了著名的景觀餐廳外，也設有雙層觀景平台，環顧四週，宛如自己就在月球上漫步著，天氣晴朗時，更能遠眺嘉南平原、臺灣海峽，風光綺麗、變化萬千。傍晚時分，夕陽西陲的美景，令人流連忘返。,高雄內門與台南左鎮的交界處，遙望廣闊的惡地地形，彷彿造訪了月球表面。,886-7-7995678,高雄市845內門區,845,全天候開放,"{'PictureUrl1': 'https://khh.travel/content/images/Attractions/43417/640x480_attractions-image-bv1bnqrdski7z2xrvkhncw.jpg', 'PictureDescription1': '308高地'}","{'PositionLon': 120.44242095947266, 'PositionLat': 22.97740936279297, 'GeoHash': 'wsjdswzmp'}",自然風景類,{},臺南市,2023-07-13T01:40:49+08:00,2023-07-13T02:10:57+08:00
C1_A25000000E_100012,府城舊冊店,府城舊冊店備有齊全的臺灣文學與文化專書並設有詩報編輯部、辦各種藝文展覽，並有不少珍罕本只售有緣人。也不時舉辦導讀故事的活動，由店主人之一的潘姐主講，用繪本聊臺南的老故事，多年來受到當地老少讀者青睞。店內除了臺灣文學外，原住民文學和台語文學也在此深耕，成為東門城旁文人的聚集地。,886-6-2763093,臺南市  東區勝利路115號地下室(成大與南一中附近),701,可搭臺南市公車3、88、H62、黃6、黃7及黃幹線至「文化中心｣站下車。,週一~六：10:00 - 22:00 ；週日：12:00 - 22:00,{'PictureUrl1': 'http://cloud.culture.tw/e_upload_ccacloud/festival/image/A0/B0/C0/D0/E0/F57/7768eed6-1dbf-478a-92c2-693f82b17f3a.JPG'},"{'PositionLon': 120.21772003173828, 'PositionLat': 22.98647117614746, 'GeoHash': 'wsj6z8ecg'}",藝術類,{},臺南市,2023-07-13T01:40:49+08:00,2023-07-13T02:10:57+08:00
