ScenicSpotID,ScenicSpotName,DescriptionDetail,Description,Phone,Address,OpenTime,Picture,Position,ParkingPosition,City,SrcUpdateTime,UpdateTime
C1_315081200H_000006,峨眉湖,峨眉湖位於新竹縣峨眉鄉富興村與湖光村交接處，本體其實為第一座國人自行設計興建的水庫，稱大埔水庫，主要是供應灌溉及工業用水，也有防洪功能。2000年內政部解除水庫保護令遂讓峨眉湖開始發展觀光。 來到峨眉湖，首先映入眼簾的除了廣闊湖面，還有環湖步道，若要欣賞各種角度的湖畔之美，不妨走上一圈。步道全長3.5公里，只走前半段的峨眉湖步道則只有約1公里，且這1公里的步道藏有慷慨與巧思，改建過的峨眉湖步道能完工要多虧當地仕紳余錦奎伯伯的無償提供，也因此這段步道設有一段「徐伯伯的橋」，橋下的3D彩繪溪流栩栩如生，宛如流水正汨汨而去，溪上還有油桐花、蓮花荷葉點綴。繼續沿著湖畔走，沿途琳瑯滿目的水岸植物彷彿生態教室，配合一旁的解說牌，讓遊客寓教於樂。另外，遊客也能發現水面一大片翠綠的布袋蓮，這景觀固然美麗，但也令人擔憂外來種植物對原生種的侵害，國人須以此為警惕，維護我們的自然環境。 走著走著便會看到另一個峨眉湖知名景點&mdash;&mdash;細茅埔吊橋，原先橫跨峨眉湖的吊橋有五座，方便附近居民往來，如今只剩下細茅埔吊橋連接十二寮休閒園區與富興老街。細茅埔吊橋橋身能承重五十人，橋塔有著桐花的裝飾，佇立其上兩邊都能欣賞湖上風光，隨著時間與天氣對湖面造成的變化，可謂有著千百種景致。,峨眉湖位於新竹縣峨眉鄉富興村與湖光村交接處，本體其實為第一座國人自行設計興建的水庫，稱大埔水庫，主要是供應灌溉及工業用水，也有防洪功能。2000年內政部解除水庫保護令遂讓峨眉湖開始發展觀光。 來到峨眉湖，首先映入眼簾的除了廣闊湖面，還有環湖步道，若要欣賞各種角度的湖畔之美，不妨走上一圈。步道全長3.5公里，只走前半段的峨眉湖步道則只有約1公里，且這1公里的步道藏有慷慨與巧思，改建過的峨眉湖,886-3-5800116,315台灣新竹縣峨眉鄉湖光村,全天,"{'PictureUrl1': 'https://www.trimt-nsa.gov.tw/Content/Uploads/StrollArea/Detail/543a47a4-30e6-4165-8057-7ab0edb366d2_thumb.png', 'PictureDescription1': '峨眉湖'}","{'PositionLon': 120.98529815673828, 'PositionLat': 24.679859161376953, 'GeoHash': 'wsqh3hff9'}",{},新竹縣,2023-07-13T01:40:49+08:00,2023-07-13T02:10:57+08:00
C1_315081200H_000008,北埔老街,道光14年（1834）由官方出資授權開辦墾務，粵籍墾首姜秀鑾與閩籍商人周邦正合組「金廣福」墾號，與原住民纏鬥數十年，北埔的開發就因此而為是武力拓墾，故北埔的聚落特性有軍事、商業及宗教的圍城，具有防禦特色。縣定古蹟慈天宮位於北埔聚落的中央，是大隘地區最具規模與最富麗堂皇的廟宇，是居民的信仰中心。北埔最大古式建築天水堂，創建於清道光12年（西元1832年）的姜氏故居天水堂，是北埔聚落內最大的古式建築，採三合院客家民宅設計，台階有特大台面，號稱全台最優美門樓之一。此地屬私人所有，不開放民眾參觀。創建於道光15年（西元1835年）的金廣福公館，是漢人進入山區武裝開墾的行政中心，如今也是新竹縣唯一的國定古蹟。北埔秀才故居忠恕堂古宅，創建時間於西元1922年，為清朝秀才曾學熙故居，一堂二橫建築、由屋瓦組合而成的創意圍牆及當時水質純淨豐沛的古井，聲名遠播，方圓五十公尺內，村民皆為飲水而來，今日年久失修古井已廢棄。姜阿新洋樓仿巴洛克式建築，屋外石材均是採用北投岸石，內部裝潢採用老烏心石木、檜木、樟樹、台灣杉等珍貴木材，位於金廣福公館和天水堂鄰厝，是北埔洋樓的代表，目前為金廣福文教基金會所在，前往參觀須事先申請。,道光14年（1834）由官方出資授權開辦墾務，粵籍墾首姜秀鑾與閩籍商人周邦正合組「金廣福」墾號，與原住民纏鬥數十年，北埔的開發就因此而為是武力拓墾，故北埔的聚落特性有軍事、商業及宗教的圍城，具有防禦特色。縣定古蹟慈天宮位於北埔聚落的中央，是大隘地區最具規模與最富麗堂皇的廟宇，是居民的信仰中心。北埔最大古式建築天水堂，創建於清道光12年（西元1832年）的姜氏故居天水堂，是北埔聚落內最大的古,886-3-5802204,314新竹縣北埔鄉慈天宮正前方的北埔街,<p>新竹客運：獅山線，自竹東搭新竹客運往北埔或珊珠湖，於北埔站下車。</p><p>自行開車：由竹東或峨眉沿3號省道進入北埔，至北埔車站轉向秀巒山下的中正路直行即達。</p>,全天,"{'PictureUrl1': 'https://www.trimt-nsa.gov.tw/Content/Uploads/ArticleArea/Detail/2efed37f-f76b-411f-af44-7dd85e3a0b44_thumb.jpg', 'PictureDescription1': '北埔老街'}","{'PositionLon': 121.05721282958984, 'PositionLat': 24.700088500976562, 'GeoHash': 'wsqhd8x0m'}",{},新竹縣,2023-07-13T01:40:49+08:00,2023-07-13T02:10:57+08:00
C1_315081200H_000014,水濂洞步道,走在水濂橋步道，路上蟲鳴鳥叫，綠蔭遮天，在享受山區健行的同時，沿路向下，岩洞水潭的光景映入眼簾，突起的岩石像屋簷一樣，讓巨大的岩洞自帶天然的遮蔭，藤蔓植物順著岩石一字排開，向下垂葉，巧妙裝飾了上方岩石，這裡正是獅頭山最大的天然岩洞－水濂洞，上方山泉水時而傾瀉，自岩壁流下，在洞口形成幾縷細小的水濂，故而得名。岩洞下方有座寺廟，在1902年，釋魏開大師發現水濂洞，並在水濂洞內建了一座廟宇，主要供俸釋迦牟尼。在寺廟中，鄰近的潺潺流水聲，如同梵音一般，繚繞寺中不絕於耳，因此得名梵音寺。在獅頭山眾多寺廟中，梵音寺位置最北，海拔最低，也是唯一一座非寺廟建築形式的廟宇，在岩洞中參拜，更顯清幽，據說這是一座相當有靈性的寺廟。 水濂洞圍欄另一側，石子溪清澈見底，可直接看到馬口魚，石斑等魚群優游其中，還有蜻蜓飛鳥等生物棲息，實為一處世外桃源。在這裡，可讓溪水洗滌心靈，沉澱自我，感受真正的寧靜祥和，是健行時駐足停留的完美地點。,走在水濂橋步道，路上蟲鳴鳥叫，綠蔭遮天，在享受山區健行的同時，沿路向下，岩洞水潭的光景映入眼簾，突起的岩石像屋簷一樣，讓巨大的岩洞自帶天然的遮蔭，藤蔓植物順著岩石一字排開，向下垂葉，巧妙裝飾了上方岩石，這裡正是獅頭山最大的天然岩洞－水濂洞，上方山泉水時而傾瀉，自岩壁流下，在洞口形成幾縷細小的水濂，故而得名。岩洞下方有座寺廟，在1902年，釋魏開大師發現水濂洞，並在水濂洞內建了一座廟宇，主要,886-3-5809296,新竹縣峨眉鄉七星村六寮60-8號,<p>大眾運輸：</p><p>自竹東搭新竹客運往獅頭山，於終點站下車可抵水濂洞停車場。</p><p>自行開車：</p><p>1.北二高竹林交流道下&gt;竹東，沿竹120縣道至台3線省道右轉直行至峨眉(台3線86k)左轉循指標可抵。</p><p>2.頭份交流道&gt;沿台3線省道往竹東方向，行至峨眉後右轉循指標可抵。</p>,全天,"{'PictureUrl1': 'https://www.trimt-nsa.gov.tw/Content/Uploads/StrollArea/Detail/dd13d380-fa83-43c3-8921-606185bff80f_thumb.PNG', 'PictureDescription1': '水濂洞步道'}","{'PositionLon': 121.02555084228516, 'PositionLat': 24.65467071533203, 'GeoHash': 'wsqh600pg'}",{},新竹縣,2023-07-13T01:40:49+08:00,2023-07-13T02:10:57+08:00
C1_315081200H_000015,獅山遊客中心,獅頭山，因位於中港溪邊遠眺此山時，形狀似獅頭而得名。包含前山獅頭，後山獅尾，分別位於苗栗縣南庄鄉及新竹縣峨眉鄉，主峰高度為海拔492公尺。富有豐富自然景觀，田園風光、山水景緻皆能在此盡收眼底，是遊客健行好選擇。 其中，獅頭山遊客中心是遊客在此休憩的好幫手。成立於民國90年，主體建物為廢棄之獅山國小，將其重建後，仍保有客家文化的古樸感。此處佔地雖不廣闊，但服務精實及多元。獅山教室裡介紹有相關景點跟周邊步道導覽圖，讓遊客可以依體力、心情選擇合適的路線踏青。遊客中心裏頭亦提供摺頁介紹、轄區各鄉鎮簡介、景點照片看板&hellip;&hellip;，透過不同主題分類，使遊客一目了然。傳統美食看板當中，也提及到許多人喜愛的菜色名稱，如筍子爌肉、薑絲炒大腸，這些受民眾喜愛，但不一定知道它是客家菜的美食，透過簡介，都能有更多認識。此外，遊客中心提供手機充電、簡易醫療用品、無線網路、汽機車充電、明信片代寄等多項便民服務，讓健行之旅變得更舒適且安心。遊客中心外頭有可愛的水車造景，周遭還有特色人形紙板可供遊客拍照，站在立板背後，就變成美麗的客家姑娘了！亦透過妥善的規劃，於樹蔭下放置許多座椅，搭配水車造景，戶外廣場區儼然成為疲勞時停歇的休憩好地點。,獅頭山，因位於中港溪邊遠眺此山時，形狀似獅頭而得名。包含前山獅頭，後山獅尾，分別位於苗栗縣南庄鄉及新竹縣峨眉鄉，主峰高度為海拔492公尺。富有豐富自然景觀，田園風光、山水景緻皆能在此盡收眼底，是遊客健行好選擇。 其中，獅頭山遊客中心是遊客在此休憩的好幫手。成立於民國90年，主體建物為廢棄之獅山國小，將其重建後，仍保有客家文化的古樸感。此處佔地雖不廣闊，但服務精實及多元。獅山教室裡介,886-3-5809296,315新竹縣峨眉鄉七星村六寮60-8號,星期一-星期日08:30-17:30,"{'PictureUrl1': 'https://www.trimt-nsa.gov.tw/Content/Uploads/StrollArea/Detail/2fe50f53-7f7d-4b9e-8190-52f480b54b35_thumb.jpg', 'PictureDescription1': '獅山遊客中心'}","{'PositionLon': 121.02455139160156, 'PositionLat': 24.655179977416992, 'GeoHash': 'wsqh3br6u'}",{},<p>無障礙廁所：2間<br />無障礙車位：汽車1格<br />輪椅借用：2台</p>,新竹縣,2023-07-13T01:40:49+08:00,2023-07-13T02:10:57+08:00
C1_315081200H_000018,十二寮休閒農園,此為專門栽培有機農作物的農場，規模雖然不大，但是作物種類卻相當豐富。而民眾更可在此體驗摘採蔬菜水果的樂趣，或是了解種植知識。 除此之外，亦可租借自行車，瀏覽附近的山色風光。,此為專門栽培有機農作物的農場，規模雖然不大，但是作物種類卻相當豐富。而民眾更可在此體驗摘採蔬菜水果的樂趣，或是了解種植知識。 除此之外，亦可租借自行車，瀏覽附近的山色風光。,886-3-7602708,315新竹縣峨眉鄉湖光村十二寮13鄰21-1號,<p>自行開車：</p><p>1.中山高頭份交流道（110K出口）&gt;苗124線&gt;台三線往南96K處轉十二寮農業區(走約三公里)&gt;即可到達十二寮休閒農園。</p><p>2.北二高新竹科學園區、寶山交流道（98K出口）&gt;峨眉方向竹43線11.5K往大埔水庫&gt;湖光社區大石頭標示進入500公尺即為十二寮農業區&gt;依指標即達。</p><p>3.走台三,星期二-星期日上午9:00-下午6:00（週一公休）請先電話預約,"{'PictureUrl1': 'https://www.trimt-nsa.gov.tw/Content/Uploads/StrollArea/Detail/582718d4-a4f6-4bd1-98b1-303ba9fa312e_thumb.jpg', 'PictureDescription1': '十二寮休閒農園'}","{'PositionLon': 120.986572265625, 'PositionLat': 24.674930572509766, 'GeoHash': 'wsqh35gtz'}",{},新竹縣,2023-07-13T01:40:49+08:00,2023-07-13T02:10:57+08:00
C1_315081200H_000026,綠世界生態農場,綠世界生態農場，位於新竹北埔，佔地七十多公頃，為一國際級之生態農場。 綠世界有六大主題公園：1、天鵝湖2、大探奇區3、水生植物公園4、鳥類生態公園5、蝴蝶生態公園6、生物多樣性探索區以動植物的自然生態，結合休閒育樂的大規模生態農場。除了六大主題公園，還規劃出金剛鸚鵡區、可愛動物區、景觀廁所、美食天地、動物劇場、綠野廣場、亞馬遜雨林區、客家古厝等共47個觀賞區。&nbsp;&nbsp;,綠世界生態農場，位於新竹北埔，佔地七十多公頃，為一國際級之生態農場。 綠世界有六大主題公園：1、天鵝湖2、大探奇區3、水生植物公園4、鳥類生態公園5、蝴蝶生態公園6、生物多樣性探索區以動植物的自然生態，結合休閒育樂的大規模生態農場。除了六大主題公園，還規劃出金剛鸚鵡區、可愛動物區、景觀廁所、美食天地、動物劇場、綠野廣場、亞馬遜雨林區、客家古厝等共47個觀賞區。&nbsp;&nbsp;,886-3-5801000,314新竹縣北埔鄉大湖村7鄰20號,星期一-星期日上午8:30-下午5:30,"{'PictureUrl1': 'https://www.trimt-nsa.gov.tw/Content/Uploads/ArticleArea/Detail/032010c2-260f-4604-a7e7-a35aeb2125d0_thumb.jpg', 'PictureDescription1': '綠世界生態農場'}","{'PositionLon': 121.07210540771484, 'PositionLat': 24.699230194091797, 'GeoHash': 'wsqhe0652'}",{},票價資訊請以綠世界生態農場公告為準,<p>大眾運輸： 台灣好行獅山線、新竹客運。</p><p>自行開車：</p><p>南下：中山高速公路&gt;公道五交流道下&gt;接68號快速道路&gt;往竹東方向10公里。</p>,新竹縣,2023-07-13T01:40:49+08:00,2023-07-13T02:10:57+08:00
C1_315081200H_000037,海會庵,海會庵，建於日本昭和4年間〈西元1928年〉，祀奉西方三聖阿彌陀佛、觀世音菩薩、大勢至菩薩與釋迦牟尼佛。庵前數棵桂花樹，樹大且枝葉茂密，陣陣桂花香隨風飄散，彷彿身歷仙境，寺庵三面環山，前有峽谷，遠眺或夜望新竹市，香山竹南沿海，燈漁閃爍，令人消塵脫俗。,海會庵，建於日本昭和4年間〈西元1928年〉，祀奉西方三聖阿彌陀佛、觀世音菩薩、大勢至菩薩與釋迦牟尼佛。庵前數棵桂花樹，樹大且枝葉茂密，陣陣桂花香隨風飄散，彷彿身歷仙境，寺庵三面環山，前有峽谷，遠眺或夜望新竹市，香山竹南沿海，燈漁閃爍，令人消塵脫俗。,886-3-5800866,315新竹縣峨眉鄉七星村13鄰六寮54號,星期六日開放-08:00–16:00,"{'PictureUrl1': 'https://www.trimt-nsa.gov.tw/Content/Uploads/StrollArea/Detail/1d2f17ee-4a7a-4f8c-9dea-4fcc4d5ee7d3_thumb.jpg', 'PictureDescription1': '海會庵'}","{'PositionLon': 121.01372528076172, 'PositionLat': 24.64370346069336, 'GeoHash': 'wsqh1wpxb'}",{},新竹縣,2023-07-13T01:40:49+08:00,2023-07-13T02:10:57+08:00
C1_315081200H_000042,二寮神木,位於大林村的二寮神木，據說已有500多年，當地的民眾於此建造土地公廟，由於十分靈驗，因此終年香火不斷。老樟木濃密的樹蔭，替此地的遊客遮擋了不少烈日，樹蔭下涼風徐徐，到此怡然暢遊，感受老樹綠意盎然的生命力，也是人生的一大樂事。,位於大林村的二寮神木，據說已有500多年，當地的民眾於此建造土地公廟，由於十分靈驗，因此終年香火不斷。老樟木濃密的樹蔭，替此地的遊客遮擋了不少烈日，樹蔭下涼風徐徐，到此怡然暢遊，感受老樹綠意盎然的生命力，也是人生的一大樂事。,886-3-5802204,314新竹縣北埔鄉大林村第8鄰（距北埔市街2公里）,<p>自行開車：</p><p>1.中山高頭份交流道下&gt;124縣道往三灣方向&gt;台3線往峨眉&gt;北埔&gt;二寮神木。</p><p>2.北二高竹林交流道下&gt;120縣道往竹東方向&gt;122縣道往五峰方向&gt;右轉接台3線&gt;北埔&gt;二寮神木。</p>,全天,"{'PictureUrl1': 'https://www.trimt-nsa.gov.tw/Content/Uploads/StrollArea/Detail/891e0478-50d5-414c-979a-b94098489a0b_thumb.jpg', 'PictureDescription1': '二寮神木'}","{'PositionLon': 121.0667495727539, 'PositionLat': 24.68206024169922, 'GeoHash': 'wsqh6vnp7'}",{},新竹縣,2023-07-13T01:40:49+08:00,2023-07-13T02:10:57+08:00
C1_315081200H_000045,萬佛庵,萬佛庵是座天然岩洞，民國前即有修道人在此修行。日昭和二年(1917)年整建，日昭和八年(1933)改稱為萬佛庵，民國71年全部拆除重建。 以洞為佛殿，在佛龕下有天然泉水流出，水質甘甜清涼，令人倍覺沁涼；其另一項特色，是有可愛的小沙彌群像，無論是迎客的小沙彌們，或是挑水、掃地的小沙彌，個個都令人倍感親切。,萬佛庵是座天然岩洞，民國前即有修道人在此修行。日昭和二年(1917)年整建，日昭和八年(1933)改稱為萬佛庵，民國71年全部拆除重建。 以洞為佛殿，在佛龕下有天然泉水流出，水質甘甜清涼，令人倍覺沁涼；其另一項特色，是有可愛的小沙彌群像，無論是迎客的小沙彌們，或是挑水、掃地的小沙彌，個個都令人倍感親切。,886-3-5800065,315新竹縣峨眉鄉七星村14鄰59號,<p>大眾運輸：</p><p>1.臺鐵新竹站下》轉臺鐵內灣支線於竹東站下》新竹客運竹東站搭乘竹東往獅山班車，於獅山站下車步行即可抵達。</p><p>2.臺鐵竹北站下》台灣好行獅山線於終點站下車可達。</p><p>自行開車：</p><p>1.國道1號竹北交流道下》光明六路》117縣道》省道台68線》省道台3線》竹41線即可抵達。</p><p>2.國道3號竹林交,全天,"{'PictureUrl1': 'https://www.trimt-nsa.gov.tw/Content/Uploads/StrollArea/Detail/f48cedda-af4e-40e1-ae39-df6b0173f2a6_thumb.PNG', 'PictureDescription1': '萬佛庵'}","{'PositionLon': 121.0229263305664, 'PositionLat': 24.652179718017578, 'GeoHash': 'wsqh1zy1q'}",{},新竹縣,2023-07-13T01:40:49+08:00,2023-07-13T02:10:57+08:00
C1_376440000A_000043,水牛學校,遊藝山林 水牛學校重返農村 找回沒落的牛耕文化&nbsp;位於新埔鎮的「水牛學校」，校長李春信眼見牛耕文化逐漸凋零沒落，矢志投身牛耕，呼喚所有具備童心的大小孩子重返農村，與牛親近相處實踐友善土地的自然教育。&nbsp;撰文／蔡舒湉 　攝影 ／施純泰　圖片提供／李春信&nbsp;推開紅磚三合院的鐵柵欄，兩隻挺拔健壯的狗兒馬上警覺地站起，這間屋子除了李春信與4 歲半的孩子，他還養了2 隻貓、3 條狗、7 頭牛、1 隻鴿子。也許是長年住在山區丘陵地，年約40 餘歲的李春信，說起話來稍顯木訥，笑聲卻格外輕盈地在樹林間迴盪。原是資訊工程師的他，畢業工作2 年後赴英國考文垂大學藝術學院深造。身處異鄉，李春信不斷被問及自己的故鄉與文化，他說，藝術家總要找出自己喜歡的元素。10 年前，他開始在新埔的小村落建立個人工作室，摸索台灣本土的生活底蘊。&nbsp;重拾傳統　友善自然的牛耕技藝靜謐的山居歲月，李春信常與當地小農交流，發現早於機械耕作時期的牛耕法，對土地生態更加友善。為了體驗友善耕種，李春信決定從養牛開始觀察牛的生長習性，與牛培養感情與默契，磨練牛耕技藝，重新找回被時代遺忘的牛耕文化。現代機器能快速完成的耕作農務，透過傳統牛耕技術，至少需要搭配犁、割耙等工具，才能順利將乾土泥漿化。李春信一一梳理過程與器物，也逐漸與7 頭牛培養出深厚情誼。他稱讚牛天性聰明，草吃飽了、看天色暗了就會自己回家，懂得認主人，只有肚子餓或天氣太熱才會迸發「牛脾氣」，跟人也會鬧彆扭一樣。身兼「牛爸爸」與「水牛學校」校長，李春信目標明確，希望全部訓練成耕牛，並針對每頭牛的學習進度因材施教，透過多加練習、複習，讓牛養成耕作習慣。&nbsp;創「水牛學校」 　發揚台灣牛精神李春信從象形字解析：「人生」就是「人」跟「牛」共同站在「土」地上，凸顯老祖先與牛共同開墾土地，共生共存的重要生命夥伴關係。此外，「水牛精神」也象徵台灣人為生活打拚的堅韌生命力。創立「水牛學校」，李春信視牛耕為志業，以經營藝術創作為主體，並透過舉辦體驗課程，推廣牛的文化價值，延續真善美。水牛學校透過一日體驗營、冬夏令營進行生命教育，課程包括認識各種牛耕工具與自然農法，小小牧童需學習牽牛、放牛、騎牛、套牛繩、幫牛按摩、清理牛棚、備牧草、曬牛糞、跟牛親近。從與牛接觸互動及勞動，讓孩子感受牛的性情與磁場，從中發現生命奧妙，感念土地。除了牛耕，在水牛學校的課程中也策劃飛鴿傳書、自然探索、砍柴野炊，與製作牛糞薰香、牛糞手作紙等藝術活動，饒富農村閒情; 並規劃讓孩子利用工具及繩結等技巧建設傳統攀爬屋，學習團結合作、體驗善用傳統工具的樂趣。&nbsp;牽繩即筆觸　與牛共舞的藝術身為藝術碩士的李春信連結牛繩與筆觸，希望將牽牛過程感受到的微妙力量，引導到土地上進行繪圖。「從牽牛觀察牛繩變化有輕重緩急，牛放鬆時繩子舒緩，沒吃飽時牛繩緊繃，不願意動。轉移到畫線就不會是單一粗細的線條，依據人與牛不同的心情做轉換，會特別有生命力。」李春信的牛耕創作還包括牛糞燃料、牛糞造紙、牛糞薰香，他說，牛糞又名百草膏，養在大自然中的牛吃多元的草類，加上運動量充足，牛隻抵抗力較好，造就形狀漂亮扎實、品質良好的牛糞。將牛糞磨粉做成薰香，氣味香甜，沏一壺好茶即能享受休閒的農村時光。&nbsp;從親近自然開始 找回牛的文化價值　「水牛學校」成立的這些年，一路走來有甘有苦，李春信笑稱自己擇善固執，這樣的學習體驗也越來越能吸引志同道合的夥伴，與不少願意親近自然、親近土地的孩子前來參與。只要有父母、孩子認同、想學習傳統牛耕精神，一同找回牛的文化價值，就是最有成就感的事。李春信表示，牛是土地文化很重要的一環，但走過農耕社會的台灣卻遺忘過去牛耕記憶，眾多文化節都不以牛為主角，僅民間以不吃牛肉的形式默默感念，而現在李春信希望透過牛耕與藝術的結合，喚醒人們對於牛耕的重視。未來，「水牛學校」校長李春信會繼續尋找水草豐美、無汙染的農田，帶著牛隻到這塊應許之地，搭造自然素材建設，實踐理想，讓人與牛一起走下去。,886-9-26939186,新竹縣關西鎮大東坑11鄰1號,（課程時間內容請洽李春信）,{},"{'PositionLon': 121.12000274658203, 'PositionLat': 24.82469940185547, 'GeoHash': 'wsqjhphyk'}",休閒農業類,{},新竹縣,2023-07-13T01:40:49+08:00,2023-07-13T02:10:57+08:00
C1_376440000A_000045,橫山采風館,橫山采風館位於內灣火車站附近，為一間展示傳統客家農莊文物的展覽場所，一樓主要是舞台餐廳，可容納五百人，並接受團體訂位。而二樓主要展出農莊文物，還有古早味店鋪及桌椅器具等，另外在走道的兩旁掛有四、五零年代台灣早期電影海報，充滿著復古的味道，來到這可以了解早期客家文化。,886-3-5518101,新竹縣橫山鄉內灣村9鄰大同路99號,國道3號關西交流道出口下交流道，朝關西/新埔前進→正義路/118縣道向左轉→明德路/118縣道向左轉→中豐路一段/118縣道向右轉→中豐公路/台3線向右轉 繼續沿著台3線前進→中山街一段/120縣道向左轉→中正路口向左轉→目的地,未提供,{},"{'PositionLon': 121.17900085449219, 'PositionLat': 24.7052001953125, 'GeoHash': 'wsqht3ry5'}",觀光工廠類,{},新竹縣,2023-07-13T01:40:49+08:00,2023-07-13T02:10:57+08:00
C1_376440000A_000046,萬瑞渡假村,「萬瑞森林樂園」位於新竹縣橫山鄉大山背，是交通部觀光局核定的合法森林遊樂區，其海拔660公尺面積達38公頃，有頭前溪青山綠野環繞，天然的景觀景色宜人四季如春，是全國唯一離都市最近的原始森林遊樂園，可瞭望新竹縣市全景。,886-3-5934096,312新竹縣橫山鄉橫山村23號,國道中山高竹北交流道、北二高竹林交流道→往竹東、橫山方向（可走68號東西向快速道路→台三線72.9K或73.5K（站前街）處依指標前行，竹35-1線5.4K處即達「萬瑞森林樂園」。,09:00-17:00,{},"{'PositionLon': 121.13500213623047, 'PositionLat': 24.702699661254883, 'GeoHash': 'wsqhs2zzd'}",遊憩類,{},新竹縣,2023-07-13T01:40:49+08:00,2023-07-13T02:10:57+08:00
C1_376440000A_000047,六福水樂園,六福水樂園 水陸雙享新竹縣關西的六福村主題遊樂園不僅有刺激好玩的遊樂設施，暑期更開放有最美玩水天堂之稱的「六福水樂園」，一次就可以享受到水陸兩種不同玩法，滿足各個年齡層遊客的期望。「六福水樂園」6月18日到9月18日正式開放，今年特舉辦刺激瘋狂的水槍大戰，眾戰神們以水力在園區進行瘋狂掃射，帶領遊客享受四面八方襲擊而來的消暑刺激樂趣！園區內16項多座造型特殊滑水道為最大賣點，讓遊客擁有各種不同的玩水新體驗。充滿浪漫希臘風情造景的「六福水樂園」，融合愛琴海風格特色，進入園區彷彿來到國外渡假一般，享受異國慵懶的浪漫悠閒時光。愛好刺激的人，絕不能錯過全台首見的飛天梭立體滑道「海神快艇」，從15公尺的高空急速俯衝而下，瞬間衝向天際，接著再迅速滑落，享受高潮迭起的刺激快感，然後跳入冰涼消暑設施「冰凍滑道」，在酷熱豔陽下體驗6℃刺激冰凍感。新設施5D電影今夏登場此外，熱門的玩水設施還有「大旋渦」，由11 公尺高的黑暗滑道快速墜落UFO造型的大漩渦內，可說是重力加速度的震撼考驗；「天旋地轉」則是從雲端垂直急馳而下，巨大水流席捲而來，上天又下海，享受獨一無二的無限快感。在腎上腺素大爆發之後，園區內也有放鬆類型的設施讓遊客的心跳舒緩一下，全長180公尺的「漂浮河流」，可以慵懶地躺在浮具上緩慢漂行，享受陽光與流水帶來的悠閒感受。帶著小朋友一同戲水的家長，則不能錯過深具童趣的「水迷宮」，可愛童趣的卡通造景、滑水道，與小朋友泡在水裡，感受清涼的舒暢感。暑假期間六福村主題遊樂園耗資千萬，打造出全新遊樂設施「5D哈比哈妮大冒險‧ 魔宮奪寶」，融合3D立體視覺效果及先進的體感科技互動技術，讓遊客只要坐在劇院中，就能親身感受一場豐富生動的冒險旅程。夜晚則延長開放時間，隆重上演超炫特效煙火燈光秀，璀璨煙火搭配澎湃聲光表演，媲美迪士尼頂級燈光秀喔。,886-3-54756659,新竹縣關西鎮仁安里拱子溝60號,沿國道3號前往龍潭區的國道三號龍潭交流道聯絡道/大昌路二段/113乙縣道→從國道3號的 68-龍潭號出口下交流道→繼續走國道三號龍潭交流道聯絡道/大昌路二段/113乙縣道前往目的地關西鎮,未提供,{},"{'PositionLon': 121.18099975585938, 'PositionLat': 24.825199127197266, 'GeoHash': 'wsqjjx333'}",遊憩類,{},新竹縣,2023-07-13T01:40:49+08:00,2023-07-13T02:10:57+08:00
C1_376440000A_000048,思微藏物生活空間,思微藏物生活空間 在地文創品一網打盡思微藏物生活空間成立至今已經三年多，這個空間的出現，其實是從「市集」衍伸而來，以前逛市集，民眾大多是在參加某一項活動時順便到一旁的攤位繞繞，將市集作為主角舉辦的活動並不常見，張顥薰於是夥同一行有志之士開始著手計劃，推出新竹縣第一場以市集為主角的活動。因為活動帶來的後續反應很不錯，讓大家對於創意市集很有信心，更想將台灣的好設計、好文創介紹給更多消費者知道，後來便成立了思微藏物生活空間，邀請各種藝術家帶著作品進駐。陶瓷品、金工首飾、花草植物、木雕、布包、明信片等，各種特色鮮明的日常用品、配飾都是這裡的熱門商品，以新竹縣在地藝術家的作品為首選，只要是富創意、有質感、融入新竹在地特色的文創品，都有機會在這裡一展身手。到思微藏物生活空間除了可以選購20 多種品牌的商品，這裡也不定期舉辦插畫、黏土等各種有趣的展覽，如果也想試試自己的才華，這裡也推出陶藝課、金工課、木工課等課程，讓民眾可以跟著藝術家享受創作的樂趣。,886-3-5111408,新竹縣竹北市文興路一段123號之6號302,高鐵新竹站→步行於文興路一段向右轉→新瓦屋客家文化保存區,14:00-18:00（週一休息）,{},"{'PositionLon': 121.0260009765625, 'PositionLat': 24.811800003051758, 'GeoHash': 'wsqj4hb7n'}",文化類,{},新竹縣,2023-07-13T01:40:49+08:00,2023-07-13T02:10:57+08:00
C1_376440000A_000050,Hi Look 平面設計工作室,舊式錄影帶店改造創意工作室走進關西小鎮上的中正路，映入眼簾的是兩排傳統式老舊街屋，站在騎樓 往弧形拱廊一看，宛如形成時光隧道，這裡的一磚一瓦全是歲月所留下的痕 跡。中正路又稱石店子，Hi Look 平面設計工作室的邱美鳳說關西有個渡船 頭，是過去商人運送貨物、民生用品的地方，石店子老街在當時可是非常繁 榮的集散之地，擁有布莊、打石、打鐵店等商家，只是隨著產業的變化在地 人紛紛離鄉，繁榮景象慢慢消失。在地青年邱美鳳開設的Hi Look平面設計工作室，將生活化的創作型態帶 進工作室，這個空間新舊並存，她用一層層的展示架與懷舊式老屋風格迸出 新意。原來 Hi Look 平面設計工作室本是舊式錄影帶出租店，在閣樓上仍有 遺留下的舊櫃子，工作室的牆面仍保存著民國 30 幾年的舊報紙痕跡，與現 任女主人設計的插畫作品、在地特色的地圖形成有趣反差。目前此空間主要 為女主人的工作室，之後會設計文創小物，也歡迎民眾前往參觀老屋，拿一 份屬於關西的創意刊物及地圖，藉以更了解這個可愛的小鎮。,886-3-5518101,新竹縣關西鎮中正路 56 號,未提供,{},"{'PositionLon': 121.1760025024414, 'PositionLat': 24.78890037536621, 'GeoHash': 'wsqjj2ttv'}",文化類,{},新竹縣,2023-07-13T01:40:49+08:00,2023-07-13T02:10:57+08:00
C1_376440000A_000051,關西關係實驗生活壹號店,在地手藝無菜單料理踏進關西關係實驗生活壹號店，木製桌椅與舊式閣樓的空間洋溢著濃烈 的古樸味，費盡多時的舊屋修葺都是由女主人劉秋萍與家人親力親為，他們 秉持著一股實驗的精神，開啟了不一樣的勇氣之旅。店取名關係實驗生活壹 號店，其實不是因為還想開更多分店，而是期望藉由他們在家鄉的落地深 根，讓更多人願意在關西老街實踐夢想，延續著熱情，開設屬於其他人的貳 號店參號店⋯⋯女主人劉秋萍說，「創造出這個空間，最想做到的就是人和人共同合作的 概念，不是僅屬於一個人。」因此結合社區媽媽的好手藝，採預約制，精心 準備無菜單慢食料理。融入在地客家菜餚，再加上小巧思新創意的「招牌沙 拉蛋絲粄皮捲」，以客家粄條包覆著海苔、蔬菜、蛋皮，健康爽口的滋味讓 許多人欲罷不能！這樣的創意料理就是社區媽媽們共同研發出的佳餚，完全 符合關西關係實驗生活壹號共同合作的初衷。而女主人本身熱愛獨立音樂， 這個空間提供了舞台，讓獨立音樂創作和表演者能表達自己的音樂及理念。,886-9-26818073,新竹縣關西鎮中正路 62 號,未提供,{},"{'PositionLon': 121.1760025024414, 'PositionLat': 24.789100646972656, 'GeoHash': 'wsqjj2twv'}",文化類,{},新竹縣,2023-07-13T01:40:49+08:00,2023-07-13T02:10:57+08:00
C1_376440000A_000052,葫作啡為藝術坊,推廣葫蘆絲譜出關西之美玫瑰紅色的室內裝潢配上悅耳的音樂，營造出輕鬆和 諧的氛圍。葫作啡為藝術坊的店主人陳玟憲先前曾在這 個地點開設音樂教室，但後來認為音樂教室的形式太過於 嚴肅、制式化，逐漸將空間轉向複合式經營，以交流音樂為出發點。陳玟憲 從小就熱愛音樂，國小接觸笛子到大學走進國樂的世界，擁有 30 年的音樂 經歷，平時在學校擔任老師教課也兼任「樂府樂團」的音樂總監，擅長二 胡、笛子等樂器。葫作啡為藝術坊主要推廣大陸邊疆少數民族樂器「葫蘆絲」，聲音特別、 外型唯美，也提供樂器彩繪、製作等服務，更是提供給喜歡音樂的人一個空 間，以無償的收費方式讓學生可以自由自在的展演，也算是一個小型的展演 場。音樂不再是過往的刻板教學模式，而是透過互相交流欣賞得到互動。陳玟憲說回到自己家鄉，心情剛開始其實很複雜，由於鄉下地方的工作 機會比較少，許多年輕人都選擇出外打拚，正因為這樣，他決定更應該將自 身的音樂經驗回饋給關西。來到藝術坊你可以看到陳玟憲在這默默地替關 西創作、耕耘，努力譜出屬於他和關西的音樂故事！,886-3-5518101,新竹縣關西鎮博愛路 55 號,未提供,{},"{'PositionLon': 121.1780014038086, 'PositionLat': 24.791000366210938, 'GeoHash': 'wsqjj3p4h'}",文化類,{},新竹縣,2023-07-13T01:40:49+08:00,2023-07-13T02:10:57+08:00
C1_376440000A_000053,木刻夢想王與免費商店,十二寮這塊地，原本是父親退休後想用來過清閒日子的，但徐建智從國外 念書回來，退役後，帶入國外年輕人佔領廢墟並推廣以物換物的概念，這塊 土地有了長足的改變：絕大部分區域成為十二寮休閒農業區桐花谷露營區， 商店小街區開設了他和妹妹徐棋容的實驗基地「免費商店」與「木刻夢想 王」。2016 年 6、7 月才開幕的「免費商店」，簡易的店鋪門面，卻乘載著他們 厚重的夢想，這裡有滿滿整理好的物資，從小玩偶到保溫壺，家中新的、乾 淨二手物品都可捐到此處，來店的人都可以「以物易物」，用家裡的雞蛋也 許換得一隻泰迪熊的方式，來引領社區與客人回想古早農村時代互助互信的 精神，只是用更現代的方式來執行，採訪的同時，鄰居媽媽就帶了一袋剛採 的柑橘，說是交換用的！相信鄰里們都已經了解他們的理念；不只如此，門 口綠色如黑板材質的冰箱，寫上大大「共食冰箱」，鼓勵自行拿取、手中有多的食材則可以放進冰箱，為了衛生考量，不接受熟食和肉類，只收各類食 材、乾糧，並引進如阿舍食堂的品牌支持，讓大家都能體驗客家農莊的可愛 質樸。在這段時間內，像這樣的社區營造已有了令人興奮的成效：更多人知道 了十二寮及每週三六共食時間，居民與遊客共食，搭建起交流的橋梁，提升 社區凝結力，提升正向循環互動外，物品交換率也大幅提升；媒體曝光的同 時，各地大學生來到這個地方，以服務老人、拔草等志工、寫報導宣傳等方 式來「以工換食」；而與在地合作的兒童生態營也獲得不少好評。另一頭的「木刻夢想王」回憶古計劃，則是與十二寮共同企劃出的深度 旅遊計劃，店內牆上貼滿人文、地貌、產業、景色等照片，挑選你想去的地 方、想體驗的活動，他們就為你客製一場深度的體驗之旅，可能是和小農一 起耕作、欣賞湖面飛翔的老鷹等；店內還提供落葉、樹枝、乾燥花的相框製 作，讓你打包環保的回憶與永續旅遊的概念。他們的夢想是擴展至食衣住行育樂層面，打造自給自足、不用錢也能追求 美好生活的理想世界。,886-9-29001580,新竹縣峨眉鄉湖光村十二寮 12 鄰 6 之 5 號旁（桐花谷露營區旁）,未提供,{},"{'PositionLon': 120.99400329589844, 'PositionLat': 24.672000885009766, 'GeoHash': 'wsqh373hu'}",文化類,{},新竹縣,2023-07-13T01:40:49+08:00,2023-07-13T02:10:57+08:00
C1_376440000A_000054,竹東文創藝術村,FUN玩竹縣竹東文創藝術村舊宿舍華麗轉身 青創基地好吃好玩&nbsp;歷經10 個月的整備期，竹東文創藝術村終於開幕了！這座青創基地融合新竹縣多元文化，變身為夢想搖籃，進駐店家多是傳統產業轉型發展自有品牌。漫步園區，公共藝術造景點綴其間，多了一股人文氣息；不定時舉辦特色市集，深入體驗在地生活魅力。&nbsp;撰文／廖靜清 　攝影 ／施純泰　圖片提供／范特喜微創文化、焦糖熱一點、新竹縣政府&nbsp;搭乘臺鐵內灣支線小火車，晃晃盪盪來到竹東，象徵沿線車站的9 尊吉祥公仔熱情迎客。步出月台，車站右手邊是竹東動漫園區，展出各式動漫文創巧思；往另一側走，竹東文創藝術村嶄新開幕。由范特喜微創文化承接營運，幫助藝術家和在地青年夢想發光，可玩味原民工藝、飲食小憩、作品設計等。舊空間注入新創意，活化善用歷史建築，各類型職人進駐，彼此滋養創業夢想。&nbsp;因地制宜　人文觀光新亮點狹長型的園區，總共有10 棟建築、劃分為16 個獨立空間，以活化現有館舍為主旨，連結新竹縣人文歷史，讓藝術家與原民工作坊進駐創業，鼓勵青年圓夢。負責營運招商的范特喜微創文化團隊發揮形塑文創聚落品牌專長，行銷在地特色，副總經理楊勝堯娓娓道述竹東文創藝術村的故事，勾勒出未來發展樣貌。「剛承接園區時，徹底了解軟硬體設施，希望因地制宜、著重文化差異性，以地方特色共創在地經濟」。因此團隊利用既有的資源，以人為主軸、以文化為內涵，保留原有樣貌、屋舍和地景，在無限可能性中找到藝術村的定位價值。10 棟建築物原本是縣政府跟臺鐵承租的場域，委由建築師規劃監造原老舊建築，牆面不再加以任何的修飾，低調極簡的灰色外觀，展現層次變化及立體感。建物分別以A 至J 命名，由進駐單位各自裝潢布置，希望藉由藝術村塑造另一種文創聚落意象，打造成人文旅遊新亮點。&nbsp;藝術聚落　在地文創復興在竹東文創藝術村裡，各式新的文創精神正在湧現，首批進駐單位結合地方發展和生活美學，創造出獨樹一幟的品牌，當藝術進化為文創聚落的創意來源，便能夠發揮群聚效益，各店家在既競爭又合作的關係中激盪火花，實踐共創與共好。走進藝術村內，放眼可見老建物被賦予新生命，文創商品讓人愛不釋手；變身成咖啡廳或食肆的空間，沈澱心靈，予人再次重新啟動的力量。&nbsp;老屋新生　好吃好拍好好玩翻開Menu，菜色融入竹東美食元素，吳界笑說因為外婆家在竹東，小吃滋養了童年回憶，舊事生活主要供應輕食炸物餐飲，搭配回甘降火的青草茶，遵循外婆的傳統飲食吃法。選用竹東軟橋社區的米做成客家水晶餃，外皮軟Q 有嚼勁，豬絞肉內餡散發油蔥酥香氣，鹹香好滋味被喻為客家必吃美食！點上一份招牌特製麵，包含炸雞翅、蔬菜和飲料，三五好友聊整個下午也不膩。午後陽光斜斜灑落室內空間，光影游移在老家具上，在斑駁的牆與窗之間翩翩起舞，混入時光交替的想像。&nbsp;小檔案竹東文創藝術村地 址：新竹縣竹東鎮東林路194 巷開放時間：11:00（各工坊和店家的開放時間不同）&nbsp;舊事生活Old &amp; Crazy地 址：新竹縣竹東鎮東林路194 巷D 棟電 話: 03 510 0940營業時間：10:00 &sim; 18:00（週二公休）&nbsp;853 泰雅農市集地 址：新竹縣竹東鎮東林路194 巷C 棟電 話：0926-151516營業時間：09:00 &sim; 19:00&nbsp;月桂樹工作坊地 址：新竹縣竹東鎮東林路194 巷8 號F 棟營業時間：星期一、四：10:00-17:00&nbsp; &nbsp; &nbsp; &nbsp; &nbsp; &nbsp; &nbsp; &nbsp;星期五：10:00-15:00&nbsp; &nbsp; &nbsp; &nbsp; &nbsp; &nbsp; &nbsp; &nbsp;星期六：14:00-20:00&nbsp; &nbsp; &nbsp; &nbsp; &nbsp; &nbsp; &nbsp; &nbsp;星期日：09:00-17:00&nbsp; &nbsp; &nbsp; &nbsp; &nbsp; &nbsp; &nbsp; &nbsp;（星期二、三公休）,886-3-5518101,新竹縣竹東鎮東林路194巷8號,11:00-18:00,{},"{'PositionLon': 121.09600067138672, 'PositionLat': 24.737199783325195, 'GeoHash': 'wsqhex72t'}",文化類,{},新竹縣,2023-07-13T01:40:49+08:00,2023-07-13T02:10:57+08:00
C1_376440000A_000055,司馬庫斯部落,司馬庫斯素有「上帝的部落」之稱，位處台灣東北角的雲霧盛行帶地區，海拔約1600公尺上下，部落附近雖已開發，但距離兩小時腳程的地區就是原始林，更是檜木的故鄉。1975年是司馬庫斯重要的一年，這一年司馬庫斯有了電力，1995年司馬庫斯發展協會成立，以天地為鄰與日月為伴，創建教堂、民宿、部落教室、積極傳承泰雅文化，齊心合營這片位於雪山山脈西南稜線上的天堂樂土。來到這裡，請將俗事塵囂放諸腦後，細心聆聽瀑布山泉的天籟之音，感受參天檜木亙古千年的雄偉壯碩。,886-3-5847687,新竹縣尖石鄉玉峰村14鄰司馬庫斯2號,關西交流道→118縣道至關西→轉3號省道往橫山→合興接120縣道東行至尖石→右轉尖石大橋→沿秀巒產業道路經那羅、宇老→秀巒檢查哨辦理入山證後直行(此路崎嶇狹窄，一般車輛難行，需行前準備或洽當地居民瞭解路況)。,未提供,{},"{'PositionLon': 121.33300018310547, 'PositionLat': 24.577600479125977, 'GeoHash': 'wsq7bfpyz'}",觀光工廠類,{},新竹縣,2023-07-13T01:40:49+08:00,2023-07-13T02:10:57+08:00
C1_376440000A_000056,馬武督探索森林(綠光小學),於新竹縣關西鎮的鳥嘴山園區裡，面積四百餘公頃，海拔約一七四九公尺，有極豐富的天然資源，更具可媲美阿里山、溪頭及杉林溪等處特徵，可觀日出、雲海、神木、瀑布、奇岩怪石、風洞、猴洞、石龜、夜景，宛如世外桃源，內有烤肉區及露營區，對於喜愛漫步及森林浴者，是絕佳的好去處，環遊一週，包您心曠神怡，輕鬆無比，園區範圍廣闊，景色變化萬千，時間充裕，則可作二日或三日遊之安排。本森林世界景色隨四季各具特色，徜徉期間，可忘塵事繁瑣，實值得遊後再遊，樂而忘返。而馬武督探險森林和電視製作公司合作搭建的綠光小學，是為了偶像劇《綠光森林》量身打造而成，綠光小學是女主角兒時教學的地方，為了不破壞當地的林相和自然生態，耗費一番工夫才終告完成。徜徉森林之中，陽光從森林頂端灑落，柔和散落一地金粉，木造的綠光小學籠罩在如夢似幻的光暈下，四周環繞著高聳參天的樹木，讓人不禁幻想：如果也能有幸在這樣的自然環境長大、讀書識字，那會是怎麼樣的感覺？,886-3-5478645,新竹縣關西鎮錦山里12鄰錦山138-3號,自北二高關西交流道下後，左轉即於118號縣道上往關西方向行駛，通過台3號省道(60.4km)時，右方有台塑石油加油站、左方為7-11便利商店(位於118號縣道 25.8km)，繼續於118號縣道行駛，直至金鳥海族樂園大門(位於118號縣道37.5km)後，再過約80m處右方有一條山路直上約1km可達園區入口收費處，依收費標準停車購票後直接開車進入園區。,平日：09:00-17:00／假日：08:30-17:30,{},"{'PositionLon': 121.23200225830078, 'PositionLat': 24.774099349975586, 'GeoHash': 'wsqhytyrw'}",生態類,{},新竹縣,2023-07-13T01:40:49+08:00,2023-07-13T02:10:57+08:00
C1_376440000A_000057,竹東河濱公園,騎上單車，徐徐涼風吹褪了身上的熱氣...。沿著清澈的頭前溪畔，眼看一片綠草如茵，青草隨著微風的吹送，搖曳生姿，這是城市中難以見到的遼闊。「竹東河濱公園」保留了相當完整的自然生態，設有許多運動場與運動設施，整合遊憩、生態、自然淨化功能，建構一處兼具水質淨化、環境保育、觀光休閒的帶狀綠色廊道。沿著河岸，錯身而過的，不再是匆匆趕路的人群，而是停下腳步，躺著、坐著、漫步著的幸福姿態。,886-3-5966177,新竹縣竹東鎮東林路88號,國道3號竹林 交流道→120縣道→123縣道→北興路二段,24 小時營業,{},"{'PositionLon': 121.08899688720703, 'PositionLat': 24.7455997467041, 'GeoHash': 'wsqhg2y3d'}",生態類,{},新竹縣,2023-07-13T01:40:49+08:00,2023-07-13T02:10:57+08:00
C1_376440000A_000058,薰衣草森林,充滿年輕女孩的創意與浪漫的薰衣草森林尖石店，鄰近內灣風景區，多數到內灣遊玩的旅客都會順道上來走走。靠著香草植物庭園的優美造景、精緻溫馨的手繪佈置與童話般的甜美氣氛，這個在高山密林中打造出的小小花田，很快就吸引了年輕網路族，以電子郵件好康道相報，如今除台中新社本店外，亦在清境與尖石開設了分店。,886-3-5842013,新竹縣尖石鄉嘉樂村嘉樂129號,1.國道三號北二高91K竹林交流道下→往竹東方向接省道台3線往北→至竹120縣道69K處往內灣→過內灣後往尖石→循竹120縣道，33K處'萬象商店左轉二公里即達「薰衣草森林」。2.68東西向快速道往竹東→至竹東接台3線中豐路→往橫山至竹120縣道69K處轉往內灣→過內灣後往尖石→循竹120縣道，33K處'萬象商店左轉二公里即達「薰衣草森林」。,平日：10:30-18:30／假日：10:00-18:30,{},"{'PositionLon': 121.23300170898438, 'PositionLat': 24.732799530029297, 'GeoHash': 'wsqhwwrnv'}",休閒農業類,{},新竹縣,2023-07-13T01:40:49+08:00,2023-07-13T02:10:57+08:00
C1_376440000A_000059,關西東安橋,橫跨牛欄河上的東安橋為五孔石砌拱橋，造型兼具結構與美學，古名為「彩鳳橋」，興建於1933年（昭和8），為聯絡關西街區與東安里之要道。東安橋原本只是一座木造便橋，每當山洪爆發時便被沖毀，交通也隨之中斷。地方人士因而倡議建橋，由當地仕紳聘請日本技師設計，再雇工至錦山地區採集紋理細緻的石塊，以人力搬運至現場，交由當地知名的石匠李鎮帶隊砌築歷經數十年使用仍完好，顯見其工程技術與品質之高超。,886-3-5510201,新竹縣關西鎮中山東路,北二高關西交流道下→118縣道往關西方向→關西正義路→左轉中山路→中山東路→東安古橋。,未提供,{},"{'PositionLon': 121.18000030517578, 'PositionLat': 24.790800094604492, 'GeoHash': 'wsqjj908f'}",古蹟類,{},新竹縣,2023-07-13T01:40:49+08:00,2023-07-13T02:10:57+08:00
C1_376440000A_000060,少帥張學良故居,1946年，張學良從重慶來到台灣，開始了十三年五峰清泉的幽禁歲月。1964年，伴隨張學良與夫人趙一荻生活十餘年的日式檜木平房，因葛樂禮颱風的肆虐而沖垮全毀；如今矗立於清泉的張學良故居，乃為後人異地重建之作。館內除展示有由張學良姪女張閭蘅、張閭芝所提供的文史資料、珍貴老照片之外，更有張學良的個人著作、清泉耆老訪談紀錄等重現人生演繹。漫步其中，猶如身處當年，彷彿與東北張少帥共處幽幽清泉夢。歷史的掌故，有時候反而是一種文化資源。從張學良的身上，我們可以看到中國近代歷史的縮影，有驚心動魄的時代大事件，也有細水長流的動人愛情。想了解這位中國歷史的大人物，新竹的五峰鄉是最好的選擇，他在這裡幽禁了13年，留下了無數的事蹟與過往，隨著張學良故居的重建而展開，這股歷史旅遊與知性之旅的風潮，已經悄悄啟動。,886-3-5856613,新竹縣五峰鄉256-6號,經北二高竹林交流道（90Km）→120線道→右轉竹林大橋至竹東→122線道南行經五峰鄉即可到達。※山路彎曲，建議搭乘20人座以下中型巴士前往。,09:00-17:00（週一公休）,{},"{'PositionLon': 121.14800262451172, 'PositionLat': 24.59149932861328, 'GeoHash': 'wsq5uu9rc'}",觀光工廠類,{},新竹縣,2023-07-13T01:40:49+08:00,2023-07-13T02:10:57+08:00
C1_376440000A_000061,三毛居所,位於桃山村落號吊橋上方五十公尺處，國內已故知名女作家三毛居所。三毛說「安靜是大自然的噤聲，是獨自一人，但不寂寞。」一生寂寥的三毛，留下了不寂寞的安靜之屋與無數讚頌清泉之美的文采，為這片美麗的山林增添了一樁美麗佳話。如今「三毛夢屋」內擺設了許多三毛生前的文史資料以及由丁松青神父所提供與三毛生前合影照片。站在紅磚屋前，不知不覺回溯過去，思緒也跟著三毛一起飄盪，感受三毛那殞落在時空間交疊間的旖旎嘆息。,886-9-78789293,新竹縣五峰鄉桃山村清泉262號,北二高竹林交流道下→120縣道→右轉竹林大橋至竹東→122縣道→南行經五峰即抵清泉。,09:00-17:00,{},"{'PositionLon': 121.10199737548828, 'PositionLat': 24.575199127197266, 'GeoHash': 'wsq5g9zbc'}",觀光工廠類,{},新竹縣,2023-07-13T01:40:49+08:00,2023-07-13T02:10:57+08:00
C1_376440000A_000062,新瓦屋客家文化保存區,新瓦屋客家文化保存區為舊有聚落保存區，新竹縣政府在民國95年11月無償撥用給客委會，結合中興社區及花鼓隊等社團，推廣客家傳統藝術活動。一方面從文化創意和知識經濟的角度，藉由傳統客家詮釋培養在地的文化創意產業；另一方面從都市發展的功能，除了作為休閒公園綠地外，更以豐富的城市多元價值、成為展現地方特色的六家新都心。99年12月由新竹縣文化局文資科進駐，除延續相關活動外，更加強與地方互動的參與機制，以爭取更多元化的資源與運作模式 。,886-3-6580651,新竹縣竹北市文興路一段123號,.開車：中山高速公路=>下新竹交流道(往竹東)=>公道五路二段=>左轉接慈雲路(117縣道)=>右轉接文興路一段=>六家文化園區(新瓦屋)。中山高速公路=>下竹北交流道(往竹北)=>左轉接光明六路=>光明六路東一段=>右轉接自強南路=>左轉接文興路一段=>六家文化園區(新瓦屋)。,24 小時營業,{},"{'PositionLon': 121.0260009765625, 'PositionLat': 24.811899185180664, 'GeoHash': 'wsqj4hb7y'}",觀光工廠類,{},新竹縣,2023-07-13T01:40:49+08:00,2023-07-13T02:10:57+08:00
C1_376440000A_000064,新竹縣立體育館,新竹縣立體育館位於未來竹科生活圈時尚地標正中心，周邊運動公園、新光三越百貨、喜來登飯店、台灣大學等，是新竹地區少數超大型展館場地。交通方便，位於中山高竹北交流道下，三分鐘車程即可抵達會場；搭乘高鐵轉乘只要5分鐘即達；停車便利：擁有600個免費停車位,886-3-6580970,新竹縣竹北市福興東路一段197號,新竹客運／芎林線。新竹－高鐵新竹站－芎林，沿途停靠：國賓飯店→新竹高工→台肥五廠→經國路口→下斗崙→台新罐頭廠→祖師廟→泉州厝→縣府入口→新竹縣體育館。,未提供,{},"{'PositionLon': 121.02200317382812, 'PositionLat': 24.821399688720703, 'GeoHash': 'wsqj1yte1'}",觀光工廠類,{},新竹縣,2023-07-13T01:40:49+08:00,2023-07-13T02:10:57+08:00
C1_376440000A_000065,新竹縣立美術館,"美術館總樓地板面積 4,010平方公尺。入口區設計為閩南風味的曲折，迴廊及庭院景觀，與展示館本身之功能相互搭配，可兼做戶外展示區，全棟結構採用剪力牆設計，因此內部空間看不到一根柱子，展覽空間更能自由發揮。 演藝廳總樓地板面積 8,072 平方公尺。 外型顯示表演藝術的外顯性與開放性，圓弧型的外觀及斜屋頂的使用，塑造傳統建築意象。表演空間共分為演藝廳、演講廳及實驗劇場三大部份及大型的戶外表演場所。",886-3-5510201,新竹縣竹北市縣政九路146號,搭乘新竹客運往芎林方向→在縣府路口下車→步行至文化局。 搭乘新竹客運往中壢方向→在竹北地政事務所下車→步行至文化局。,週二~週日，09：00~17：00,{},"{'PositionLon': 121.01200103759766, 'PositionLat': 24.830299377441406, 'GeoHash': 'wsqj38nnz'}",觀光工廠類,{},新竹縣,2023-07-13T01:40:49+08:00,2023-07-13T02:10:57+08:00
C1_376440000A_000068,篁城竹簾文化館,臺灣唯一的專業竹簾工廠，經歷三代兩次轉型，傳承台灣〝竹〞簾文化，竹簾工廠提供民眾參觀與DIY 體驗，舉辦各種竹文化活動，讓民眾對竹東與竹文化有新的認識。,886-3-5956965,新竹縣竹東鎮仁愛路  370巷31號,行走68快速道路往竹東方向→下北興路→往竹東火車站方向。南北兩地行走二高‧竹林交流道下→往竹東方向→竹林橋上紅綠左轉下橋，即是北興路。,09:00-17:30（週日公休）,{},"{'PositionLon': 121.09200286865234, 'PositionLat': 24.739900588989258, 'GeoHash': 'wsqhexb82'}",文化類,{},新竹縣,2023-07-13T01:40:49+08:00,2023-07-13T02:10:57+08:00
C1_376440000A_000069,名冠藝術館,名冠的前身是始創於1982年的名冠陶瓷工廠，以設計開發各式造型玩偶、歐美季節性擺掛飾品等聞名於業界，在產業轉型外移後，1991年暫時閒置。然而熱愛藝術的夫妻檔經營者，對美學產業始終難以忘情，經營藝術館的想法開始萌芽。1994年初，追夢構想落定，改建計畫展開，在建築設計及藝術家朋友的共同參與下，同年11月份即落成，名冠自此跨入文化及藝術領域。,886-3-5952515,新竹縣竹東鎮忠孝街95號,1.由中山高新竹交流道下往竹東，行駛東西向快速道路（台68線），即可抵達。2.由北二高在竹林交流道下，接台68線抵竹東鎮市區，經長春路轉入忠孝街，進入美之城社區即可到達。,11:00-20:00（週日、週一休息）,{},"{'PositionLon': 121.0790023803711, 'PositionLat': 24.74489974975586, 'GeoHash': 'wsqhg0xj3'}",文化類,{},新竹縣,2023-07-13T01:40:49+08:00,2023-07-13T02:10:57+08:00
C1_376440000A_000070,軟橋社區,沿著南清公路往五峰的方向走，隨著美景綿延橫亙，進入了「軟橋社區」。川流不息的上坪溪水淙淙流過，是大新竹地區百姓的命脈。竹東圳的圳路上設置了桂山發電廠軟橋分廠，是全台最小的無人水力發電廠，台電公司將其規劃成水力發電紀念公園，極富教育意義。「社區彩繪」更是社區的一大特色。走在社區街道上，可以從家家戶戶的牆面，看到許許多多的故事，每幅畫作點亮了軟橋社區，也點亮了居民的心。騎乘單車悠遊軟橋自行車道，恣意倘徉綠意美景，忘卻俗世塵囂。,886-9-32119912,新竹縣竹東鎮東峰路軟橋社區,國道3號竹林交流道→120縣道→123縣道→北興路二段,週四-週日 08:00-18:00,{},"{'PositionLon': 121.0979995727539, 'PositionLat': 24.694700241088867, 'GeoHash': 'wsqh7xsc5'}",觀光工廠類,{},新竹縣,2023-07-13T01:40:49+08:00,2023-07-13T02:10:57+08:00
C1_376440000A_000071,樹杞林文化館,樹杞林文化館之成立，緣於民國92年文建會推動「地方文化館計畫」，竹東鎮公所為解決「新竹縣農產品展售中心」閒置空間，以及使用方式欠佳之問題，即利用「農產品展售中心」的舊建築，重新規劃，塑造為樹杞林文化館。樹杞林文化館設有展覽廳、演藝廳、會議室及研習教室，透過各類展演活動之規劃，推廣各式藝文展演活動和辦理深度文化研習，提昇竹東地區整體文化生活品質。,886-3-5940923,新竹縣竹東鎮新生路377號,新竹市東西向快速道路往竹東方向 ，經竹東火車站右轉30公尺，即可到達。,09:00--17:00週一、週二、國定假日,{},"{'PositionLon': 121.09500122070312, 'PositionLat': 24.73550033569336, 'GeoHash': 'wsqhewfww'}",文化類,{},新竹縣,2023-07-13T01:40:49+08:00,2023-07-13T02:10:57+08:00
C1_376440000A_000072,蕭如松藝術園區,自一九九二年蕭如松老師去世後，其故居長期呈現無人管理狀態，十數年的閒置、荒廢，歷史處所儼然成為廢墟，由新竹縣文化局接手後積極地進行「蕭如松藝術園區」的規劃，並於九十三年五月決議成立籌備委員會，並邀集學者、專家及地方士紳等進行討論。透過學者專家們的研擬、審閱及重整修正還原「蕭如松故居」的原本面貌。現今已將故居空間壐造復活，並將週遭的舊宿舍整建，再依「公辦民營」或「公共造產」的方式已完成公開招標，於九十七年完成內裝工程後轉由民間企業&mdash;名冠藝術館作為經營管理的受託單位。,886-3-5956009,新竹縣竹東鎮三民街60號,從68快速道路下→竹東北興路直行→右轉興農路→左轉莊敬路，車子可先停在大同國小再步行走過去一分鐘。,10:00-18:00（週二公休）,{},"{'PositionLon': 121.08799743652344, 'PositionLat': 24.739999771118164, 'GeoHash': 'wsqherv8f'}",文化類,{},新竹縣,2023-07-13T01:40:49+08:00,2023-07-13T02:10:57+08:00
C1_376440000A_000073,竹東火車站,歷史沿革政府因為竹東腹地一帶的農林礦產資源豐富，陸續有大規模工廠（水泥、玻璃等）先後設立，且為配合開發山區農林礦資源以發展工業，興建竹東內灣支線鐵路。竹東內灣線是日本人走後，完全由國人所完成的第一條火車鐵路，新竹到竹東段於民國36年（1947年）通車，竹東到內灣段則於民國40年（1951年）修竣，自此全線通車。&nbsp;隨著經濟型態的轉移，到了1980年代因礦產、木材枯竭，加上公路運輸發展迅速，竹東車站逐漸衰退，從昔日人潮不斷的盛況到目前門可羅雀的景象。目前平日僅供沿線地區通勤運輸，假日則因內灣遊憩點而成為熱門的旅遊運輸線。&nbsp;竹東車站為戰後政權交替時所興建，依其建築形式推斷應為接收後由國人參考日治時期日本鐵道部的設計圖加以修改建設，故其歷史紀念性意義價值不凡。&nbsp;建築特色政府因為竹東腹地一帶的農林礦產資源豐富，陸續有大規模工廠（水泥、玻璃等）先後設立，且為配合開發山區農林礦資源以發展工業，興建竹東內灣支線鐵路。竹東內灣線是日本人走後，完全由國人所完成的第一條火車鐵路，新竹到竹東段於民國36年（1947年）通車，竹東到內灣段則於民國40年（1951年）修竣，自此全線通車。&nbsp;隨著經濟型態的轉移，到了1980年代因礦產、木材枯竭，加上公路運輸發展迅速，竹東車站逐漸衰退，從昔日人潮不斷的盛況到目前門可羅雀的景象。目前平日僅供沿線地區通勤運輸，假日則因內灣遊憩點而成為熱門的旅遊運輸線。&nbsp;竹東車站為戰後政權交替時所興建，依其建築形式推斷應為接收後由國人參考日治時期日本鐵道部的設計圖加以修改建設，故其歷史紀念性意義價值不凡。,886-2-23815226,新竹縣竹東鎮雞林里東林路196號,1.中山高新竹交流道下→接122號線道往竹東方向→竹東火車站。2.國道3號北二高竹林交流道下→接120號道路往竹東方向→竹林大橋→左轉接122號道→竹東火車站。,未提供,{},"{'PositionLon': 121.09500122070312, 'PositionLat': 24.73819923400879, 'GeoHash': 'wsqhex6wq'}",觀光工廠類,{},新竹縣,2023-07-13T01:40:49+08:00,2023-07-13T02:10:57+08:00
C1_376440000A_000074,竹東之心‧竹東火車a站旅遊服務中心,位於竹東市區，東林路底的竹東火車站旁的「竹東之心」附設的「新竹縣旅遊服務中心」，在這裡除了可提供遊客旅遊諮詢服務並蒐集旅遊資訊外，也是個極佳短暫休憩場所，優雅的庭園綠樹、簡潔且多功能性的建築令人備感舒暢。竹東之心廣場在偶像劇《海派甜心》中入鏡，吸引不少戲迷專程來找尋劇中的火車車廂玩具店。竹東之心作為新竹縣旅遊服務中心，有著車站轉運中心的地利之便，以寬闊的廣場作為整合旅遊資源的平台，志工們在此與遊客們分享新竹縣的旅遊資源。,886-3-5943926,新竹縣竹東鎮東林路194巷7號,1.中山高新竹交流道下→接122號線道往竹東方向→竹東火車站。2.國道3號北二高竹林交流道下→接120號道路往竹東方向→竹林大橋→左轉接122號道→竹東火車站。,未提供,{},"{'PositionLon': 121.09500122070312, 'PositionLat': 24.73819923400879, 'GeoHash': 'wsqhex6wq'}",觀光工廠類,{},新竹縣,2023-07-13T01:40:49+08:00,2023-07-13T02:10:57+08:00
C1_376440000A_000075,鄧雨賢音樂文化紀念園區,精通樂曲的「台灣歌謠之父」鄧雨賢，於1906年生於龍潭，1940年遷至芎林，1944年與世長辭，得年39歲。他創作歌曲無數，如「望春風」、「雨夜花」等名曲，至今仍傳唱不歇，地方為感念他，特興建音樂文化公園。鄧雨賢的曾祖父鄧兆熊是前清的秀才，住在芎林鄉，為文林閣的創始人，寺內佈置鄧雨賢的書面紀念展示等，若想更了解其人其作，亦可移駕文林閣參觀。新竹對於一代音樂家致意的方式，則是設立「鄧雨賢音樂文化紀念園區」。位於新竹縣芎林鄉文山路131巷附近、新竹121縣道8公里處的園區，本來是國軍807野戰醫院，部隊撤離後曾荒廢一段時日。占地五千坪的音樂文化園區在民國93年動工，隔年完工，300坪的露天音樂舞台與紀念亭鄧雨賢老照片、手稿圖檔是園區的焦點。1500公尺的環園棧道，引領訪客欣賞參天松林、夫疏花木。民國94年起，鄧雨賢紀念音樂會的樂音就在此綿延繚繞。自然與人文結合公園已逐步社區化，平日則成為附近居民散步休憩的好去處。鄧雨賢短暫一生的豐富創作，在長孫鄧泰超的心目中，堪稱為最佳族群融合劑，貼近並撫慰不同族群的心靈。他覺得，祖父被稱為「台灣歌謠之父」也好、「台灣佛斯特」也罷，他的作品已變成全民共享、無形但又無所不的無價文化資產。,886-3-5921135,新竹縣芎林鄉文山路131巷,1.北二高芎林交流道下→竹東→120線道左轉至文林閣前文山路右轉直行一公里。 2.68快速道路芎林交流道，匝道下直行→芎林衛生所右轉至文林閣左轉文山路直行約一公里。,24 小時營業,{},"{'PositionLon': 121.0770034790039, 'PositionLat': 24.778099060058594, 'GeoHash': 'wsqhgntwf'}",觀光工廠類,{},新竹縣,2023-07-13T01:40:49+08:00,2023-07-13T02:10:57+08:00
C1_376440000A_000076,老湖口天主堂文化館,老湖口天主堂建於民國48年，由義大利籍的滿思謙神父籌建，主體是一棟鋼筋混凝土造的建築，建築體抬高於小丘上，正面施以垂直分割線條，更襯托出教堂的神聖與崇高。大門平台下與兩道階梯中間，形成類似壁龕的空間，巧妙地奉置一尊聖母像，形成教堂的焦點。天主堂隨著老街的凋零，也曾經荒廢過一段時間，在經過多方的努力之下，教會同意變更老湖口天主堂的用途，並予整修再利用，除了主體建築之外，神父宿舍也改為社區中心，老湖口天主堂也將會與老湖口及老街等地區更為結合。,886-3-5695963,新竹縣湖口鄉湖口老街108號,中山高速公路竹北交流道下，走光明六路經新竹縣政府後右轉縣政九路（台灣銀行與家樂福交叉口)， 再前行可達,10:00-17:00 (週二公休),{},"{'PositionLon': 121.05500030517578, 'PositionLat': 24.87660026550293, 'GeoHash': 'wsqjd8ts9'}",文化類,{},新竹縣,2023-07-13T01:40:49+08:00,2023-07-13T02:10:57+08:00
C1_376440000A_000077,漫畫藝文廣場,位於新埔鎮旱坑里柿餅專業區內的新埔公園,886-3-5882078,新竹縣新埔鎮旱坑里柿餅專業區內,國道3號關西交流道下→循118縣道往新埔鎮市區方向→於中正路天主堂前岔路右轉民生路接旱生路即可抵達。,24 小時營業,{},"{'PositionLon': 121.08200073242188, 'PositionLat': 24.838300704956055, 'GeoHash': 'wsqj739jx'}",觀光工廠類,{},新竹縣,2023-07-13T01:40:49+08:00,2023-07-13T02:10:57+08:00
C1_376440000A_000078,小叮噹科學主題樂園,79年1月開始營運的小叮噹科學股份有限公司，成立初期的公司名稱為新生地育樂股份有限公司。當時是由多位熱心科學教育的股東集資，在新豐鄉上坑村松柏嶺上，建構一個以科學教育為主題的戶外遊樂園區，與新竹科學園區相互輝映，希望能為台灣科學教育的紮根工作盡一份心力。園區最早期取名為新豐育樂大觀園，後來更名為小叮噹科學遊樂區，使其名號更為響亮，也一直沿用至今。&nbsp;小叮噹科學主題樂園，一直堅持以科學主題為設計方向，提供給國人另一種渡假知的享受，並成為國民教育自然科學之唯一戶外實驗教室。本公司也因為以上的堅持理念與竭誠服務大眾的信念，所以至今連續 19年榮獲交通部觀光局評鑑為「特優等」之風景遊樂區；相信這是對本公司最大的鼓勵。,886-3-5592132,新竹縣新豐鄉松柏村康和路199號,.搭乘客運至新竹縱貫路線(1號省道)明新科技大學站下車→轉搭計程車或步行即可抵達。,09:00-17:00,{},"{'PositionLon': 120.9800033569336, 'PositionLat': 24.869699478149414, 'GeoHash': 'wsqj2zquq'}",遊憩類,{},新竹縣,2023-07-13T01:40:49+08:00,2023-07-13T02:10:57+08:00
C1_376440000A_000079,幻多奇另類博物館,位於橫山鄉內灣風景區的「幻多奇博物館」，陳列負責人徐孟光收藏多年的展品，包括4隻腳的鰻魚、世界上面額最大的鈔票、會說話的白烏鴉、豬鼻龜等，可寓教於樂，適合親子同行。,886-3-5849706,新竹縣橫山鄉中正路223號,國道3號關西交流道出口下交流道，朝關西/新埔前進→正義路/118縣道向左轉→明德路/118縣道向左轉→中豐路一段/118縣道向右轉→中豐公路/台3線向右轉 繼續沿著台3線前進→中山街一段/120縣道向左轉→中正路口向左轉→目的地,平日：10:00-18:00／假日：09:00-19:00,{},"{'PositionLon': 121.18199920654297, 'PositionLat': 24.70560073852539, 'GeoHash': 'wsqht9d09'}",觀光工廠類,{},新竹縣,2023-07-13T01:40:49+08:00,2023-07-13T02:10:57+08:00
C1_376440000A_000080,好客好品希望工場,好客好品希望工場內灣小鎮在日據時代因木業、礦業而繁榮興盛，各式商業林立，風華一時，好不風光。而今在內灣戲院播放著一部部的老電影彷彿也在和我們訴說舊日內灣的點滴，一列列進站的內灣小火車，更象徵一段段內灣興衰的歷史與文化。好客好品希望工場2014年成立於內灣，全新的年代我們帶著全新的客家精神，努力將新客家文化在內灣發揚並延續到下個世代。本館是內灣的一座新型文化創意園區，朝藝術村方向融展出新世代生活及無限可能的特殊樣貌。,886-3-5849569,新竹縣橫山鄉內灣村內灣139-1號,國3號關西交流道出口下交流道，朝關西/新埔前進 →正義路/118縣道向左轉 → 明德路/118縣道向左轉 →中豐路一段/118縣道向右轉 →中豐公路/台3線向右轉繼續沿著台3線前進 →中山街一段/120縣道向左轉 繼續沿著120縣道前進 →目的地,10:00-17:00（週二公休）,{},"{'PositionLon': 121.18299865722656, 'PositionLat': 24.70560073852539, 'GeoHash': 'wsqht9db8'}",觀光工廠類,{},新竹縣,2023-07-13T01:40:49+08:00,2023-07-13T02:10:57+08:00
C1_376440000A_000081,六福村主題遊樂園,亞洲第一座結合動物園與遊樂園的夢想王國位於新竹縣關西鎮的六福村主題遊樂園，園內有四大主題村：魔幻神奇的「阿伯皇宮」、狂野飆悍的「美國大西部」、熱帶島嶼風情的「南太平洋」以及近距離觀察原始動物的「非洲部落」，喜好挑戰刺激及探訪動物生態的您絕對不能錯過，體驗真實與夢想交織的歡樂王國盡在六福村！阿拉伯皇宮37座以伊斯蘭式圓頂尖塔組成金碧輝煌的「阿拉伯皇宮」，天方夜譚中的傳說都在此化為各項神奇好玩的遊樂設施，神秘夢幻的冒險之旅即將展開囉！美國大西部十九世界美國西部拓荒採礦小鎮－墓碑鎮原景重現，仿若回到西部拓荒電影，每個角落及建築物都充斥著美國西部復古懷舊風味，絕對是你不可錯過的英雄場面喔！南太平洋熱帶風情的棕梠樹、熱情奔放的音樂、神秘的土著石雕以及巨大的火山懸崖，彷彿來到了浪漫多情的熱帶島嶼，滿溢著一股慵懶而熱情的南國風情。非洲部落全台唯一放養式野生動物園，包括約70種、近千頭動物，開放式設計讓動物可以自由的在寬廣的草原上奔跑，遊客更可以在獨特的非洲部落，輕鬆愉快地近距離觀賞野生動物生態。,886-3-5475665,新竹縣關西鎮仁安里拱子溝60號,新竹客運→可在中壢、龍潭或新竹火車站搭乘往六福村之直達車。(台北、桃園、中壢、新竹均有直達六福村的客運班車),9：30~17：00,{},"{'PositionLon': 121.18099975585938, 'PositionLat': 24.825199127197266, 'GeoHash': 'wsqjjx333'}",遊憩類,{},新竹縣,2023-07-13T01:40:49+08:00,2023-07-13T02:10:57+08:00
C1_376440000A_000082,金廣成文化館,本館原為仁和國小，因人口外流而廢校20年後在文建會&ldquo;閒置空間再利用&rdquo;下於民國92年修繕完成，為了紀念先民&ldquo;金廣成墾號&rdquo;篳路藍縷、開疆闢土的辛勞，命名為金廣成文化館。,886-9-21178219,新竹縣關西鎮東山里11鄰四寮14-1號,北二高關西交流道下→ 118線往關西市區→ 關西高中→ 前十字路口，直行前往28線，於竹28線3.2K旁，原仁和國小舊址,假日 09:00-16:00,{},"{'PositionLon': 121.21199798583984, 'PositionLat': 24.788999557495117, 'GeoHash': 'wsqjn0xyk'}",文化類,{},新竹縣,2023-07-13T01:40:49+08:00,2023-07-13T02:10:57+08:00
C1_376440000A_000083,沙湖壢藝術村,循著小徑往前走，推開一扇木門，緩緩步下枕木梯，走進這個充滿藝術與神祕的空間，這裡是沙湖壢藝術村！位於寶山水庫內，日據時代興建的磚造平房正對應著湖面，得天獨厚的盡享自然美景，蒼翠樹木在湖面映照成倒影，清風吹拂，激起水面漣漪，如夢幻境。這裡瀰漫著藝術的氣習，除了提供藝術家駐村創作，也提供民眾親近藝術的管道，悠閒的午後，逛逛藝術村，觀湖賞景品啜一杯濃醇咖啡，盡情倘徉藝術、美景激盪出的靜謐與謙和的美感。除了水色、藝術，沙湖壢藝術村還有著季節限定的農村景致，永遠是新鮮上演，初冬來時有橄欖結果，春天時有櫻花展顏，五月桐花開時還有山間白雪，烈月相思樹上的黃色悸動更是惹人憐愛，秋末時節則換成清甜的柚子、楊桃熟成，四季更迭。,886-3-5760108,新竹縣寶山鄉山湖村山湖路63號,1.請由國道三號寶山交流道下高速公路，右彎接大雅路，直行右轉接園區三路、五路，右轉接寶山路，續行接水仙路，循指標往寶山水庫前進，見一商店左轉接竹40新湖路，3分鐘可以抵達。2.請由國道三號竹林交流道下高速公路，右轉接120縣道富林路三段，115縣道文德路交叉口左轉接文明路，過新中正大橋，直行至光明路交叉口左轉，直行經光明路、民族路，於中興路交叉口左轉，約300公尺右轉學府路，直行5分鐘可以抵達。,10:00~18:00（週一休）,{},"{'PositionLon': 121.04499816894531, 'PositionLat': 24.750099182128906, 'GeoHash': 'wsqhf3w7b'}",文化類,{},新竹縣,2023-07-13T01:40:49+08:00,2023-07-13T02:10:57+08:00
C1_376440000A_000085,濟生Beauty新竹觀光工廠,工廠導覽、健康講座、製程迴廊、膚質檢測、健康ＤＩＹ、商品體驗&nbsp;具有五十年歷史的製藥廠，高品質精神，跨足保健潮流，提供您最安心的保健食品與保養品。走一趟濟生Beauty觀光工廠，看那老字號的質樸廠房、因應生產效率而引進的自動化倉儲設備，聽一場您不可不知的健康講座，還有骨質密度、皮膚年齡實際大檢測。一趟豐富人文、知性又富饒體驗趣味的健康之旅，就在新竹湖口交流道下，歡迎您的蒞臨！&nbsp;,886-8-00213568,新竹縣湖口鄉光復路10-1號,"平日 09:00-16:00/假日 09:00-12:00,13:00-16:00",{},"{'PositionLon': 121.01799774169922, 'PositionLat': 24.871999740600586, 'GeoHash': 'wsqj3zf9g'}",觀光工廠類,{},新竹縣,2023-07-13T01:40:49+08:00,2023-07-13T02:10:57+08:00
C1_376440000A_000086,木酢達人,走進已多次被媒體報導的「木酢達人」店內，觀看老闆的神奇表演；看著他從木頭中萃取的木酢液，透明如水，聞起來有點木頭燒焦後的味道，卻特別能中和阿摩尼亞等異味，因此被開發成為天然的除臭、除菌成份。透過試紙酸鹼度中和的試驗，讓看官們眼見為憑。由於不含任何化學添加物，對於日益要求健康的現代人來說，木酢液儼然成為一個「平衡生態與除菌衛生」的解決方案，成為老街最「年輕」的伴手禮。,886-3-5692589,新竹縣湖口鄉中正路三段162巷16號,從國道1號的 83-湖口 號出口下交流道→走中湖路和縱貫公路/台1線前往湖口老街,09:00-17:30（週末公休）,{},"{'PositionLon': 121.05799865722656, 'PositionLat': 24.877199172973633, 'GeoHash': 'wsqjd8z8p'}",觀光工廠類,{},新竹縣,2023-07-13T01:40:49+08:00,2023-07-13T02:10:57+08:00
C1_376440000A_000087,石店子69有機書店,"盧文鈞承租百年老店,盡量保持老屋原貌,小屋一部分當作書店,兩側架上擺滿了書,透過以書換書的方式交流,提供旅人一處既可休憩又能安心閱讀的無壓力空間。石店子69有機書店的小閣樓現變身背包客棧而早年因為生育的多,一幢屋子總要住上十幾口人,小閣樓便是早期客家人有效利用空間的最佳典型,現在這個小閣樓功能不變,成了旅人留宿的客棧,客家老屋小而美,成了外國背包客前來尋幽探訪的私房景點。小書店不僅是書店,斑駁老舊的牆上懸掛著藝術家的畫作,除了不定期舉辦展覽之外,媽媽說故事、在地輕旅行導覽等各式活動正在這裡熱鬧上演,期盼透過藝術內化改變行為思想。Info.地址:新竹縣關西鎮中正路69號&nbsp;電話:0921-743-789時間:平日 13:00 ~ 19:00、假日 10:00 ~19:00(週一休)/背包客 check in 時間請事先聯絡",886-9-21743789,新竹縣關西鎮中正路69號,1820國光客運竹東站 → 關西鎮公所,10:00-18:00,{},"{'PositionLon': 121.1760025024414, 'PositionLat': 24.788999557495117, 'GeoHash': 'wsqjj2twm'}",觀光工廠類,{},新竹縣,2023-07-13T01:40:49+08:00,2023-07-13T02:10:57+08:00
C1_376440000A_000088,魯壁一家人,如夢如詩如畫 人間自是有仙境&nbsp;&nbsp;&nbsp; 「有這麼深山嗎？會不會走錯路了？」從最遠的「魯壁山莊」開始探訪是我們的選擇，只不過海拔才8百多公尺的尖石鄉，車行曲折蜿蜒的山道小路上，卻感覺有如重山峻嶺般地漫長與孤寂。&nbsp;&nbsp;&nbsp; 不用懷疑，就是因為有了艱辛的路程，才會顯現出人間仙境的彌足珍貴，「魯壁山莊」映入眼簾的那一剎那，真是驚呆啦！究竟是身處夢境還是置身畫裡已無從分辨，推門而入，迎來的是四姊妹中的三姑娘阿順尤敏，她有雙美麗的眸子，透澈清亮，典型的泰雅美女，她的熱情好客令人精神為之一振，所有上山時的煩躁與焦慮全一掃而空。&nbsp;&nbsp;&nbsp; 由庭園遠眺群山，其西邊為南寮山，中間為大霸尖山，東邊則為南湖群山，山腳下的馬里光溪流經其間，是尖石最大的水源區。魯壁是泰雅族的地名，得天獨厚的坐落在這一片山清水秀的好風好水上。&nbsp;&nbsp;&nbsp; 喔，美麗的尤蘇拉地，再會啦！千山我獨行，不必相送。,886-3-5847203,新竹縣尖石鄉1鄰6號,走國道3號前往關西鎮的正義路/118縣道→從國道3號的 79-關西 號出口下交流道→走中豐公路/內山公路/台3線和120縣道前往尖石鄉的錦屏後山產業道路/竹60鄉道,平日10:00-17:00，假日10:00-19:00,{},"{'PositionLon': 121.30000305175781, 'PositionLat': 24.65999984741211, 'GeoHash': 'wsqk21pyy'}",觀光工廠類,{},新竹縣,2023-07-13T01:40:49+08:00,2023-07-13T02:10:57+08:00
C1_376440000A_000089,蕃薯伯焢窯,離開小說描寫的中原田野，其實焢窯在臺灣鄉間也很盛行。昔時莊稼秋收後，就是焢窯活動熱絡時。一方面秋收後農家比較空閒，而且稻穀收成後，只要用犁將土翻鬆，將較硬的泥塊挖出晾乾後，土質結實的土塊就可以用來造窯。雖然從前的生活水平不見得隨時供應得起土窯雞，但烤烤地瓜和玉米，總是農村兒童重要的娛樂活動。現今社會的兒童不要說焢窯的經驗，恐怕真正摸過泥巴的也沒有幾個人。還好注重休閒農業的新竹縣，有幾處可以焢窯的農場，讓長者可以重溫兒時的經驗，而少者可以親近土地，建立屬於他們的焢窯的在Google的搜尋引擎打上「焢窯」兩個字，北埔的蕃薯伯焢窯就出現在網頁最上方。沒錯，北埔竹語茶蘆蕃薯伯焢窯除了歷史悠久外，也因為設施完善、服務貼心而廣受好評。許多遊客都在自己的網站上張貼到此焢窯的經驗難怪它在搜尋引擎上會名列前矛。北埔竹語茶蘆位在北埔鎮的南埔村，從臺三線往南駛，過了熱鬧的老街聚落和大坪溪後，就是閒逸安適、充滿農村風情的南埔村。南埔村素有黃金水鄉之稱，經過社區通力合作，這裡的水圳都被清淤修繕過，能夠源源不絕供應田地需要的活水，因此不論稻米、柑橘或蔬菜，都有極好的收成。從過了建國百年時興建的百分橋（南埔大橋）後，沿著田間道路前進。因著季節不同，路旁可以看見不同的作物。在一番農作物辨識大賽後，就來到蕃薯伯焢窯。蕃薯伯，是真有其人。他是土生土長的莊老先生，一輩子的莊稼人，一手創建這個休閒農莊。現在雖已由兒子接手，但來到農莊仍舊不時可以看到他老人家的身影。或是幫忙搗麻糬，或是幫忙看窯火，親切地招呼客人，不遺餘力。到蕃薯伯焢窯的好處之一，就是食材已經準備好，窯子也是半成品了。遊客只要負責把架了一半的土窯完成，過程中負責看著火焰，只要放入食物封了窯，就不用苦守窯爐，可以參與農莊裡的其他莊稼活動。農村裡絕對不缺的東西，就是稻草。乍看農莊的工作人員拿出來的草編關刀，遊客們都搖頭歎息：「這太難了啦！」「我做不出來啦！」但見工作人員抽出二支稻草，引誘著遊客們跟著步驟慢慢進行，只見高齡八十歲的老翁和六、七歲的稚兒，跟著全神貫注地進行，席間有人進度落後的，就會有工作人員立刻從旁協助。結構看似複雜的關刀，其實不過半個小時就人手一把。孩子們高興地比劃了起來，像極了《童年》歌中擔憂著「諸葛四郎和魔鬼黨到底是誰搶到那支寶劍」的那個年代的孩童。做完關刀，&nbsp;&nbsp; &nbsp;另一邊的空地上，工作人員又在喲喝著大家一起來編稻草人。兩把稻草，一把是上半身，一把是裙擺或褲子，加上遊客自己身上的配件，頭頂花草帽、戴著太陽眼鏡、手掛名牌包的現代版稻草人，就這樣一個個趕赴這場田野間的宴會，好不熱鬧。如果人數足夠，還可以坐上牛車逛大街，或是進行農事體驗闖關，絕對讓大家在享用美食之餘，充分體驗農事的樂趣。另外一提，農莊對面的錦繡堂，是蕃薯伯的莊姓祖先在1882年所興建，讓人嘖嘖稱奇的是，這宅第所用的木材，全部出自同一棵樟木，很難想像到底是多大的巨木，才有辦法完成這樣的任務。有興趣的遊客不妨前往參觀這兼具歷史價值和建築美感的古厝。,886-3-5801096,新竹縣北埔鄉南埔村 38 號,沿國道3號前往寶山鄉的大雅路二段/寶山交流道聯絡道路。從國道3號的 98-寶山 號出口下交流道→走大坪路、寶山路二段、寶山路一段、中大壢路和竹45鄉道前往目的地北埔鄉,09:00-17:00,{},"{'PositionLon': 121.04199981689453, 'PositionLat': 24.69219970703125, 'GeoHash': 'wsqh6rh47'}",觀光工廠類,{},新竹縣,2023-07-13T01:40:49+08:00,2023-07-13T02:10:57+08:00
C1_376440000A_000090,木炭之家,在寶山鄉峰城路和新湖路交叉口附近有這麼一處人家，長年都冒著炊煙，經過的車輛若是好奇停了下來，一定會被樹下乘涼的人招徠。或是邀你吃顆自家種的橘子，或是熱情地解說碩果僅存的古法製炭。這裡是木炭的家，八年前由李家父子重新造窯，為的就是不希望老產業斷了炊，他們要用古人的方法，製作出品質最好的木炭來。用時間淬煉品質十年前由臺北返回家鄉的李永興，有莊稼人健壯的體格。他說自己從小看著爺爺和叔伯們燒製木炭，那種農忙之餘，還要一年四季守著炭窯的日子，就是他們生活的寫照。後來因為生活的進步，木炭的使用量變少，加上進口低價木炭的競爭，炭窯只得走上歇業的命運。還好寶山鄉的李前鄉長想要復興這項技藝，而李永興又不甘心爺爺叔伯們的手藝斷炊，因此在父親李盛華的技術指導以及鄉公所的經費支持下，他讓炭窯戴上了手編的「草帽」，將山上砍來的相思樹一根根密密地排進了窯室裡，然後再用同樣來自山林的樟木為柴薪，重新點燃木炭的家的招牌。不甘心，這三個字說來容易，但扛起來卻非易事。李永興說，還好自己的孩子們都大了，經濟壓力比較沒那麼大，否則燒木炭、賣木炭，根本就賺不了錢。從山上伐木開始，再加上整理柴薪、堆進窯內，光是前置作業就得花上十天左右。燒製木炭也需要20至25天，再加上封窯後要15至20天才能完全冷卻（萬一時間沒拿準，提前開窯，未冷卻的木炭一遇到空氣，就會立刻燃燒成灰），可以出售。這樣前後加起來，最快也要一個半月的時間。但入窯時兩萬多斤的相思木，變成木炭時只剩下六千斤，一斤售價20元，真的是只賺了工錢而已。若不是那「不甘心」的使命感，誰能撐得下去？到木炭的家「當黑人」木炭每每選在凌晨兩、三點開窯，因為即便是冬天，剛剛打開的窯室仍舊十分溫熱，把木炭搬出來的粗活，做不了多久就大汗淋漓。再加上木炭黝黑，不一會兒大家都成了黑人。只見粗壯如男人大腿的木炭一根根被搬出來，由於燒製的時間長，因此碳化完全，這裡的木炭既無煙又耐燒，識貨的買家早就在一旁等著了。對於木炭製作有興趣的朋友，不妨去電詢問開窯時間。畢竟經驗難得，每每吸引了許多攝影愛好者前來，一起幫忙搬木炭，「當黑人」。順道一提，本刊出版時，時值農曆年，正是年柑、椪柑盛產的時候。李盛華老先生種植的柑橘類作物，可都是得過獎的。而開窯，就是收成的時刻。不論是來當黑人，或是來採柑橘，這個新年，到木炭的家都會有不同凡響的收穫！,886-9-31150826,新竹縣寶山鄉峰城路8巷,走國道3號前往寶山鄉的三峰路二段/竹43鄉道。從國道3號的 98-寶山 號出口下交流道→繼續走竹43鄉道。開到峰城路8巷,未提供,{},"{'PositionLon': 120.99299621582031, 'PositionLat': 24.723499298095703, 'GeoHash': 'wsqh9kb2v'}",觀光工廠類,{},新竹縣,2023-07-13T01:40:49+08:00,2023-07-13T02:10:57+08:00
C1_376440000A_000091,蓮花寺步道,「蓮花寺環山步道」為第一環狀步道位於新豐鄉與竹北市濱海公路交界處步道系統採枕木構造為主，途經粘質壤土，植生被覆茂盛區、荔枝園區，兩側遍植桂花巷，溝新宜人。輔以棧橋休憩觀景設施，登頂更能遠眺台灣海峽。由於鳳鼻山西端突出台灣海峽，山的末端好像鳳鼻，俗稱「鳳鼻尾」，海濱風景極佳。每當夕陽西下，紅霞和山色掩映，加以綠樹圍繞，「淡水廳誌」把它列為全淡八景之一，名為「鳳崎晚霞」。&nbsp;&nbsp;,886-3-5561805,新竹縣竹北市,1.國道1號竹北交流道下→光明六路→省道台1線→省道台68線→省道台15線即可抵達。2.國道3號竹林交流道下→120縣道→→117縣道→省道台68線→省道台15線即可抵達。,24 小時營業,{},"{'PositionLon': 120.96199798583984, 'PositionLat': 24.876800537109375, 'GeoHash': 'wsqj889vf'}",自然風景類,{},新竹縣,2023-07-13T01:40:49+08:00,2023-07-13T02:10:57+08:00
C1_376440000A_000092,金獅(寺)步道,「金獅寺步道」因緊臨名剎「金獅寺」而聞名，位於湖口村6鄰。昔日是新埔到湖口農產品運輸之重要古道，原為羊腸小徑，經水保局第一工程所於86年6月規劃成為一排排大圓石砌成的步道。步道之景觀台更是欣賞風景最佳地點，每當晴空萬裏，向北可透過廣的桃園臺地而遠眺台灣海峽，金獅寺前更有滿坑滿穀的油桐樹，每逢春夏之交，滿樹繁花、如雪披被，非常壯觀。,886-9-81416654,新竹縣湖口鄉湖口村,中山高湖口交流道下→往湖口方向接台１號省道至老湖口→轉竹13-1縣道→往金獅寺方向即可抵達,24 小時營業,{},"{'PositionLon': 121.07099914550781, 'PositionLat': 24.872699737548828, 'GeoHash': 'wsqj7pcjy'}",自然風景類,{},新竹縣,2023-07-13T01:40:49+08:00,2023-07-13T02:10:57+08:00
C1_376440000A_000094,鳳崎落日步道,步道入口位於天德堂西側，終點位於蓮花寺停車場；沿線楓香、烏桕、九芎、樟樹、山櫻花、相思樹、杜英、黑松等多樣性的植物景觀，景致豐富，美不勝收；沿路綠蔭遮蔽，清幽涼爽，適合清晨及黃昏時登山健行。登高可眺望新竹沿海景觀，西落夕陽，令人心曠神怡。,886-3-5576369,新竹縣竹北市,台鐵新竹站下→新竹客運新竹站搭乘新莊子線往新豐、新莊子班車，在明新技術學院站下車步行→康樂路→德日路即可抵達。,24 小時營業,{},"{'PositionLon': 120.97899627685547, 'PositionLat': 24.867300033569336, 'GeoHash': 'wsqj2yynw'}",自然風景類,{},新竹縣,2023-07-13T01:40:49+08:00,2023-07-13T02:10:57+08:00
C1_376440000A_000095,飛龍池步道,位於新埔鎮的蓮華山中，有一條蜿蜒，狀如飛龍的古道，這古道就是蓮華山古道，也稱之為飛龍健行步道，是新埔地區郊遊踏青的好去處。古道的入口之一在三聖宮旁，路徑很明顯，步道沿路盡是古木參天、蟲鳴鳥叫，還有很多的神木和孿生樹也不斷的出現在眼前，其中有一棵10株共生木所成的巨木，當地人為其取名為「蓮華神木」，這神木需5人合力才能將其環抱，而其根部就像是蓮花座而得此名。,886-3-5518101,新竹縣新埔鎮新龍路230巷池塘附近,台鐵新竹站下→新竹客運新竹站搭乘關福線/新中線往關西，於三聖宮站下車，再依指標步行前往即可抵達。,24 小時營業,{},"{'PositionLon': 121.0989990234375, 'PositionLat': 24.83139991760254, 'GeoHash': 'wsqj78mt7'}",自然風景類,{},新竹縣,2023-07-13T01:40:49+08:00,2023-07-13T02:10:57+08:00
C1_376440000A_000096,犁頭山步道,犁頭山位於新竹縣新埔鎮與竹北市、芎林鄉交界處，以地形類似古人犁田之犁頭而得名，東起新埔內立里，西迄竹北高速公路東側，呈東西走向，為新竹縣兩大河犂、頭前溪、鳳山溪分水嶺，山以南屬頭前溪流域，以北屬鳳山溪流域，海拔高度156公尺，南側坡面陡峻，北側較為平緩。 惟犁頭山早期均為農民茶園，今日雖已荒廢，林間仍可見不少老茶樹，步道主線及各入口路線，其實多是附近居民早期上山採茶或耕作所行之蜿蜒小徑。民國七十年代農業衰退，山上茶園逐漸荒廢，採茶道路多數野湮沒在荒煙蔓草中，連早期商旅熙來攘往，翻越犁頭山的月桃窩古道也無人通行，犁頭山成為荒山野嶺，除西段三角點附近一公里多路段，尚有民眾踏青健行之外，餘均緲無人煙。,886-3-5518101,新竹縣新埔鎮國校街73號,沿國道1號前往竹北市的光明六路。從國道1號的 91-竹北 號出口下交流道，走光明六路東一段、117縣道和文華路前往新埔鎮的國校街,24 小時營業,{},"{'PositionLon': 121.05400085449219, 'PositionLat': 24.826200485229492, 'GeoHash': 'wsqj4xkz4'}",自然風景類,{},新竹縣,2023-07-13T01:40:49+08:00,2023-07-13T02:10:57+08:00
C1_376440000A_000097,巨埔步道,巨埔步道位在巨埔農場的後山，從巨埔蔬果產銷班的廣場出發，沿著林間道路上坡，映入眼簾的是，蜿蜒而上的枕木步道。兩旁的樹木綠蔭夾道，步道沿途皆有油桐樹、相思樹、松樹、筆筒樹、魚藤等，沿路清幽涼爽，鳥類有布榖鳥、大冠鷲等蹤影。全程約三公里多，遊客可沿著步道倘佯在綠蔭中，欣賞花卉，油桐花季時遊客絡繹不絕，或參觀育苗中心。總面積約十公頃的環山步道中，有不少植物和蔬果，值得細細品味。其中情人谷步道：因部份步道寬度較小僅可供一人行走，且坡度較陡行走不易，不適合兒童行走。,886-3-5899612,新竹縣新埔鎮新龍路752巷2號,1.國道1號竹北交流道下→光明六路→117縣道→118縣道→115縣→竹20線即可抵達。2.國道3號竹林交流道下→120縣道→115縣道→118縣道→115縣→竹20線道即可抵達。,未提供,{},"{'PositionLon': 121.12699890136719, 'PositionLat': 24.84160041809082, 'GeoHash': 'wsqjk63bz'}",自然風景類,{},新竹縣,2023-07-13T01:40:49+08:00,2023-07-13T02:10:57+08:00
C1_376440000A_000098,清水古道,清水古道是新埔鎮早期運送茶葉、柑橘下山的必經之路，已有近百年歷史，古道幽靜、蟲鳴鳥叫，風景優美，極具觀光價值。,886-3-5518101,新竹縣新埔鎮,1. 北二高關西交流道下→循118縣道往新埔方向→接中正路→於楊新路(115縣道)右轉→至清水里清水國小即可抵達。 2. 北二高竹林交流道下→循120、115縣道至新埔→右轉118縣道續行→接中正路→於楊新路(115縣道)右轉→至清水里清水國小即可抵達。3. 中山高竹北交流道下→遍120縣道左轉117縣道→右轉接118縣道→接中正路→於楊新路(115縣道)左轉→至清水里清水國小即可抵達。,24 小時營業,{},"{'PositionLon': 121.13600158691406, 'PositionLat': 24.867000579833984, 'GeoHash': 'wsqjkwbsc'}",自然風景類,{},新竹縣,2023-07-13T01:40:49+08:00,2023-07-13T02:10:57+08:00
C1_376440000A_000099,燒炭窩古道,燒炭窩古道古樸的殘階及幽幽竹林，但古道大部份屬於陸軍裝甲兵訓練場範圍，古道需穿越陸軍裝甲兵訓練場已被剪破的鐵絲網才能進入古道最完整的路段。一塊塊平整的石塊舖成的山路，是昔日為方便挑夫行走，由此爬往湖口臺地。古道左側為卵石堆砌的駁坎，右側為繁茂的竹林。且可與土牛溝古道相接。,886-3-5518101,新竹縣芎林鄉,1.國道1號竹北交流道下→光明六路→117縣道→竹14線道即可抵達。 2.國道3號竹林交流道下→120縣道→115縣道→118縣道→竹14線道即可抵達。,未提供,{},"{'PositionLon': 121.04900360107422, 'PositionLat': 24.83769989013672, 'GeoHash': 'wsqj6994n'}",自然風景類,{},新竹縣,2023-07-13T01:40:49+08:00,2023-07-13T02:10:57+08:00
C1_376440000A_000100,照門步道群–霽月步道,位於陳家農場旁霽月步道的入口，枕木步道兩側的花草與綠蔭所構成的綠色隧道。步道的高點，可沿著石板階梯上下，穿梭在綠蔭中。途中到處可見相思樹林、魯花樹、九重葛、桂花等植物。桐花季走在這條步道裡，可以看到照門山頭的桐花，當然眼簾近處也可以看到桐花，或許數量不多，但佇足欣賞「五月雪」，另有一種美感。,886-3-5899625,新竹縣新埔鎮九芎湖24號,台鐵新竹站下→新竹客運新竹站搭乘新中線、枋寮線往新埔→新竹客運新埔站搭乘楊新線、梅新線往楊梅，於九芎湖站下車即可抵達。,24 小時營業,{},"{'PositionLon': 121.10600280761719, 'PositionLat': 24.86199951171875, 'GeoHash': 'wsqj7vfxw'}",自然風景類,{},新竹縣,2023-07-13T01:40:49+08:00,2023-07-13T02:10:57+08:00
C1_376440000A_000101,照門步道群–觀南步道,步行在步道上，感受著大自然的氣息，放眼盡是湛藍的天空，翠綠的山景，古樸精緻的南園清心園林休閒農場，以及散佈在山谷中的鄉村聚落，一幅幅動人的景緻映入眼簾。步道兩旁林立著油桐樹，於油桐花季時別有一番風味，觀南步道的末端從鴛鴦池出口。,886-3-5518101,新竹縣新埔鎮九芎湖24號,台鐵新竹站下→新竹客運新竹站搭乘新中線、枋寮線往新埔→新竹客運新埔站搭乘楊新線、梅新線往楊梅，於九芎湖站下車即可抵達。,24 小時營業,{},"{'PositionLon': 121.10600280761719, 'PositionLat': 24.86199951171875, 'GeoHash': 'wsqj7vfxw'}",自然風景類,{},新竹縣,2023-07-13T01:40:49+08:00,2023-07-13T02:10:57+08:00
C1_376440000A_000102,照門步道群–九福步道,由「明池」循著石梯而上，這是九芎湖內坡度較陡的步道。林木蓊鬱，令人心曠神怡，更可呼吸大自然釋放的芬多精，植物種類繁多，是絕佳的森林浴場。獨角仙、台灣鳳蝶、五色鳥等昆蟲與鳥類，到處可見蹤跡，是條豐富的休閒生態步道。可以眺望九芎湖及箭竹窩的農村景緻，天氣晴朗時，可以遠跳臺灣海峽。&nbsp;,886-3-5881311,新竹縣新埔鎮,台鐵新竹站下→新竹客運新竹站搭乘新中線、枋寮線往新埔→新竹客運新埔站搭乘楊新線、梅新線往楊梅，於九芎湖站下車即可抵達。,24 小時營業,{},"{'PositionLon': 121.10600280761719, 'PositionLat': 24.850799560546875, 'GeoHash': 'wsqj7gfwq'}",自然風景類,{},新竹縣,2023-07-13T01:40:49+08:00,2023-07-13T02:10:57+08:00
C1_376440000A_000103,三段崎古道,「三段崎古道」位於新竹縣新埔、芎林兩鄉鎮的交界處，是昔日芎林鄉下山村農民，運送柑橘等農作物前往新埔販賣所走出來的一條道路，大約形成於清朝道光年間。隨著公路及產業道路的開通，古道運輸的功能早已式微，如今只成為單純的山間農路而已。然而沿途仍可觀賞滿山坡的柑橘園，還有古樸的鵝卵石階路，以及老樟樹陪伴著古老的石棚土地公，默默地敘述古道逝去的歲月往事。「崎」，客家話的意思是指「山坡、斜坡」；「三段崎」，是指這條古道沿途有三段山坡石階路（石崎仔）。由新埔的三段崎前往芎林鄉，須翻越石頭坑山，先後經過三段石仔崎路，因此而得名。&nbsp;,886-3-5518101,新竹縣芎林鄉,1.國道一號竹北交流道下→光明六路→120縣道→竹22→即可抵達芎林鄉下山村入口。2.國道三號竹林交流道下→120縣道→115縣道→123縣道→竹22→即可抵達芎林鄉下山村入口。3.國道一號竹北交流道下→光明六路→117縣道→118縣道→115縣道即可抵達新埔鎮寶崎幹入口。4.國道三號竹林交流道下→120縣道→115縣道即可抵達新埔鎮寶崎幹入口。,24 小時營業,{},"{'PositionLon': 121.0770034790039, 'PositionLat': 24.81170082092285, 'GeoHash': 'wsqj5hvdd'}",自然風景類,{},新竹縣,2023-07-13T01:40:49+08:00,2023-07-13T02:10:57+08:00
C1_376440000A_000104,石光(老虎山)步道,昔日是石岡子與龍潭之間的一條重要農產古道，已有近兩百年的歷史，直到幾十年前公路興建後，古道才逐漸沒落。近年在當地社區發展協會努力下，獲政府專款輔助，由石光社區發展協會及政府重新整修石光古道，古道的起點為石光國中，終點為茶園涼亭，並於沿途設置涼亭、觀景台及木椅，以供遊客遊憩。本次調查將石光步道及石光古道合起來，石光步道為聖母院至茶園涼亭。因為此步道行經老虎山故當地人稱此條步道為老虎山步道。,886-3-5518101,新竹縣關西鎮石光里308巷44號,1.國道1號竹北交流道下→光明六路→117縣道→118縣道即可抵達石光國中/聖母院。 2.國道3號關西交流道下→118縣道即可抵達石光國中/聖母院。,24 小時營業,{},"{'PositionLon': 121.12999725341797, 'PositionLat': 24.815000534057617, 'GeoHash': 'wsqjhmkjv'}",自然風景類,{},新竹縣,2023-07-13T01:40:49+08:00,2023-07-13T02:10:57+08:00
C1_376440000A_000105,四寮溪步道,位於關西鎮的四寮溪步道全長460公尺，步道沿著四寮溪興建，自然天成的濕地環境與溪流，造就了豐富的生態景觀，沿途的林蔭與溪水，保證清涼又消暑。,886-3-5518101,新竹縣關西鎮竹28鄉道35號,國道3號關西交流道下往關西市區、經中山東路（關西高農）前、過中豐公路（台3線）紅綠燈、進入（竹28線）、約4公里右側有指示牌即可抵達,24 小時營業,{},"{'PositionLon': 121.21199798583984, 'PositionLat': 24.7893009185791, 'GeoHash': 'wsqjn0zbh'}",自然風景類,{},新竹縣,2023-07-13T01:40:49+08:00,2023-07-13T02:10:57+08:00
C1_376440000A_000106,石牛山步道,步道沿線很多陡峭路段，時而峭壁時而陡坡，手腳並用才能往前走；一邊走一邊欣賞果園、菇寮及鄉村景緻，多樣的植物及鳥類、昆蟲生態；豐富多變的步道風光，直到攻頂時一切豁然開朗，360度的開闊視野，可眺望石門水庫、大溪、龍潭、三峽等地區，亦可看見鳥嘴山及蜿蜒山道，一切的疲累早已消失。,886-3-5873180,新竹縣關西鎮,台鐵新竹站下→新竹客運新竹站搭乘新中線往中壢/關福線往六福村→關西站下車→新竹客運關西站搭乘錦山線/六曲窩線，往金鳥/復興，於李樹下站下，步行即可抵達。,24 小時營業,{},"{'PositionLon': 121.2490005493164, 'PositionLat': 24.78459930419922, 'GeoHash': 'wsqhzpfuf'}",自然風景類,{},新竹縣,2023-07-13T01:40:49+08:00,2023-07-13T02:10:57+08:00
C1_376440000A_000107,鹿寮坑步道,鹿寮坑休憩區賞桐步道為三百年茄苳神木開始經桐花隧道&rarr;桐花隧道二&rarr;賞螢區&rarr;濕地農場&rarr;石爺石娘&rarr;桐花步道二&rarr;鄒洪將軍故居&rarr;桐花步道&rarr;鍾屋夥房，為一有系統之賞桐步道。其中濕地農場步道最具特色，此步道位於擔水窩頂端，由於富含水源且未遭人為開發的破壞，保有豐富的生態系，濕地內田螺、泥鰍，還有排著隊覓食的野鴨；鳥類更是種類繁多，步行山林間不時可聽見藍鵲、五色鳥聲聲唱和，大冠鷲盤旋頭頂，提醒您造訪濕地農場時別忘了帶望遠鏡，將鳥兒看個仔細；夏夜晚風裡的濕地農場更是螢火蟲季的最佳選擇。,886-3-5518101,新竹縣芎林鄉,1.國道1號竹北交流道下→光明六路→117縣道→省道台68線芎林/二重埔出口下→新中正大橋→120縣道→竹25線即可抵達。 2.國道3號竹林交流道下→120縣道→竹25線即可抵達。,24 小時營業,{},"{'PositionLon': 121.14199829101562, 'PositionLat': 24.743900299072266, 'GeoHash': 'wsqhu8kzt'}",自然風景類,{},新竹縣,2023-07-13T01:40:49+08:00,2023-07-13T02:10:57+08:00
C1_376440000A_000108,飛鳳山步道,飛鳳山海拔435.5公尺，是九芎山的最高峰，因山形似飛鳳伸頸行將歛翼下降之勢而得名，山上遍植白梅、杜鵑和鳳凰花，山貌隨著時序轉換而有不同變化。山區內有雲谷寺、代勸堂、感應橋、新鳳池、蓮池等名勝，沿著綠蔭遮天的步道一一走訪，清風徐徐來，暑氣全消。飛鳳山上遍植的鳳凰木，夏日開花時節，處處殷紅，冬季梅花盛開，處處雪白，飛鳳探梅，自古以來即列竹縣八勝之一。後山有縣府闢建的步道可登山、踏青、遠眺觀景。,886-3-5921135,新竹縣芎林鄉,1.台鐵新竹站下→新竹客運新竹站搭乘往芎林班車，在芎林國中站下車沿竹24線步行即可抵達。 2.高鐵新竹站下→搭乘新竹客運芎林線往芎林班車，在芎林國中站下車沿竹24線步行即可抵達。,24 小時營業,{},"{'PositionLon': 121.11699676513672, 'PositionLat': 24.763700485229492, 'GeoHash': 'wsqhuh4en'}",自然風景類,{},新竹縣,2023-07-13T01:40:49+08:00,2023-07-13T02:10:57+08:00
C1_376440000A_000109,文林生態古道,古道原是早期山區居民進出的道路，而隨時代變遷，居民紛紛外遷，農作廢耕，古道便逐漸荒廢。後來，在文林社區發展協會努力下，爭取文建會經費補助，並號召社區志工協助，終使古道重見天日，而蛻變為一條休閒的踏青路線。古道全長約3公里，大約一個小時左右就可以走完。,886-3-5921135,新竹縣芎林鄉文山路322巷27號,北二高下竹東/芎林交流道，走120縣道往芎林，在115縣道右轉，經123縣道(文山路)再右轉，在芎林國小對面即可見到「文林自然生態古道」的指標。,24 小時營業,{},"{'PositionLon': 121.08200073242188, 'PositionLat': 24.780099868774414, 'GeoHash': 'wsqhgr14x'}",自然風景類,{},新竹縣,2023-07-13T01:40:49+08:00,2023-07-13T02:10:57+08:00
C1_376440000A_000111,森林公園步道,"步道位於竹東鎮內西南後山，全山林木參天，並有普照宮、大願寺等寺廟，運動公園也設於此地。位於大鵬山麓,境內綠意盎然、清靜優雅,山上還有鍛練腳力好地方的普照宮與金碧輝煌莊嚴肅穆的大願寺，沿途皆有登山步道，每天都有許多民眾來此爬山或運動。",886-3-5518101,新竹縣竹東鎮環山路2號,1. 國道1號竹北交流道下→光明六路東一段→117縣道→省道台68線→省道台68甲線→123縣道→122縣道即可抵達竹東國小，延122縣道續行，轉大林路即可抵達竹東高中。2.國道3號竹林交流道下→120縣道→123縣道→122縣道即可抵達竹東國小，延122縣道續行，轉大林路即可抵達竹東高中。,24 小時營業,{},"{'PositionLon': 121.08499908447266, 'PositionLat': 24.734399795532227, 'GeoHash': 'wsqheqg2k'}",自然風景類,{},新竹縣,2023-07-13T01:40:49+08:00,2023-07-13T02:10:57+08:00
C1_376440000A_000112,軟橋千歲步道,「軟橋千歲步道」當初因漢人到此地開荒，因上坪溪河水暴漲無法交通，臨時就地取材，利用黃藤搭成一座便橋以利通行，維持十年仍能通行，所以當地人們稱它為軟橋。四、五月有白靄靄的油桐花，步道林相優美，軟橋社區螢火蟲保育良好，每年螢火蟲季節可觀賞星火點點的美麗夜空。,886-3-5518101,新竹縣竹東鎮東峰路551號,1.台鐵新竹站下→新竹客運新竹站搭乘竹東線往下公館，於竹東車站下→新竹客運竹東站搭乘五峰線往五峰班車，於軟橋站下車步行即可抵達。2.高鐵新竹站下→搭乘新竹客運科學園區線往下公館班車，於竹東車站下→新竹客運竹東站搭乘五峰線往五峰班車，於軟橋站下車步行即可抵達。,未提供,{},"{'PositionLon': 121.09700012207031, 'PositionLat': 24.695199966430664, 'GeoHash': 'wsqh7xs5u'}",自然風景類,{},新竹縣,2023-07-13T01:40:49+08:00,2023-07-13T02:10:57+08:00
C1_376440000A_000113,五指山猴洞步道,五指山猴洞步道全長約九百公尺，沿途風光明媚，擁有豐富的原始生林與自然生態，就像在走林蔭隧道，備感涼爽。六年來，陸續整修石頭階梯與木棧道，讓步道的安全性提升。若從五指山觀音寺步道出發，約走六百五十公尺後，可到達金龜岩後可接猴洞步道到五指山灶君堂。猴洞步道的置高點可遠眺竹北市、新竹市與苗栗頭份鎮、竹南鎮等，風景怡人。,886-3-5966177,新竹縣北埔鄉,24 小時營業,{},"{'PositionLon': 121.09100341796875, 'PositionLat': 24.641700744628906, 'GeoHash': 'wsqh5mzu2'}",自然風景類,{},新竹縣,2023-07-13T01:40:49+08:00,2023-07-13T02:10:57+08:00
C1_376440000A_000114,鬼澤山步道,路途山林景色優美，可見松鼠、竹雞穿梭林間。步道沿路杉木、桂竹林立，偶有竹筍擋道，各種蝴蝶翩翩飛舞，以及多樣的植物種類，增添步道行走的樂趣以及自然的深度體驗。步道最高可登上海拔1030公尺處，能眺望整個和平部落的景色，天氣晴朗時，更能望見五峰全景，以及遠處的五指山，如遇霧起，一片白茫茫，彷如仙境，是一處另人心曠神怡的好地方。,886-3-5518101,新竹縣五峰鄉,台鐵新竹站下→新竹客運新竹站搭乘竹東線往下公館→於竹東站下車→新竹客運竹東站搭乘五峰線往清泉，於葛家莊站下，步行即可抵達。,24 小時營業,{},"{'PositionLon': 121.12300109863281, 'PositionLat': 24.613800048828125, 'GeoHash': 'wsqhh0z1f'}",自然風景類,{},新竹縣,2023-07-13T01:40:49+08:00,2023-07-13T02:10:57+08:00
C1_376440000A_000115,野馬瞰山森林步道,「野馬瞰山森林步道」，因雲霧繚繞及萬種生態植物而久富盛名。登山口位於雪霸休閒農場裡面，算是雪霸休閒農場的私房景點，也因如此成為雪霸農場重要的特色之一。從大鹿林道23K處轉入，再往前車行約一兩分鐘即可看到右側的雪霸休閒農場大門，至停車場停車順著「野馬瞰山森林步道」上行約五分鐘，即可抵達三角點。三角點整飾的相當漂亮，周圍還有東西南北的方位標示。在林道的21.5 K處也有步道可接上來，沿途都是綠意盎然的人造林植栽，偶爾可見松鼠群遊竄在森林中，十分有趣。,886-3-5518101,新竹縣五峰鄉雪霸休閒農場內野馬瞰山森林步道,起點於雪霸休閒農場內，建議自農場裡野馬瞰山三角點處進入,24 小時營業,{},"{'PositionLon': 121.10600280761719, 'PositionLat': 24.595500946044922, 'GeoHash': 'wsq5gv6xn'}",自然風景類,{},新竹縣,2023-07-13T01:40:49+08:00,2023-07-13T02:10:57+08:00
C1_376440000A_000116,福沙大崎步道,福沙大崎步道於2012/05/01正式啟用。走過一世紀的橫山鄉福沙大崎步道是昔日福興村民上學、上街的捷徑，也是泥土、木板舖面的古道，因幾年前一場豪雨造成靠近沙坑國小路段坍塌，滯礙難行，學校老師還曾DIY修築，方便學生通學及校外教學。福沙大崎步道經用心規劃重新整修過後，古道出現嶄新的風貌，喚起福興和沙坑兩地村民昔日的回憶之外，步道蜿蜓穿行在山嶺線上，沿途林木扶疏、生態豐富，也是休閒健行的好去處。,886-3-5932001,"新竹縣橫山鄉竹30鄉道25號,",北二高南下 : 北二高關西交流道下，左轉進入關西市區，直走到左邊有85度C，左轉到底右轉，直走至台三線右轉往橫山方向66公里處紅綠燈旁看到OK便利商店左轉入竹30道1.5公里。北二高北上 : 北二高竹東/芎林交流道下，靠右邊往竹東方向直走120線到底->左彎接台三線，直走台三線至68公里處前方右轉至竹31道2公里。,未提供,{},"{'PositionLon': 121.16899871826172, 'PositionLat': 24.7362003326416, 'GeoHash': 'wsqhtr0df'}",自然風景類,{},新竹縣,2023-07-13T01:40:49+08:00,2023-07-13T02:10:57+08:00
C1_376440000A_000117,騎龍古道,騎龍古道在大山背眾古道中，算是景點最豐富的一條，入口有兩處，一在隴西果園旁的交叉入口，另一處位在豐鄉國小旁邊，中途可以銜接大樹榕古道。循著右邊古道往前，沿途可見筆直翠綠的孟宗竹林，及三座以糯米為材料砌製而成的古橋、百年石階，年代久遠，施工精緻，不得不佩服先民的智慧；楊家石柱屋為古道中可以休息的處所，在此稍作停留，體驗沐浴森林的舒暢感。多樣的動植物生態，也是古道值得一走的原因，除此外每年四至五月本地也是觀賞螢火蟲的最佳場所之一。,886-3-593-2001,新竹縣橫山鄉豐鄉村80號,1.橫山火車站→轉乘5635路公車到頭份林站下車→步行約20分鐘即可達。,24 小時營業,{},"{'PositionLon': 121.13899993896484, 'PositionLat': 24.689300537109375, 'GeoHash': 'wsqhkwd9x'}",自然風景類,{},新竹縣,2023-07-13T01:40:49+08:00,2023-07-13T02:10:57+08:00
C1_376440000A_000118,大崎崠古道,位於大山背的大崎棟古道，全長約有1.5公里，入口設於大山背樂善堂後方，進入時分石階步道與枕木步道，不過會匯集一起。大崎棟古道深入翠綠林木中，兩旁還有椪柑果園，來到步道終點時可見上坪溪與油羅溪匯集成頭前溪，美麗風光盡收眼底，令人心曠神怡。,886-3-5518101,新竹縣橫山鄉大山背,從國道3號的 90-竹林 號出口下交流道，繼續走120縣道前往目的地橫山鄉,24 小時營業,{},"{'PositionLon': 121.13999938964844, 'PositionLat': 24.698999404907227, 'GeoHash': 'wsqhs876n'}",自然風景類,{},新竹縣,2023-07-13T01:40:49+08:00,2023-07-13T02:10:57+08:00
C1_376440000A_000119,茶亭古道,昔日大山背先民輸送農產品到橫山鄉市區的唯一通道，偏遠山區生活艱苦，謀生不易；當地有首客家歌謠唱著：「有妹仔毋好嫁大山背、上崎堵嘴，下崎捋背」意謂昔日挑擔往返古道的辛苦。,886-3-5518101,新竹縣橫山鄉橫山23號,從國道3號的 90-竹林 號出口下交流道，繼續走120縣道，行駛到橫山鄉的橫豐產業道路/竹35-1鄉道,24 小時營業,{},"{'PositionLon': 121.13400268554688, 'PositionLat': 24.70599937438965, 'GeoHash': 'wsqhs3x4f'}",自然風景類,{},新竹縣,2023-07-13T01:40:49+08:00,2023-07-13T02:10:57+08:00
C1_376440000A_000120,霞喀羅古道,羅喀羅國家步道是由「霞喀羅警備道路」及「薩克亞金警備道路」兩條古道所構成，原是貫穿新竹縣尖石鄉泰雅族「基那吉群」，與五峰鄉泰雅族「霞喀羅群」兩大族群領域的警備路。族群領域間，有高達兩千公尺以上的霞喀羅大山南北向主稜分隔，但其間仍有通道作為訪親、行獵攻守支援之用。日治時代，日本軍警與此區泰雅族爭戰不斷，日本官方修築原住民原有小徑，成為軍事道路。由於道路需翻山越霞喀羅大山北鞍當時稱為「霞喀羅大山越嶺道」。霞喀羅國家步道兼具歷史意義與觀光價值、結合知性與感性的賞楓新路線。擁有日據時代遺留下來許多駐在所遺跡，此外還有不見天挺直竹林，彷彿進入綠色時光隧道及楓樹林，景色十分優美。,886-3-5224163,新竹縣尖石鄉控溪1之1號,1.國道1號竹北交流道下→光明六路→117縣道→省道台68線→省道3 線→120縣道→竹60線→秀巒檢查哨→竹60線→竹65線即可抵達養老段入口。2.國道3號竹林交流道下→120縣道→竹60線→秀巒檢查哨→竹60線→竹65線即可抵達養老段入口。3.國道1號竹北交流道下→光明六路→117縣道→省道台68線→省道3 線→122縣道→往石鹿即可抵達石鹿段入口。,24 小時營業,{},"{'PositionLon': 121.28500366210938, 'PositionLat': 24.61750030517578, 'GeoHash': 'wsqhpcmp3'}",自然風景類,{},新竹縣,2023-07-13T01:40:49+08:00,2023-07-13T02:10:57+08:00
C1_376440000A_000121,司馬庫斯步道,"步道入口位於司馬庫斯部落，終點位於巨木群；司馬庫斯步道沿線平緩的,並不會有特別難通行之處，陡坡路線均為短程，（五公里的路程，高程差不到100公尺）。根據 1996 年林務局公佈的十大神木排行，第二名和第三名神木均位於司馬庫斯的神木區，這兩棵司馬庫斯的神木都屬於紅檜，其主幹約需二十多人手牽手環抱方能圍塑一圈。步道沿線擁有豐富的天然景觀及動植物，亦是值得觀察的對象。",886-3-5847687,新竹縣玉峰村14鄰司馬庫斯2號,1.國道1號竹北交流道下→光明六路→117縣道→省道台68線→省道3 線→120縣道→竹60線→秀巒檢查哨辦理入山證後直行竹60線即可抵達。(此路崎嶇狹窄，一般車輛難行，需行前準備或洽當地居民瞭解路況)2.國道3號竹林交流道下→120縣道→竹60線→秀巒檢查哨辦理入山證後直行竹60線即可抵達。(此路崎嶇狹窄，一般車輛難行，需行前準備或洽當地居民瞭解路況),08:00-17:00,{},"{'PositionLon': 121.33399963378906, 'PositionLat': 24.578699111938477, 'GeoHash': 'wsq7c42tr'}",自然風景類,{},新竹縣,2023-07-13T01:40:49+08:00,2023-07-13T02:10:57+08:00
C1_376440000A_000122,鎮西堡步道,步道入口位於鎮西堡遊客服務中心，其步道之主要景點為鎮西堡巨木群，巨木群面積達50平方公里，在此濃密之森林裡擁有200株以上之巨木，據說要把所有的巨木都看盡需要三天以上的時間，此處也是台灣最多且最大的紅檜及扁柏之原始林。巨木群全區可分兩條路線，A區較早開發，位於基那吉山下平臺處，又稱為基那吉神木群，路線難度較高，路線較不明顯，B區路線較為平緩，行走的遊客也較多,886-3-5224163,新竹縣尖石鄉,1.國道1號竹北交流道下→光明六路→117縣道→省道台68線→省道3 線→120縣道→竹60線→秀巒檢查哨→竹60線→竹64線即可抵達。2.國道3號竹林交流道下→120縣道→竹60線→秀巒檢查哨→竹60線→竹64線即可抵達。,24 小時營業,{},"{'PositionLon': 121.30899810791016, 'PositionLat': 24.573699951171875, 'GeoHash': 'wsq7b3w80'}",自然風景類,{},新竹縣,2023-07-13T01:40:49+08:00,2023-07-13T02:10:57+08:00
C1_376440000A_000123,北得拉曼步道,北得拉曼屬於中級山，在樹林茂盛生物多樣化下保有最原始的步道系統，僅有極少數之人工設施與部分採人工搭建之便道，較為陡峭之山壁設有麻繩以利攀爬，形式極為簡單增添了不少登山之挑戰性。此外，這裡擁有世界級最低海拔之神木群，位於新樂村水田部落上方的林班地內，神木周邊環境清幽，生意盎然，仍保留著自然原始的面貌，是兼具生態教育及休閒娛樂的好去處。,886-3-5224163,新竹縣尖石鄉新樂村,1.國道1號竹北交流道下→光明六路→117縣道→省道台68線→省道3 線→120縣道→竹58線→水田林道支線即可抵達。2.國道3號竹林交流道下→120縣道→竹58線→水田林道支線即可抵達。,24 小時營業,{},"{'PositionLon': 121.27400207519531, 'PositionLat': 24.72209930419922, 'GeoHash': 'wsqhxst09'}",自然風景類,{},新竹縣,2023-07-13T01:40:49+08:00,2023-07-13T02:10:57+08:00
C1_376440000A_000124,李崠山步道,李崠山，海拔約1914公尺，有一顆罕見的一等三角點基石，及一省政府圖根補點。由於地理與戰略位置相當好，清代李崠即曾於此駐軍紮營因而得名。日據時代，由於日軍常受到大漢溪上游的泰雅族人襲擊，為了全面控制山區，便於此山頂闢建碉堡，佈署大砲，以控制附近沿岸的部落。雖然現在李崠山早已不再具有戰略的優勢，但是古堡遺留的斑駁痕跡，卻也紀錄著當時輝煌的戰史。山頂視野絕佳，可眺望雪山、大霸尖山、南湖大山等壯麗山容。李崠山位於新竹縣尖石鄉與桃園縣復興鄉分界的山稜，可由竹東入山經尖石，至宇老後見派出所前有三叉路，取左邊產業道路續行即達李棟山莊。穿過山莊後面山徑往上約二個半小時可達山頂古堡，一路山風沁涼、草青花香、山光怡人，可惜古堡遺跡，目前僅餘城門及四周城牆。,886-3-5841001,新竹縣尖石鄉玉峰村7鄰馬美部落,1.國道1號竹北交流道下→光明六路→117縣道→省道台68線→省道3 線→120縣道→竹60線→馬美道路即可抵達。2.國道3號竹林交流道下→120縣道→竹60線→馬美道路即可抵達。,24 小時營業,{},"{'PositionLon': 121.36299896240234, 'PositionLat': 24.552799224853516, 'GeoHash': 'wsq79tty6'}",自然風景類,{},新竹縣,2023-07-13T01:40:49+08:00,2023-07-13T02:10:57+08:00
C1_376440000A_000125,五指山步道,新竹五指山，位於北埔、竹東、五峰三鄉鎮的交界，山峰連綿起伏，宛如五指，因而得名。自古以來，五指山即以山形險峙，氣勢雄壯而聞名，清代的《淡水廳志》將其列為全淡八景之一，號稱「指峰淩霄」，而又以「五指連雲」被列為「塹南八景」之一。日據時期，五指山獲選為台灣十二名勝之一。五指山很受山友喜愛，被列為台灣小百嶽，亦被入選為台灣百大名山。,886-3-5224163,新竹縣北埔鄉外坪村六股8鄰11號,1.國道1號竹北交流道下→光明六路→117縣道→省道台68線→省道台3線→122縣道30.2K處五指山口站，循指標前行即可抵達登山口。2.國道3號竹林交流道下→120縣道→123縣道→122縣道30.2K處五指山口站，循指標前行即可抵達登山口。,24 小時營業,{},"{'PositionLon': 121.08999633789062, 'PositionLat': 24.642000198364258, 'GeoHash': 'wsqh5mzn1'}",自然風景類,{},新竹縣,2023-07-13T01:40:49+08:00,2023-07-13T02:10:57+08:00
C1_376440000A_000126,獅山古道,由獅尾登山口往上走，沿路會經過萬佛庵、靈霞洞、金剛寺、覺然塔、海會庵、元光寺等六座佛寺，是一般遊客最常走的路線，由望月亭續下往勸化堂，便已由新竹縣進入苗栗縣。,886-3-5809296,新竹縣峨眉鄉竹81鄉道25號,台鐵新竹站下→轉台鐵內灣支線於竹東站下→新竹客運竹東站搭乘獅山線往獅山班車，於獅山站下車步行即可抵達。,24 小時營業,{},"{'PositionLon': 121.02400207519531, 'PositionLat': 24.65519905090332, 'GeoHash': 'wsqh3bqfz'}",自然風景類,{},新竹縣,2023-07-13T01:40:49+08:00,2023-07-13T02:10:57+08:00
C1_376440000A_000127,十二寮步道,步道有許多形式，有健康概念的石子路、乾淨的紅磚階梯、平整的枕木階梯及水泥路，此步道極度人為開發，很適合做為運動散步的登山步道。十二寮有環湖步道、登山步道、水庫大壩、天恩彌勒佛像、休閒農園，以及許多別具特色的咖啡館。,886-3-5518101,新竹縣峨眉鄉峨眉湖,1.國道1號竹北交流道下→光明六路→117縣道→省道台68線→省道台3線→竹49線即可抵達。2.國道3號竹林交流道下→120縣道→123縣道→122縣道→省道台3線→竹49線即可抵達。,24 小時營業,{},"{'PositionLon': 120.99400329589844, 'PositionLat': 24.671199798583984, 'GeoHash': 'wsqh3730h'}",自然風景類,{},新竹縣,2023-07-13T01:40:49+08:00,2023-07-13T02:10:57+08:00
C1_376440000A_000128,六寮古道,入口位於「獅山旅遊服務中心」旁，沿途有野溪、客家聚落、古道遺跡及廢棄的煤礦，步道全程五點五八公里，大約三小時；4~5月桐花季節沿途油桐花如雪般片片掉落。由於未遭過度開發，保有完整之自然原始風貌，陡峭處不多，走來不會太費力，很適合全家出遊健行。,886-3-5809296,新竹縣峨眉鄉七星村六寮60-8號,1.開車從北二高竹林交流道竹東，沿台3線省道至北埔後，右轉直行峨眉循指標可抵。2.中山高頭份交流道接124線轉台3線省道往竹東方向，行至峨眉後右轉循指標可抵。,24 小時營業,{},"{'PositionLon': 121.02400207519531, 'PositionLat': 24.653600692749023, 'GeoHash': 'wsqh3bncx'}",自然風景類,{},新竹縣,2023-07-13T01:40:49+08:00,2023-07-13T02:10:57+08:00
C1_376440000A_000129,水濂橋步道,水濂橋步道是獅山地區迷人的一條步道。沿著得石子溪而行，溪畔有蒼蓊竹林，溪谷則有壺穴、清澈潭水、河川侵蝕造成的岩穴、峽谷景觀；景色多樣，路程短，路況又佳，走來相當舒適！,886-3-5800689,新竹縣峨眉鄉七星村六寮60-8號,國道3號竹林交流道下→接120縣道→右轉接123縣道→左轉接122縣道→右轉接臺3線→左轉接竹41線即達。,24 小時營業,{},"{'PositionLon': 121.02400207519531, 'PositionLat': 24.65519905090332, 'GeoHash': 'wsqh3bqfz'}",自然風景類,{},新竹縣,2023-07-13T01:40:49+08:00,2023-07-13T02:10:57+08:00
C1_376440000A_000130,金勇DIY番茄農場,園內經營項目有番茄家族主題農場，引進來自世界各國三十餘種番茄，不同形狀、不同顏色、不同營養價值之DIY採果及八彩甜椒園溫室立體準有機草莓園花卉展售區、葫蘆彩繪、客家米食DIY、擂茶、花卉DIY&hellip;等，提供豐富且多樣化田園採果樂，將農業生產、生態、生活結合，園區內免收門票且提供免費導覽解說，歡迎您的光臨指教，「金勇DIY農場」將是您假日休閒採果DIY的好去處。除了一般的牛番茄，還想見識一下世界上的其他珍奇品種，那麼就非得親自來關西的農場走上一遭。金勇番茄園是由曾經榮獲全國十大傑出農民神農獎的老闆彭金勇所經營，人如其名，是個擁有勇氣與創意的青年人，憑藉本身對農業的興趣，10多年前投入番茄種植行列。由於番茄的生長溫度為18~25度C，因此番茄園採取溫室水耕的種植方式。這裡的溫室水耕採水耕岩無土培植，可以控制溫度、水分及有效防止病菌生長，因此不但可以控制品質，更成功培育了許多在台灣不曾看過的品種。遊客一進入參觀，就像是進入了番茄魔法學校一樣，被眼前這些不同形狀與顏色各異的繽紛番茄給迷惑了。目前園區的番茄品種就多達20多種，來自世界各地像是日本、韓國、荷蘭、義大利、以色列、印度等等；其中以日本桃太郎引進最久，而具有瘦身功能的荷蘭黃金，這裡也是種植先驅。而其他像是國外相當受歡迎的荷蘭牛肉番茄、有番茄巨無霸之稱的日本波霸番茄等，種類繁多，許多人都邊採果邊參觀邊驚奇，讓番茄園裡多了幾分熱鬧情趣。在這些五花八門的番茄世界裡，還有許多是台灣唯一種植的番茄品種，如：荷蘭奶油、荷蘭檸檬、荷蘭芝麻綠，以及荷蘭奇異果等等，都是只有這裡才看得到的番茄家族成員之一，讓人見識到了番茄多元世界的神奇與奧妙。在這裡除了可以自行採果，還有提供番茄汁、番茄冰棒、番茄冰淇淋以及各式各樣美味又營養的番茄簡餐。花點時間與全家人在這享受採果樂趣與健康美食，度過快樂時光。,886-3-5870899,新竹縣關西鎮東光里16張2鄰35-1號,北二高關西交流道下左轉市區方向，經中山路左轉至關西高中旁右轉二百公尺即可到達,8:30~17:30,{},"{'PositionLon': 121.18199920654297, 'PositionLat': 24.78350067138672, 'GeoHash': 'wsqhvxdn3'}",休閒農業類,{},新竹縣,2023-07-13T01:40:49+08:00,2023-07-13T02:10:57+08:00
C1_376440000A_000131,高平蕃茄農場,在新竹縣道118線20.8K上，近新埔、關西段，以嚴選各式最新品種又兼具美味健康的蕃茄、甜椒等一級農產品，為主要採果營業項目的高平蕃茄農場，是一個通過吉園圃認證的栽種園區，鮮採的果實讓人吃得更放心。為了方便採果，又分為兩處經營；其中，高平一場（即原高平農園，目前僅於假日開放）位在新竹縣關西鎮大同里，行經關西交流道往新埔方向約2公里處的右邊簸坎上方，種植面積約一甲；高平二場（產季每日開放）位在新竹縣關西鎮石光里（118線19.8K），種植面積比高平一場大了許多。兩處農場的蕃茄和彩色甜椒，產季都在每年10月至隔年5月期間，以重量計價，平日採果的遊客，不妨多多蒞臨新開設的高平二場，享受更為寬敞的採果空間與新穎的設備服務。&nbsp;高平農場裡，最受遊客喜愛的採果種類，就是又大又美的桃太郎蕃茄，以及紅、黃二種小蕃茄，都非常甜美好吃。他們以網室土耕，特別採用荷蘭進口的專用土壤進行栽培；土壤不僅需要每年更換，而且成本較高，栽培方法較為繁複，平日即使非產季，也必須進行各項園藝管理工作，如：土壤環境維護、清潔，但如此一來，卻能使栽培出來的蕃茄口感，超越傳統種植的蕃茄品質，層層的把關更使得產銷的品質提昇並且更有保障，鮮果滋味不但多汁又味美，還能讓人吃得更健康又更自然。&nbsp;此外，農園除了在門市提供遊客試吃，也提供電話預訂宅配的服務，並增設農特產品展售區、彩繪DIY、打麻糬&hellip;等一系列親子活動。不論是農場的經營與休閒內容，都值得親臨參觀體驗。果園皆為網室栽培，種植許多不同品種又兼具美味、安全、健康的番茄，除了番茄外，還有栽種彩色甜椒、玉米、小黃瓜、以及季節性蔬菜。提供消費者最新鮮的現採滋味，而親手採摘番茄的樂趣，最適合全家大小一起來參與。體驗活動：除了現採番茄外，農場也提供彩繪番茄寶寶DIY、客家擂茶、麻粸DIY。現採番茄：1斤60~100元不等彩繪DIY：100~200元擂茶：一份150元麻粸DIY：一份130元,886-3-5873862,新竹縣關西鎮石光里,關西交流道出口下交流道，朝關西/新埔前進→正義路/118縣道向左轉,09:00-17:00,{},"{'PositionLon': 121.13999938964844, 'PositionLat': 24.80940055847168, 'GeoHash': 'wsqjhs7mn'}",休閒農業類,{},新竹縣,2023-07-13T01:40:49+08:00,2023-07-13T02:10:57+08:00
C1_376440000A_000132,櫻花園休閒農莊,位於內灣客家民俗文物館的斜對面，設有庭園咖啡雅座，提供各式平價的冷熱咖啡、冰品、道地客家美食四炆四炒尤具特色。這裡有「舊時代」種類繁多的古農具如牛車、牛軛、水龍、舂臼-麻糬製做工具、木馬、台車&mdash;運木材工具、DIY教室等。園主人為在地木材及林業界的前輩，對於木馬道、台車等運木材工具以及作業情形有生動詳盡的解說。適合做為學校戶外教學體驗之休閒農莊，小朋友來此可做多項農村生活體驗。,886-3-5849501,橫山鄉內灣村大同路60號,國道1號→新竹交流道→由新竹（頭前溪南岸）「東西向快速公路」往東直走到底→再往左轉直走至內灣→注意左側有「櫻花園休閒農莊」招牌指標,"週一～週四 11:00-17:00,週五～週日 10:00-20:00",{},"{'PositionLon': 121.17900085449219, 'PositionLat': 24.70599937438965, 'GeoHash': 'wsqht3xfg'}",休閒農業類,{},新竹縣,2023-07-13T01:40:49+08:00,2023-07-13T02:10:57+08:00
C1_376440000A_000133,竹語茶蘆蕃薯伯,民國86年代政府鼓勵農民轉型，蕃薯產銷班班長莊謙謹，於民國88年投入客家文化的傳承工作，以昔日務農習得的精湛竹編手藝，成立竹編展示館保存客家文化，全家人一同投入經營竹語茶蘆的農村生態旅遊。行程內容包括客家文化、家族史、建築導覽，老農具展示，牛車之旅，還有烤地瓜、草編、竹編教學&hellip;，未來還希望擴大發展民宿，讓南埔成為農村田園旅遊的代表景點。,886-3-5801096,新竹縣北埔鄉南埔村4鄰南埔38號,國道三號竹東交流道下，接省道台3線往北埔方向，直行至82.3公里處左轉，經過約60公尺的下坡後，即可抵達南埔。,09:00-17:00,{},"{'PositionLon': 121.04199981689453, 'PositionLat': 24.69219970703125, 'GeoHash': 'wsqh6rh47'}",休閒農業類,{},新竹縣,2023-07-13T01:40:49+08:00,2023-07-13T02:10:57+08:00
C1_376440000A_000134,福樂休閒漁村,新竹區漁會烏魚養殖班位於拔子窟海埔新生地，突破性的純雌化養殖技術，大大提升烏魚產量與產值，使拔子窟成為全國最先採收，同時也是北部最具規模的烏魚養殖區。拔子窟擁有得天獨厚的優質水域，所生產的烏魚子經陽光充分日曬，再輔以新竹特有的「九降風」自然風乾，質冠全台。,886-3-5562690,新竹縣竹北市鳳岡路五段155巷65弄86號,1.中山高91K竹北交流道下→往竹北、新竹市方向→台1線省道接68東西向快速道路至南寮出口→北上西濱公路台61線→至拔子窟沿指標即達。 2.北二高90K出口竹林交流道下→接68東西向快速道路至南寮出口→北上西濱公路台61線→至拔子窟指標即達。,10:30-21:00,{},"{'PositionLon': 120.94300079345703, 'PositionLat': 24.86240005493164, 'GeoHash': 'wsqj2nh1b'}",休閒農業類,{},新竹縣,2023-07-13T01:40:49+08:00,2023-07-13T02:10:57+08:00
C1_376440000A_000135,鼎豐養蜂場,四季的花序不同，蜜蜂會採不同的花，龍眼花蜜是最常見且暢銷的口味，另一種滋味獨特的百花蜜，主要蜜源就是咸豐草，也許很 多人會說沒聽過，但說到田野間一種扎人、刺球會黏著你跑的植物，可能就有印象了， 俗名鬼針草的咸豐草，因著這種特性，也有人索性叫它「恰查某」。咸豐草的花朵是白色花瓣、黃色花蕊，莫看 它平常煩人，釀出來的蜜可是很好喝的！因為咸豐草附近通常有其 他種花，蜜蜂乾脆百花齊納，故又稱「百花蜜」。春季才產的龍眼花蜜，口感香醇濃厚，淺嘗一口即甜蜜回甘。 百花蜜則四季皆有，味道較為淡雅，但花香較濃，清香甜潤中帶點 微酸，生津止渴，可別以為是壞掉哦！含有天然果糖、葡萄糖及酵 素的蜂蜜，可被人體直接吸收，所以有愈來愈多人用以取代糖，老 闆建議可以泡溫冷開水長期飲用，天氣冷時結的白晶可當果醬抹土 司或餅乾，作菜料理使用也很健康；若您喜愛嘗新，也可混合兩種 蜜，開發創意口味！因市面上蜂蜜產品眾多，但品質參差不齊，所以王老闆還特 地教了兩個簡單的訣竅，供讀者購買時分辨真假蜂蜜：純蜂蜜色澤 深，不易透光，可在瓶後放手指測試可見度，不過百花蜜顏色本來 就較淺；也可使用第二種方法：搖晃蜂蜜瓶罐，質純的蜂蜜會產生 綿密氣泡，人工稀釋的則氣泡較少，且泡泡一下就散開了。老闆表示，即使是同一批蜜蜂，水源、土壤、氣候的不同， 都會影響蜜的品質和口感，全憑數十年經驗。出產的蜂蜜水份不到 20%，貨真價實的「純」蜂蜜，讓他得到了竹縣龍眼蜂蜜比賽的頭 等獎殊榮。詢及養蜂秘訣，自產自銷的老闆兩手一攤說沒有撇步， 其實懂得順應天序，就能得到大自然最豐盛的回饋。,886-3-5557268,新竹縣竹北市新溪街145號,國道1號的 91-竹北 號出口下交流道，繼續走光明六路。開到新溪街,09:00-21:00（週日公休）,{},"{'PositionLon': 120.99299621582031, 'PositionLat': 24.833900451660156, 'GeoHash': 'wsqj32b7v'}",休閒農業類,{},新竹縣,2023-07-13T01:40:49+08:00,2023-07-13T02:10:57+08:00
C1_376440000A_000136,照門休閒農業區,九芎湖照門休息農業區以『美麗新照門』榮獲有農業奧斯卡之稱的「2007十大經典農漁村」，是個盛產水果及柿餅的農村。有九條步道，早期為聯外道路，後轉型為自然生態步道，其中以觀南、霽月、飛鳳等步道最有特色。因自然生態未受破壞，步道沿途可發現獨角仙、蝴蝶及五色鳥等多樣化生態。附近知名旅遊景點有南園、義民廟、六福村主題遊樂園等。,886-3-5899606,新竹縣新埔鎮六鄰162號,二高關西交流道下接118縣道往新埔方向→於115縣道27K處左轉,未提供,{},"{'PositionLon': 121.10600280761719, 'PositionLat': 24.848100662231445, 'GeoHash': 'wsqj7g6ww'}",休閒農業類,{},新竹縣,2023-07-13T01:40:49+08:00,2023-07-13T02:10:57+08:00
C1_376440000A_000137,金谷農場,位於新埔照門休閒農業區，富是一個山林、花草、藝術、人文、生態、心靈SPA的休閒農場，野溪、農塘、山巒疊翠農村景色恬靜自然。金谷農場是九芎湖休閒園區最具規模的農場，園區內主要步道有觀南步道、霽月步道、九福步道，油桐花季節藹藹白雪、桐雪紛飛，是每年四、五月欣賞夏日雪的好地方。園區農產尚有高接梨、有機蔬菜、竹筍&hellip;等，可供蔬果採摘。農場營業項目有：親子童玩、花卉培植、池邊餵魚區、庭園咖啡館、藝術DIY、精緻燒烤、特色風味套餐、客家小吃、生態觀察及藝術品交流&hellip;等。,886-3-5899625,新竹縣新埔鎮照門里九芎湖15-1號,1.北二高關西交流道下→往新埔方向走118縣道→118轉115縣道往九芎湖、楊梅方向在28.2公里左轉（26.5公里處進入照門休閒農業區）→轉竹15線（進入九芎湖休閒區）→金谷農場。2.北二高竹林交流道下→往寶石、新埔方向走115縣道穿過118縣道→繼續115縣道往九芎湖、楊梅方向在28.2公里左轉（26.5公里處進入照門休閒農業區）→轉竹15線（進入九芎湖休閒區）→金谷農場。,平日：08:30-17:30／假日：08:30-18:00,{},"{'PositionLon': 121.10700225830078, 'PositionLat': 24.863800048828125, 'GeoHash': 'wsqj7y76j'}",休閒農業類,{},新竹縣,2023-07-13T01:40:49+08:00,2023-07-13T02:10:57+08:00
C1_376440000A_000138,周家庄觀光農場(休憩小棧),位於照門里的九芎湖休閒農場內，本區域是水保局規劃轉型成功的示範農村，客家人將凹地稱之為「湖」，故九芎湖為一處地名並不是真正的湖泊，進入「周家庄觀光農場」一眼望去是無盡的綠，身處於此就好似一處綠森林，更成為新竹地區最悠閒、清新的後花園。,886-3-5890771,新竹縣新埔鎮照門里六鄰九芎湖18號,1.國道一號南下：至楊梅交流道下→右轉接台一線至楊梅→左轉往新埔115線27k處→右轉進入九芎湖→續行約1.2公里即可抵達。2.國道一號北上：至竹北交流道下右轉→第二個紅綠燈左轉117線→118線右轉往新埔→續接115線左轉往楊梅至27k處→左轉進入九芎湖→續行約1.2公里即可抵達,觀光採果非假日請事先電話預約,{},"{'PositionLon': 121.10600280761719, 'PositionLat': 24.85070037841797, 'GeoHash': 'wsqj7gfty'}",休閒農業類,{},新竹縣,2023-07-13T01:40:49+08:00,2023-07-13T02:10:57+08:00
C1_376440000A_000139,陳家農場,陳家農場位於九芎湖富麗農村最盡頭的山坡上，餐廳、果園及夏天的獨角仙，是農場主要賣點。餐廳提供客家美食及擂茶，果園以夏季的高接水梨為主。至於獨角仙，因農場果園有數十棵獨角仙最愛的光臘樹，每年六七月，數以千計的獨角仙、鍬形蟲等甲蟲類在樹幹上活動，成為一個很好的生態教學場所。&nbsp;另外，來到陳家農場，園主陳新源會親自為小朋友就地取材，免費教學製作已失傳的竹笛，還有狗尾草製作栩栩如生的小狗，很有趣喔！&nbsp;,886-3-5890034,新竹縣新埔鎮照門里九芎湖6鄰29號,竹北交流道下→轉光明六路東往芎林→左轉莊敬北路直行→接118線道右轉往新埔，於13.4公里處左轉往九芎湖→接115線道往照門休閒富麗農村、楊梅方向，在26.5公里處左轉進入九芎湖休閒區（竹15線）→直行1.7公里即達陳家農場。,平日09:00-17:00  假日09:00-18:00(週一公休，接受團體預約),{},"{'PositionLon': 121.1050033569336, 'PositionLat': 24.86199951171875, 'GeoHash': 'wsqj7vczx'}",休閒農業類,{},新竹縣,2023-07-13T01:40:49+08:00,2023-07-13T02:10:57+08:00
C1_376440000A_000140,林家果園,在箭竹窩路旁的石砌拱橋對面，有一整片生意盎然的果園，如果你正好在夏季來到此處，果樹上滿是結實纍纍的水梨，坡旁佇立一棟漂亮的農莊，讓人忍不住想進去一探究竟。箭竹窩以米食著稱，除新埔粄條外，也有多種想 不到的美味米食，和各式體驗活動，美食與樂趣結合的巧思，讓遊客大呼過癮。以果園為名的林家在這米食村內，顯得挺浪漫，負責人的真誠更是溢於言表，幾句話便忍不住掛心果園，一會兒摸摸水梨，轉身又叨唸著雜草生長快速，像父親擔心孩子一般。放眼望見的水果都不同，連望不見的土地，也滿是他的心肝水果，林班長耐心介紹著「這一株是柑橘，那幾株是水梨，喔！這一株是葡萄柚，還有這顆應景的柿子」就像在晚點名自己的孩子一般，每株都瞭若指掌。果季時來一趟，即便人潮湧來卻仍採不完的，便是林家果園了。,886-9-32176181,新竹縣新埔鎮照門里4鄰箭竹窩19號,國道1號楊梅交流道出口下交流道＞朝埔心/楊梅前進＞ 中山北路一段/台1線向右微轉＞ 繼續沿著台1線前進＞秀才路/115縣道向左轉繼續沿著115縣道前進＞竹11-1鄉道向右轉 ＞新竹縣新埔鎮照門里,全年開放（需先預約）,{},"{'PositionLon': 121.10099792480469, 'PositionLat': 24.853500366210938, 'GeoHash': 'wsqj7srn1'}",休閒農業類,{},新竹縣,2023-07-13T01:40:49+08:00,2023-07-13T02:10:57+08:00
C1_376440000A_000141,富茂蘭園,富茂蘭園故名思義，就是以種植蘭花為主，老闆全家皆投入蘭花的栽種與教學，為地方帶來繁榮與願景。蘭園佔地3000多坪，有一片草坪，可供小朋友玩耍。,886-3-5895606,新竹縣新埔鎮褒忠路411巷122號,從國道1號的 83-湖口 號出口下交流道，走光復路和117縣道前往新埔鎮的褒忠路411巷,"09:00-12:00, 13:00-17:00（週日 09:30-12:00, 13:30-16:00）",{},"{'PositionLon': 121.03299713134766, 'PositionLat': 24.842899322509766, 'GeoHash': 'wsqj64t83'}",休閒農業類,{},新竹縣,2023-07-13T01:40:49+08:00,2023-07-13T02:10:57+08:00
C1_376440000A_000142,金漢柿餅教育園區,若要瞭解完整的柿子生產故事與知識，位於新埔鎮旱坑里柿餅專業區內的金漢柿餅教育園區，早在民國36年就創立，金漢柿餅負責人劉興武以父名「金漢」為家業命名，參加解說行程，可以充份體驗柿餅製作過程，瞭解台灣傳統產業的打拼精神，園區也提供柿子加工現場參觀、品嚐，以及紅柿、水柿、捏柿餅等DIY體驗活動，除了製作柿餅外，金漢柿餅二樓可以容納200~300人的柿染手作教室，但須事先預約。,886-3-5892680,新竹縣新埔鎮旱坑里旱坑路一段501號,從國道1號的 69-楊梅 號出口下交流道，走115縣道前往新埔鎮的旱坑路一段/竹13鄉道,08:00-17:00,{},"{'PositionLon': 121.0780029296875, 'PositionLat': 24.844200134277344, 'GeoHash': 'wsqj74wrc'}",休閒農業類,{},新竹縣,2023-07-13T01:40:49+08:00,2023-07-13T02:10:57+08:00
C1_376440000A_000143,新寶觀光果園,新寶觀光果園位於新埔鎮，離北二高芎林交流道約4公里，交通非常方便，並備有大型停車場。果園開放採果，設有果園步道、烤肉區、賞蓮區、網室有機蔬菜，並有各種農特產品展售。本果園風景怡人、秀麗幽雅，在瀏覽園區的同時，能提供果樹戶外教學，不但能得到採果樂，更能吸收種植果樹的各項知識。,886-9-21697832,新竹縣新埔鎮寶石里文德路1段212-1號,從國道3號的 79-關西 號出口下交流道，繼續走118縣道。行駛到新埔鎮的文德路三段/115縣道,假日 08:30-17:00,{},"{'PositionLon': 121.08499908447266, 'PositionLat': 24.797000885009766, 'GeoHash': 'wsqj565ku'}",休閒農業類,{},新竹縣,2023-07-13T01:40:49+08:00,2023-07-13T02:10:57+08:00
C1_376440000A_000144,巨埔農場,位於新埔鎮巨埔里宵裡溪南岸龍新公路旁，循著上坡道路前行，首先抵達的是農場展示中心，販賣農場生產的有機蔬菜。再沿著小徑蜿蜒而上，就到了以客家美食為主的餐廳。餐廳左側有一條環山步道，兩旁綠樹夾道、花木扶疏，不少的蔬果及植物值得您細心品味，除了沿途的花卉欣賞外，也可以參觀育苗中心。環繞步道一周大約50分鐘腳程，很適合都市遊客。 &nbsp;巨埔農場主要營業內容有客家美食、草花栽培，香草植物，有機蔬菜，休閒品茗等，每年4-5月，還可觀察螢火蟲生態。 &nbsp;特產介紹：新埔美食、草花栽培、香草植物、休閒品茗、有機蔬菜。,886-3-5899612,新竹縣新埔鎮新龍路752巷2號,從國道1號的 69-楊梅 號出口下交流道，繼續走縱貫公路/台1線前往目的地新埔鎮,未提供,{},"{'PositionLon': 121.12699890136719, 'PositionLat': 24.84149932861328, 'GeoHash': 'wsqjk63bp'}",休閒農業類,{},新竹縣,2023-07-13T01:40:49+08:00,2023-07-13T02:10:57+08:00
C1_376440000A_000145,上品香果園,新竹縣新埔鎮南平里一帶是新埔鎮種植水梨最密集的地方，上品香果園便是其中之一。上品香果園有豐水梨、蜜雪梨（4029）及新興梨三種品種，豐水梨約７月中旬到７月底採收，約可賣到８月。蜜雪梨約７月中旬到７月底採收，約可賣到８月初。新興梨約７月底到８月底採收，可以賣到雙十節左右。因為氣候因素，以及經常提早賣完的關係，下單前最好先電話連絡。,886-9-10172109,新竹縣新埔鎮南平里南平路667巷39號,關西交流道（79k）下→右轉118線往新埔→直走經過新埔鎮公所之後的三叉路右轉往義民廟，經過義平橋之後，看到往南平里的路口右轉直走，看到梨村招牌的路口左邊上山，第一個大鐵門左轉進入，再左轉即可抵達。,06:30–11:20（週一公休）,{},"{'PositionLon': 121.0719985961914, 'PositionLat': 24.843599319458008, 'GeoHash': 'wsqj749uq'}",休閒農業類,{},新竹縣,2023-07-13T01:40:49+08:00,2023-07-13T02:10:57+08:00
C1_376440000A_000146,新埔梨村農場,梨村農場位於新竹縣新埔鎮南平里水梨生產專業區，栽植蜜雪梨、豐水梨及新興梨，產季約從7至9月，除了到梨村親自選購水梨之外，也提供宅配服務，並有禮盒包裝，自用送禮兩相宜。梨村並規劃有半日遊行程，包含水梨生態導覽解說、悠閒下午茶等，另有手工製品展售區，是一處結合選購水梨、參觀農場、賞景休憩的綜合空間。無開放現場採果,886-9-32114572,新竹縣新埔鎮南平路667巷41號,竹北交流道(91k)下→南下右轉、北上左轉光明六路往竹北→第一個紅綠燈右轉縣政二路直走，到118線中正東路右轉往新埔→經過遠東紡織、新埔大橋、加油站之後的三叉路左轉往義民廟，經過義平橋之後，看到往南平里的路口右轉直走，看到梨村招牌的路口左邊進入，第一個大鐵門左轉進入即達梨村農場。,平日：08：00～17：00，產季中無休。假日：08：00～18：00,{},"{'PositionLon': 121.0719985961914, 'PositionLat': 24.848499298095703, 'GeoHash': 'wsqj759by'}",休閒農業類,{},新竹縣,2023-07-13T01:40:49+08:00,2023-07-13T02:10:57+08:00
C1_376440000A_000148,福祥仙人掌 多肉植物園,成立至今已有三十年光景的福祥植物園，早年以販售大宗仙人掌植株為主，至政府宣令改制週休二日後，農場也順應轉型為全台罕見的專業仙人掌教育農場。福祥多肉植物園是全台最具規模的仙人掌植物園，佔地五公頃多，園區內共有7000多個品種的仙人掌，實為全台之冠。福祥多肉植物園的主人---嚴永祥老師對於仙人掌的喜愛與在仙人掌世界裡已浸潤至少25年的經驗，堪稱為仙人掌的權威，許多鄰近的生態園區都會至此向嚴老師請益並汲取經驗，現在福祥植物園更與台中科學博物館合作，成為科博館仙人掌教育園區的分館，在仙人掌品種鑑定、教學上更是相得益彰。福祥多肉植物園現有幾個主題園區，分別為仙人掌熱帶景觀區、水源植物自然生態淨化區及水生植物區、藥用植物區，另外尚有八座的仙人掌培植溫室、大型會議教學簡報室，整個園區規劃的非常完善。,886-3-5883218,新竹縣新埔鎮4鄰38號,從國道1號的 69-楊梅 號出口下交流道，沿縱貫公路/台1線、祥喜路/竹12鄉道和竹13鄉道前往目的地新埔鎮,08:00~17:00(周一休園),{},"{'PositionLon': 121.09300231933594, 'PositionLat': 24.85420036315918, 'GeoHash': 'wsqj7s94p'}",休閒農業類,{},新竹縣,2023-07-13T01:40:49+08:00,2023-07-13T02:10:57+08:00
C1_376440000A_000149,味衛佳柿餅觀光農場,新埔柿餅已有百年歷史，尤其是旱坑因地理環境，特別乾旱，加上新竹特有強勁、乾燥的九降風，是製作柿餅的最佳天然條件。而我們依舊遵循古老的陽光曝曬、九降風風乾及木材炭烤，把古早甜而不膩、香Q的好味道，傳承下來。而日曬柿餅更是秋收最美的風景，農場後方山坡地栽種有兩棵柿子樹，遊客可以自由參觀、拍攝及學習。味衛佳柿餅觀光農場以教導製作柿餅及柿果生態教學為名，充分呈現柿餅的製作過程，甚至保留了200 多棵柿子樹不採果，才能做生態教學活動。每年入秋後，滿山紅咚咚的柿子，配合生態環境，那「碧雲天、黃葉地」加上「北風號、柿子紅」的景象，是親子同遊深入體驗柿子園的最佳去處。這裡還有柿染和柿子布娃娃的製作，有趣又好玩！,886-3-5892352,新竹縣新埔鎮旱坑路一段283巷53號,1.中山高速公路竹北交流道下→光明六路東一段→左轉自強北路→118縣道右轉往新埔，進入中正路。鎮公所前方100公尺，天主堂左轉，上坡接旱坑路。2.北二高，北上：竹林交流道下往新埔；南下：關西交流道下接中正路。新埔分局前方30公尺，右轉上坡接旱坑路。,08:00-18:00,{},"{'PositionLon': 121.07599639892578, 'PositionLat': 24.839599609375, 'GeoHash': 'wsqj71uv5'}",休閒農業類,{},新竹縣,2023-07-13T01:40:49+08:00,2023-07-13T02:10:57+08:00
C1_376440000A_000150,埤塘窩自然農莊,往九芎湖一路上行，未抵達金谷農場前有一條右彎小路，就是埤塘窩水生植物教育園區。以預約客為主的埤塘窩之前是水稻田，後來改種果樹，但因為老闆黃劉金奎年紀大，加上人口外流，圳道與池塘也漸失功能，不忍心愛土地就這樣荒廢，於是與社區一起進行改造。原來一甲的面積，利用水塘環境種植起水生植物，園區內還種植昆蟲喜愛的蜜源植物，像是穗花棋盤腳、馬兜鈴等，讓蝴蝶在這裡輕鬆覓食；還有光蠟樹來提供獨角仙適合的生態。整個園區美麗又乾淨，加上隨處都可以與昆蟲交朋友，處處充滿驚奇，讓這裡成為小朋友最愛的尋寶祕境。,886-3-5899606,新竹縣新埔鎮照門里九芎湖2號,平日：08:30-17:00,{},"{'PositionLon': 121.10600280761719, 'PositionLat': 24.85409927368164, 'GeoHash': 'wsqj7ud9w'}",休閒農業類,{},新竹縣,2023-07-13T01:40:49+08:00,2023-07-13T02:10:57+08:00
C1_376440000A_000151,十全農園,提供採草莓的服務，據主人說只提供價日，平日不開放比維持草莓品質。,886-9-32113664,新竹縣關西鎮大同里(118線道上),國道3號關西交流道下＞延台118線道上,09:00-17:00,{},"{'PositionLon': 121.1500015258789, 'PositionLat': 24.805700302124023, 'GeoHash': 'wsqjhgdxx'}",休閒農業類,{},新竹縣,2023-07-13T01:40:49+08:00,2023-07-13T02:10:57+08:00
C1_376440000A_000152,錦山觀光農園,位於六曲窩的錦山觀光果園，空氣新鮮占地廣大，園區內農產品採有機栽種，且園內的無籽桶柑品質優良，網路上的評價高，入園採果只需要30元，即可享受桶柑「吃到飽」，是適合全家出遊的好去處。,886-3-5478188,新竹縣關西鎮錦山里14鄰167號,國道3號關西交流道下＞接「台118號」＞竹29線道右轉＞直行即可到達,08:00-17:00,{},"{'PositionLon': 121.23200225830078, 'PositionLat': 24.77400016784668, 'GeoHash': 'wsqhytyrn'}",休閒農業類,{},新竹縣,2023-07-13T01:40:49+08:00,2023-07-13T02:10:57+08:00
C1_376440000A_000153,阿根草莓園,全台灣最有名氣的草莓園在大湖，可是很多人不知道， 關西就有草莓園，而且離關西交流道很近，不需要長途跋涉， 在台118縣上，關西往新埔的方向，阿根草莓園即是其中頗富盛名的一家。,886-9-28305348,新竹縣關西鎮正義路572號,1.北二高速公路→關西交流道(往新埔方向)→右轉直走約6公里處2.中山高速公路→竹北交流道→竹118縣京新埔→約12公里處,假日 09:30-17:00,{},"{'PositionLon': 121.12699890136719, 'PositionLat': 24.814800262451172, 'GeoHash': 'wsqjhm3ux'}",休閒農業類,{},新竹縣,2023-07-13T01:40:49+08:00,2023-07-13T02:10:57+08:00
C1_376440000A_000154,關西鎮農會仙草加工廠,近年來以仙草聞名的關西鎮，可是讓逐漸沒落的農業生產，重新找到最具特色的第二春。目前仙草栽種於新竹縣關西鎮、芎林鄉，苗栗縣銅鑼、三義、桃園縣新屋鄉，和花蓮縣鳳林鄉。仙草是外型像薄荷葉般小巧翠綠、略帶絨毛的台灣原生植物。仙草每年自3~4月開始種植至當年9~10月成熟後採收。但是就屬關西鎮的種植面積最大，且經過桃園農業改良場指導加工技術的改進，研發出多款的仙草產品。,886-3-5872010,新竹縣關西鎮北山里高橋坑6號,北二高速公路關西交流道下右轉往新埔方向→正義路行駛300公尺處左側即達,平日：08:00-17:00／假日：09:00-17:00,{},"{'PositionLon': 121.16200256347656, 'PositionLat': 24.803300857543945, 'GeoHash': 'wsqjj573x'}",休閒農業類,{},新竹縣,2023-07-13T01:40:49+08:00,2023-07-13T02:10:57+08:00
C1_376440000A_000155,慈心農場,農場原名為牧新苑，於八十六年元旦改為關西慈心全有機生態教育農場，放棄化學農藥及化學肥料，完全改以有機農耕。,886-3-5877050,新竹縣關西鎮仁和道路10號,國道3號在關西交流道(79K)下→接118線正義路左轉往關西→到中山路左轉直走接中山東路→經過東安古橋、迎風館、關西高中直走→到叉路口順著東山農園指標左轉，沿著路標即達,未提供,{},"{'PositionLon': 121.19999694824219, 'PositionLat': 24.787399291992188, 'GeoHash': 'wsqjjbrjh'}",休閒農業類,{},新竹縣,2023-07-13T01:40:49+08:00,2023-07-13T02:10:57+08:00
C1_376440000A_000156,福田草莓園,關西鎮栽種草莓面積約有18公頃左右，主要分佈在縣道118線公路旁，台三線公路旁亦有栽種，是全新竹縣最大的草莓耕種地。關西的草莓栽種不以土耕為限，主要是以穴植管法培育，果實更大、品質更佳。,886-921-873603,新竹縣關西鎮高橋坑11鄰13號 (118線道上),國道3號關西交流道下＞延台118線道上,週六-日09:00-17:00,{},"{'PositionLon': 121.15799713134766, 'PositionLat': 24.80470085144043, 'GeoHash': 'wsqjj589c'}",休閒農業類,{},新竹縣,2023-07-13T01:40:49+08:00,2023-07-13T02:10:57+08:00
C1_376440000A_000157,高品蕃茄農園,關西鎮栽種草莓面積約有18公頃左右，主要分佈在縣道118線公路旁，台三線公路旁亦有栽種，是全新竹縣最大的草莓耕種地。關西的草莓栽種不以土耕為限，主要是以穴植管法培育，果實更大、品質更佳。,886-9-32176751,新竹縣關西鎮石岡子路22號,國道3號關西交流道下＞延台118線道上,09:00-17:00,{},"{'PositionLon': 121.14900207519531, 'PositionLat': 24.805999755859375, 'GeoHash': 'wsqjhgf12'}",休閒農業類,{},新竹縣,2023-07-13T01:40:49+08:00,2023-07-13T02:10:57+08:00
C1_376440000A_000158,大羅草莓園,關西鎮栽種草莓面積約有18公頃左右，主要分佈在縣道118線公路旁，台三線公路旁亦有栽種，是全新竹縣最大的草莓耕種地。關西的草莓栽種不以土耕為限，主要是以穴植管法培育，果實更大、品質更佳。,886-3-5874160,新竹縣關西鎮11鄰21號,國道3號關西交流道下＞延台118線道上,未提供,{},"{'PositionLon': 121.16000366210938, 'PositionLat': 24.80459976196289, 'GeoHash': 'wsqjj5d12'}",休閒農業類,{},新竹縣,2023-07-13T01:40:49+08:00,2023-07-13T02:10:57+08:00
C1_376440000A_000159,元馨柿餅,元馨柿餅現今傳承到了第四代，使用加工製法秉持家族傳承古早的技法，以木炭煙燻柿餅，讓澀水完全蒸發，獨特的香味才得以散發出來，這就是「元馨柿餅批發零售加工站」特有的甜味與香氣。,886-3-5884348,新竹縣關西鎮東平里4鄰大旱坑40之1號,從國道3號的 79-關西 號出口下交流道，沿正義路/118縣道前往目的地,08:00-22:00,{},"{'PositionLon': 121.13099670410156, 'PositionLat': 24.867000579833984, 'GeoHash': 'wsqjkquuu'}",休閒農業類,{},新竹縣,2023-07-13T01:40:49+08:00,2023-07-13T02:10:57+08:00
C1_376440000A_000160,鹿寮坑段木香菇農場,農場位於新竹縣芎林鄉，主要生產無汙染有機段木香菇。農場裡的生態十分的豐富，有數十種的菌類，由於是有機無汙染栽種，所以相對之下農園裡青蛙、蝦虎、螢火蟲等等生物也是多得數不清。往農園裡走約30公尺，有一巨木「九丁榕神木」，樹下有一座當地居民的精神信仰──福德祠。農場採多元化經營，結合生態親子農物體驗DIY等，讓遊客享受豐富而有層次的旅遊。此外在油桐花遍野滿地的五月季節，來到鹿寮坑段木香菇農場，除了能體驗採香菇的樂趣之餘，還能欣賞美麗的花海。專門生產無污染的有機段木香菇，為台灣大學香菇研究與觀察的戶外教室。以段木為培育香菇的介質，鹿寮坑的段木香菇肉厚肥美，香甜多汁，完全沒有農藥殘留問題，遊客可以放心大啖。鹿寮坑段木香菇農場，為保存原始濃郁的菇味，執著堅持採用傳統「段木栽殖工法」專職栽培，進而配合農業轉型融合周邊果農開創休閒、教學、食療、親職DIY、農務體驗等多功能的農村生活，達到寓教於樂的好所在。,886-3-5932691,新竹縣芎林鄉華龍村5鄰187號,二高下竹林交流道往竹東、橫山方向→走竹120縣道經五秀人行於17.2公里處左轉進入華龍村→循線前進約3公里→至華龍村右轉竹26線鄉道3公里處即抵。,08:00–18:00,{},"{'PositionLon': 121.13999938964844, 'PositionLat': 24.747299194335938, 'GeoHash': 'wsqhu957q'}",休閒農業類,{},新竹縣,2023-07-13T01:40:49+08:00,2023-07-13T02:10:57+08:00
C1_376440000A_000161,順翌休閒馬場,順翌馬場位於芎林鄉大華技術學院旁)，創辦人曾順麟先生於2004年7月的時候，將經營快四年多的馬場重新整修，有多樣的設施：室外馬場、小型室內馬場、野外騎馬區、美食區、烤肉區、採果區、賞馬區、可愛動物區、精油SPA區&hellip;.等等。,886-3-5121671,新竹縣芎林鄉中坑村10鄰3號,芎林交流道下往芎林方向→經過廣達加油站的一個紅綠燈右轉大華技術學院→右前行1500公尺→前行至米店處小路依指標右轉→再前行500公尺→左下斜坡前進→順翌馬場請依指標進入,未提供,{},"{'PositionLon': 121.10299682617188, 'PositionLat': 24.781400680541992, 'GeoHash': 'wsqhgz2d0'}",休閒農業類,{},新竹縣,2023-07-13T01:40:49+08:00,2023-07-13T02:10:57+08:00
C1_376440000A_000162,深井村茶花園區,茶花，為新竹縣縣花，其耐寒、持久，樹姿優美，柔媚的花朵千變萬化、嬌艷可愛，不帶絲毫千金味，是優雅的化身，在寶山鄉有個隱居世外的茶花村。深井村的邱氏兄弟，多年來投入茶花培育，品種多達近千種，茶花盆景與花苗更是數以萬計。 邱家茶花園遍佈深井村，將原本沈寂的小村打造成有如茶花綻放嬌豔光彩的深井茶花園村。在農曆年前後盛開的時節，走在花園裡，緋紅、純白、嫩粉、淺橘花團錦簇繽紛眩目，有種像被茶花淹沒的錯覺，望之令人心花怒放，流連忘返。&nbsp;,886-3-5200090,新竹縣寶山鄉深井三路213號,從國道1號的 95B-新竹 號出口下交流道，走園區二路前往寶山鄉的雙園路二段/竹82鄉道,未提供,{},"{'PositionLon': 120.96199798583984, 'PositionLat': 24.746700286865234, 'GeoHash': 'wsqhb8czf'}",休閒農業類,{},新竹縣,2023-07-13T01:40:49+08:00,2023-07-13T02:10:57+08:00
C1_376440000A_000163,峰城炭窯 (木炭的家),寶山境內多丘陵，丘陵地上相思樹木成林，而相思樹正是製作木炭的上好原料，砍下的木材需晾置一個月以上，再以粗幹做炭材、細枝做燃料，放進窯中悶烤5-6個星期，才能製成無煙又耐燒的高品質木炭峰城炭窯結合了公家機關與社區力量，共同以傳統工法打造高優質木炭，在木材歷經窯中悶烤5-6個星期後，相較於現代技術大量生產及進口的木炭，峰城炭窯所燒出來的木炭顯得特別耐燒、少煙，每逢開窯時刻，空氣中飄散木頭燃燒的香味，現場冒煙的景象總是吸引者喜好攝影者前往拍攝；至今峰城炭窯仍然以傳統土窯製作木炭，讓現代人體驗當驗當時先祖克勤克儉的精神，此炭窯又名「木炭的家」，實在是再適合不過了！,886-9-31150826,新竹縣寶山鄉峰城路8巷20號,國道3號寶山交流道(寶山 科學工業園區)出口下交流道，朝大雅路前進 →大雅路向左轉 →上匝道，朝三峰路/竹43鄉道前進 →請於三峰路/竹43鄉道向左轉 →請於新湖路/竹40鄉道向右轉→目的地,未提供,{},"{'PositionLon': 120.99299621582031, 'PositionLat': 24.72330093383789, 'GeoHash': 'wsqh9k8rt'}",休閒農業類,{},新竹縣,2023-07-13T01:40:49+08:00,2023-07-13T02:10:57+08:00
C1_376440000A_000164,上瑞柑園,「上瑞觀光果園」位於新竹縣竹東鎮，距離南清公路500公尺的東河產業道路上。民國78年即開始柑橘果樹栽種，以海梨、桶柑為主要種植，果園佔地約1.5公頃，82年轉型休閒產業開放採果。目前由農會、鎮公所技術輔導，每年接受桃園農改場作農產檢驗，在89年榮獲全省「觀光農園考評-優良觀光農園產銷班」銀牌獎，果園主人賴先生目前任職「台灣省觀光農園發展協會」監事，畢生精力投注於果樹栽種鑽研，遊園採果的朋友都給予很高的評價。今年以成功改良的&rdquo;清見No.2&rdquo;最吸引大家，其顆粒大、纖維細、微酸味甜多汁是最大的特點。,886-3-5949012,新竹縣竹東鎮瑞峰里1鄰1號,1.北二高：竹林交流道下→68號東西向快速道路→往竹東方向→往五峰（走122縣道）→122縣道在31.8K右轉→循東河產業道路約500公尺（往隴西園方向）→右側上坡即達。2.中山高：竹北、新竹、科學園區交流道下→往竹東方向→走竹122縣道往五峰、清泉方向→於31.8K右轉→循東河產業道路約500公尺（往隴西園方向）→右側上坡即達。,09:00-17:00,{},"{'PositionLon': 121.09700012207031, 'PositionLat': 24.66189956665039, 'GeoHash': 'wsqh79s1u'}",休閒農業類,{},新竹縣,2023-07-13T01:40:49+08:00,2023-07-13T02:10:57+08:00
C1_376440000A_000165,頤禾園有機農園,頤禾園經營者陳禮龍是軟橋地區的女婿，長久養成的科技人特性，讓他從種菜程序中歸納出「最佳化」的經營方式。首先，他採用「計畫性種植」，客戶的訂購期是一期4 個月，預付款項，等於確定這筆訂單後，才開始種。因此每週出菜給訂戶時，農園餘留的蔬菜不會超過5 包， 避免供過於求的問題 。陳禮龍將這片農園做多元化、多角化的經營。他曾經推廣都市人來鄉耕種，也在社區大學開設「有機蔬菜種植與養生」，獲選為99 年度學術優良課程，吸引住在都會區的學員來此種菜，實際操作有機農法，還可經驗農村生活。之後他再推出一天或半天的「食農教育體驗營」，20 人以上即可組團，吸引許多農會、幼兒園、老人大學、及親子家庭來參加。,886-9-81463589,新竹縣竹東鎮軟橋里軟橋21 號,從國道3 號竹林交流道或國道1 號新竹公道五交流道→ 68 號快速道路往竹東、橫山方向至竹東端下→右轉3 號省道→左轉122 縣道→左轉佳鄉餐廳旁巷子（25.8 KM 處）→右轉有機米產銷班300M 即可抵達。,05:30–17:00,{},"{'PositionLon': 121.10199737548828, 'PositionLat': 24.696199417114258, 'GeoHash': 'wsqh7xzcc'}",休閒農業類,{},新竹縣,2023-07-13T01:40:49+08:00,2023-07-13T02:10:57+08:00
C1_376440000A_000167,竹林養生村合作社,郭文標於2010 年成立「竹林養生合作社」，投入段木香菇與金線連等經濟作物的生產銷售。他認為，農業發展必須以人與環境共生的理念作為出發點，因此不種植高冷蔬菜，而以物種復育為主。如果因開發而砍一棵樹，至少會種回兩棵以上，秉持永續理念來尋求社區發展。當地原來即有野生的金線連，故在土壤氣候條件適宜的狀況下，成立五峰鄉特用作物產銷班第二班，開始種植金線連。此外也與台北醫學大學等單位進行產學合作，並與生技公司契作，並陸續開發茶包、金線連餐等更多元化的產品應用。,886-3-5851270,新竹縣五峰鄉後湖村10鄰196號,走國道1號、台65線、國道3號和台68線前往竹東鎮的中豐公路/中豐路一段/內山公路/台3線，沿南清公路/122縣道和羅山道路前往五峰鄉的羅山林道南線,未提供,{},"{'PositionLon': 121.09700012207031, 'PositionLat': 24.619300842285156, 'GeoHash': 'wsqh59u1u'}",休閒農業類,{},新竹縣,2023-07-13T01:40:49+08:00,2023-07-13T02:10:57+08:00
C1_376440000A_000168,山上人家農場,山上人家座落在大隘白蘭休閒農業區附近，海拔1200公尺，面積五公頃，鄰近參山國家風景區與鵝公髻山，有高聳的吉野杉圍繞。園區附近有農民種植水蜜桃、李子、甜柿及高冷有機蔬菜，夏天氣溫18-22度，是最佳避暑勝地。,886-3-5851376,新竹縣五峰鄉大隘村23鄰468-5號,東西向快速道路(省68)往竹東方向，下快速道路右轉→台122縣道，到35.5或42.3右轉依山上人家指標前往。,平日：08:30-17:00／假日：08:00-17:00,{},"{'PositionLon': 121.08899688720703, 'PositionLat': 24.604700088500977, 'GeoHash': 'wsq5grnkf'}",休閒農業類,{},新竹縣,2023-07-13T01:40:49+08:00,2023-07-13T02:10:57+08:00
C1_376440000A_000169,和平部落休閒農業區,五峰鄉之原住民仍以麥巴來稱呼和平社區，為五峰泰雅族四個發源部落之一，有10餘處天然的瀑布可做SPA，行走在林木蓊鬱的步道，吸收芬多精，令人心曠神怡，是五峰新興的觀光勝地，當地石蓮花、牧草美食和高冷蔬果深獲遊客喜愛。在五峰鄉和平部落農業休閒地區裡，最大的特點就是保有泰雅族原始文化，甚至還以當地竹林特產，建造出一座座的竹鳥居、竹子屋、竹子、竹子標示牌等，各種特色文物，讓旅人一進入和平部落地區，就立刻感受到原住民的熱血風情。和平部落擁有3條著名的步道，其中又以谷燕瀑布步道最有名氣；在谷燕瀑布步道側邊的麥巴來步道，可說是當地居民早期的重要道路，雖然現在已經擁有便利的連外馬路，但對居民們來說，這裡仍有存的價值與意義。位居和平部落中央的鬼澤山登山步道，是登山者熱愛的天堂，從此處可以爬上和平部落的最高點，瞻望整個和平村落之美。 除了和平部落的原始特點之外，這處農業區還是桃、李的特產部落，每到桃、李盛產時期，整座山頭多為包上果子的白色紙袋，不仔細看的話，還會誤認是雪花遍布山頭，十分美麗。,886-9-39139071,新竹市新竹縣五峰鄉竹林村和平5鄰160號,從國道3號的竹林交流道下行，並接120縣道再右轉進入竹林大橋至竹東，接著往竹東方向接竹122縣道，於五峰鄉公所前50公尺左右進入麥巴來社區，經和平橋之後，大約再行駛5分鐘之路程，即可到達。,09:00-17:00（週一公休）,{},"{'PositionLon': 121.09700012207031, 'PositionLat': 24.619300842285156, 'GeoHash': 'wsqh59u1u'}",休閒農業類,{},新竹縣,2023-07-13T01:40:49+08:00,2023-07-13T02:10:57+08:00
C1_376440000A_000170,五峰涼山露營區,從五指山及南庄往茅圃、由十八兒部落及五峰往茅圃、由清泉經白蘭部落往茅圃，這三條道路的交會處有涼亭及小市集，是由涼山露營區的老闆私人所建造，由三面谷地吹來的涼風，正好為途經此地的旅客，提供一個涼爽的休息及賞景場地。經過約一年的規劃與施工，涼山露營區正式對外開放，場地平坦、視野寬廣、景觀佳，四周都是果樹，附近的名山都在視線中，還可看到賽夏族矮靈祭的祭場、上坪溪谷、關西的夜景、日出的美景、雨天時的彩虹等。提供露營、烤肉、原民飾物等服務。,886-9-31167691,新竹縣五峰鄉421號,中山高新竹交流道下→往竹東方向→到新竹客運後左轉122縣道(南清公路)往五峰→到35.5K右轉經十八兒部落順著魯木農場指標即可先到達涼山露營區。（註：由122線的42.5K或50.5K處右轉上坡都可以順著指標到達）,烤肉區：11:00~15:00，全年無休，需事先預約。 露營區：進駐13:00以後，離場次日上午13:00以前，提前進場需先連絡。,{},"{'PositionLon': 121.11100006103516, 'PositionLat': 24.69379997253418, 'GeoHash': 'wsqh7zq7f'}",休閒農業類,{},新竹縣,2023-07-13T01:40:49+08:00,2023-07-13T02:10:57+08:00
C1_376440000A_000171,天岳農場,農場位於五峰鄉大隘村，由台積電退休工程師創立，園內種植銀杏、吉野櫻、八重櫻、富士櫻及山櫻，果樹有桃、李、梅、柿、杏，放山土雞採草地放牧法，四週群山環抱，如自然天成之山水畫。建立與自然生物和平共存的生態農場，讓許許多多種類的野生生物生活其中，蝴蝶、蜻蜓、蜜蜂穿梭飛舞，小鳥歌唱，青蛙和昆蟲競相鳴叫。提倡自然野趣生態旅遊、登山健行、森林浴、騎越野自行車、觀賞野生動植物，藉由體驗大自然，享受農村生活，淨化心靈。,886-9-38329516,新竹縣五峰鄉大隘村23鄰464號,從國道3號的竹林交流道下行，並接120縣道再右轉進入竹林大橋至竹東，接著往竹東方向接竹122縣道，於五峰鄉公所前50公尺左右進入麥巴來社區，經和平橋之後，大約再行駛5分鐘之路程，即可到達。,09:00-17:00,{},"{'PositionLon': 121.09700012207031, 'PositionLat': 24.619300842285156, 'GeoHash': 'wsqh59u1u'}",休閒農業類,{},新竹縣,2023-07-13T01:40:49+08:00,2023-07-13T02:10:57+08:00
C1_376440000A_000172,青葉甜柿園,甜柿正在快速的長大柿子成熟時， 請快來品嘗美味的佳果，更棒的是，有免費試吃噢！！&nbsp;有軟的也有硬的可以試吃噢，＊軟的：剖半用大湯匙挖就可以吃了，＊脆的：將果皮表面清洗一下再用削皮器削去果皮即可食用；或者用刀子切開一片一片食用風味也不錯哦~！通常在柿子園裡面摘到的都是脆的，如果有摘到軟的 &nbsp;通常是太熟沒有採收。如果買回家以後想要吃「軟」的柿子，就將柿子放於室溫4~5天就會就會變紅變軟。如果將柿子放在冰箱裡面比較不容易變軟，因為放冰箱因溫度較低不容易熟成，但是將會使柿子放冰箱會變的又脆又甜，口感較佳。,886-9-16800724,新竹縣五峰鄉和平部落5 鄰 166 之 4 號,每年國曆10～12月開放自採,{},"{'PositionLon': 121.11900329589844, 'PositionLat': 24.629199981689453, 'GeoHash': 'wsqhh5s5m'}",休閒農業類,{},新竹縣,2023-07-13T01:40:49+08:00,2023-07-13T02:10:57+08:00
C1_376440000A_000173,大山背農園,本區道路主要沿著油羅溪環大山背山而行，為新竹縣的柑橘重要產地，初夏時節，數量龐大的螢火蟲聚集於此，是新竹縣最知名的賞螢處。大山背休閒農業區，是以樂善堂當中心點的橫山村大山背為範圍，大山背以出產柑橘著稱，觀光果園分布在樂善堂周圍的山坡地；每年12月至隔年3月盛產的柑橘、具民俗風味的客家文化與原始風采的古道，都能深刻展現地方特色，而大山背休閒農業區的成立，即是要喚起居民維護橫山地區的農村文化與自然景觀的意識。,886-9-88909769,新竹縣橫山鄉豐鄉村大山背5 鄰 52 號,1.北二高關西交流道→經關西，往竹東方向(台3線)行十六公里到橫山→左轉行經萬瑞森林遊樂園方向約六公里→樂善堂前有停車場，下車步行300公尺即到果園，小客車可直駛至農園。2.北二高芎林交流道向竹東走→過竹林大橋，經竹東市、下公館→往關西方向，走台3線→至橫山向右行六公里→到樂善堂前停車場，下車有路線引導。,24 小時營業,{},"{'PositionLon': 121.1449966430664, 'PositionLat': 24.695600509643555, 'GeoHash': 'wsqhkxxn7'}",休閒農業類,{},新竹縣,2023-07-13T01:40:49+08:00,2023-07-13T02:10:57+08:00
C1_376440000A_000174,大嬸婆的家手工窯烤麵包,大嬸婆的家手工窯烤麵包,886-3-5934099,新竹縣橫山鄉豐鄉村3鄰48號,從國道3號的 79-關西 號出口下交流道，走中豐公路/內山公路/台3線前往橫山鄉的竹35鄉道,週末 09:30-17:00,{},"{'PositionLon': 121.13800048828125, 'PositionLat': 24.696199417114258, 'GeoHash': 'wsqhkxccz'}",休閒農業類,{},新竹縣,2023-07-13T01:40:49+08:00,2023-07-13T02:10:57+08:00
C1_376440000A_000175,老大份休閒農場,老大份休閒農場-私房旅遊景點&nbsp;封面照片取自於 深 旅行-▌新竹橫山‧私房旅遊景點 ▌一個在地大叔對自己土地的熱情與願望【老大份休閒農場】,886-9-87216298,新竹縣橫山鄉大山背6鄰69號,國道3號的 90-竹林 號出口下交流道，繼續走120縣道。行駛到橫山鄉的竹34鄉道,未提供,{},"{'PositionLon': 121.1449966430664, 'PositionLat': 24.695600509643555, 'GeoHash': 'wsqhkxxn7'}",休閒農業類,{},新竹縣,2023-07-13T01:40:49+08:00,2023-07-13T02:10:57+08:00
C1_376440000A_000176,天人岩屋,天人岩屋是座貌似高腳屋的建築，也是一間矗立於田野間的玻璃屋。岩屋的牆面是三層樓高的攀岩牆，門前有清澈的小溪流，左側是水生植物的池塘；後方還有種著稻穗的農業體驗區。從二樓眺望，放眼望去的是一大片翠綠繁茂的叢林美景。黃天人表示，牆面之所以會用攀岩牆，是因為攀岩是高挑戰性的運動。,886-3-5936070,新竹縣橫山鄉豐田村1鄰油羅25-6號,國道3號竹林交流道出口下交流道，朝竹東/芎林前進→富林路三段/120縣道繼續沿著120縣道前進→中豐路二段/台3線向右急轉 繼續沿著台3線前進→橫山鄉油羅溪橋→目的地,未提供,{},"{'PositionLon': 121.16500091552734, 'PositionLat': 24.710599899291992, 'GeoHash': 'wsqht4mtt'}",休閒農業類,{},新竹縣,2023-07-13T01:40:49+08:00,2023-07-13T02:10:57+08:00
C1_376440000A_000177,秘花園休閒露營區,「秘花園休閒露營區」位於尖石鄉錦屏村那羅部落，提供咖啡、花茶、簡餐、烤肉、露營...等服務，歡迎蒞臨。,886-9-53247850,新竹縣尖石鄉錦屏村12鄰那羅209號,關西交流道出口下交流道，朝關西/新埔前進→正義路/118縣道向左轉→中山路/118縣道向左轉→中豐路一段/118縣道向右轉→中豐公路/台3線向右轉→中山街一段/120縣道向左轉→中山街二段/120縣道向右轉→竹60鄉道向右轉→竹62鄉道向右微轉→ 於第 1 個路口轉左，走錦屏一號橋/竹60鄉道,10：00 ～21：00（週一二休）,{},"{'PositionLon': 121.24500274658203, 'PositionLat': 24.681699752807617, 'GeoHash': 'wsqhqvpvm'}",休閒農業類,{},新竹縣,2023-07-13T01:40:49+08:00,2023-07-13T02:10:57+08:00
C1_376440000A_000178,嶺海山林休閒農場,在大陸衛星市場奮鬥20餘年，2004年退休後來到尖石鄉為開發的八五山上，每天走上2.3公里的路程上下山，從零打造屬於我們的小木屋，當時也沒有想過會有數碼天空這樣的餐廳，在海拔1200公尺的煤礦之源，晴天眺望桃園中正機場，陰天等待環繞山間的雲海。之後，許多朋友上山與我們共享這份喜悅的美景，在大家的建議及鼓勵下，花三年時間，從六公頃的土地變成五十公頃的範圍，整個園區結合了環保、科技及人文藝術，採用最接近自然又現代的玻璃帷幕為主要建築，讓美景360度一覽無遺。,886-3-5841015,新竹縣尖石鄉10鄰145號之1號,1.中山高-竹北交流道-68快速道路-竹東-台三線-橫山十分寮-竹20縣道-內灣-尖石-煤源八五山2.北二高-竹林或關西交流道-竹120縣道或台三線十分寮-內灣-尖石-煤源八五山3.北二高→竹科交流道(竹東)→內灣→120縣道→38.4K右轉上山,未提供,{},"{'PositionLon': 121.26300048828125, 'PositionLat': 24.70669937133789, 'GeoHash': 'wsqhx3tnb'}",休閒農業類,{},新竹縣,2023-07-13T01:40:49+08:00,2023-07-13T02:10:57+08:00
C1_376440000A_000179,山清休閒農園,「山清休閒農園」提供原住民風味餐美食料理之外，也能體驗一下民宿享受山中的寧靜。歷經15年的創業，負責人古小姐以原住民風味料理最專長，完全來自於對原住民美食的熱愛，同時發揮獨特的巧思，讓遊客們享受視覺與味覺的滿足。農場設施有烤肉區、釣魚池、民宿區及餐廳、附設50人的簡易會議室，如果較大的團體用餐也可以選擇戶外庭園的自助餐方式，「山清」講求原住民風味料理以清淡原味、不油膩及養生為主的料理方式。歡迎預約用餐，品嚐原住民風味美食。,886-9-32757931,新竹縣尖石鄉梅花村1鄰24之1號,關西交流道下→循竹118縣道至台三線→於台三線69.8K處左轉(往內灣)→沿竹120縣經內灣往尖石→經尖石鄉公所至尖石大橋右轉走竹60線→往梅嘎蒗部落方向接竹60-1到「梅花國小」，即達山清休閒農園,未提供,{},"{'PositionLon': 121.20999908447266, 'PositionLat': 24.678699493408203, 'GeoHash': 'wsqhqhw7v'}",休閒農業類,{},新竹縣,2023-07-13T01:40:49+08:00,2023-07-13T02:10:57+08:00
C1_376440000A_000181,羅幸鱒魚休閒農莊,羅幸鱒魚休閒農莊位於新竹縣尖石鄉錦屏村，此區位於那羅灣休閒農業區，故名思意這裡最有名氣的餐點就是鱒魚三吃以及各式鱒魚料理大餐，尤其再搭配上特有的風味米飯及客家小炒，這份餐點就更獨具特色。來到這裡會發現，羅幸鱒魚休閒農莊不但都以當地農業食材，更提供遊客天然的餐具組，那羅部落的原始特色在此表露無遺。 這裡的價格經濟實惠，非常適合全家人或約同三五好友前來品嚐，而如果一起同遊的人數極少，也可以點份鱒魚三吃套餐，豐富的客家菜色與鱒魚的組合，絕對可以滿足每位旅人的胃。羅幸鱒魚休閒農莊所烹煮的芋頭米飯，多以天然的荷葉及竹籃盛裝，讓遊客倍感部落風情，而各式菜色更以客家烹調手法，令人不得不食指大動。餐館內另附有卡拉OK伴唱機，一邊享用部落風味鱒魚餐點，一邊歡唱自己喜愛的歌曲，相當愜意。,886-921-235984,新竹縣尖石鄉7 鄰 12-1 號,關西交流道出口下交流道，朝關西/新埔前進→正義路/118縣道向左轉→中山路/118縣道向左轉→中豐路一段/118縣道向右轉→中豐公路/台3線向右轉→中山街一段/120縣道向左轉→中山街二段/120縣道向右轉→竹60鄉道向右轉→竹62鄉道向右微轉→ 於第 1 個路口轉左，走錦屏一號橋/竹60鄉道,10:00~22:00，建議電話預約,{},"{'PositionLon': 121.23400115966797, 'PositionLat': 24.673799514770508, 'GeoHash': 'wsqhqexzk'}",休閒農業類,{},新竹縣,2023-07-13T01:40:49+08:00,2023-07-13T02:10:57+08:00
C1_376440000A_000182,馬紹果園,馬紹果園每年10-11月開放日本甜柿採果開採其中歡迎訂購合菜、精緻簡餐!!採果專線：0928-400095 高先生(馬紹),886-3-5841872,新竹縣尖石鄉梅花村8鄰199號,週六-日09:00-16:00,{},"{'PositionLon': 121.21499633789062, 'PositionLat': 24.645200729370117, 'GeoHash': 'wsqhnqd0d'}",休閒農業類,{},新竹縣,2023-07-13T01:40:49+08:00,2023-07-13T02:10:57+08:00
C1_376440000A_000183,天湖農園,天湖農園--位於新竹縣尖石鄉梅花村民宿--鄰近內灣尖石五峰--原木小木屋--原住民特產--露營◎ 木屋入住時間：進房 15:00　退房 隔日11:00熱水供應時間 ：24小時供應電力供應時間 ：24小時供應平假日定義　 ：平日：星期日～星期四 (訂金30%)　　　　　　　 假日：星期五～星期六、連假、年假 (訂金30%)夜衝規範　　 ：木屋不提供夜衝服務。※ 木屋不附早餐。※ 加床每人 平日300元、假日500元、春節600元(每房限加4人)※ 春節期間，大人小孩一律600元※ 延遲退房，每棟每小時加收300元◎ 營位入拔營時間：紮營 14:00　拔營 隔日12:00熱水供應時間 ：24小時供應電力供應時間 ：24小時供應平假日定義　 ：平日：星期日～星期四 (訂金30%)　　　　　　　 假日：星期五～星期六、連假、年假 (訂金30%)※ 每帳營位以4人為限，超出限額，每增加1人加收200元人頭費※ 營區有販賣部：販售簡餐、咖啡...等。(有烤肉架可以免費租借，但烤網、木炭等耗材需現場購買)夜衝說明限假日前一天入營時間20:00-22:00，營位300元/帳計算。提醒您，假日無夜衝優惠(沒有星光票)！如有夜衝需求，請線上直接下訂即可。,886-912-442539,新竹縣尖石鄉梅花村8 鄰227 號,未提供,{},"{'PositionLon': 121.21099853515625, 'PositionLat': 24.646299362182617, 'GeoHash': 'wsqhnnxph'}",休閒農業類,{},新竹縣,2023-07-13T01:40:49+08:00,2023-07-13T02:10:57+08:00
C1_376440000A_000184,八五山老劉果園,八五山老劉果園八五山這個地名來自海拔850的山頭，這個山頭的主人是泰雅族人劉清源，他在山上有15公頃的土地，花了十幾年時間在山區種植三甲的甜柿，一甲多的水蜜桃，還有柑橘；其中最為人所稱道的是他的甜柿，鮮甜爽脆，最大的超過一台斤，甜度也在20度以上。單車族想到他那裡，也要經過一番折騰，路口就在120線道41.1公里處，只有700公尺的距離，但海拔卻增高200公尺，可見路況的挑戰性了。,886-9-78095080,新竹縣尖石鄉新樂村煤源段8鄰51-1號,週六 08:00-17:00／週日 08:00-16:00,{},"{'PositionLon': 121.27400207519531, 'PositionLat': 24.722200393676758, 'GeoHash': 'wsqhxst13'}",休閒農業類,{},新竹縣,2023-07-13T01:40:49+08:00,2023-07-13T02:10:57+08:00
C1_376440000A_000185,惠森自然休閒農場,位於北埔鄉西南丘陵的惠森自然休閒農場，於1990年成立，全區面積計30公頃，結合本土文化及養生醫學，建立有機農場示範區。農場從事生產靈芝菌絲、MOA自然農法推廣等，並提供養生、人文、生態之旅及餐宿。,886-3-5803712,新竹縣北埔鄉4鄰30號,竹東芎林交流道下→往竹東方向右轉上竹林大橋→台3線往北埔方向→經北埔慈天宮，順路前行接小徑→抵達惠森自然農場。,未提供,{},"{'PositionLon': 121.0459976196289, 'PositionLat': 24.667499542236328, 'GeoHash': 'wsqh66x48'}",休閒農業類,{},新竹縣,2023-07-13T01:40:49+08:00,2023-07-13T02:10:57+08:00
C1_376440000A_000186,老頭擺農庄,位於新竹縣北埔鄉的台三線公路旁，交通便利，園區內佔地寬廣，綠草如茵，有豐富的一日遊活動行程，非常適合親子同遊及機關團體舉辦活動。可以體驗早期農村的控窯 、寓教於樂的DIY教學、烤肉活動&hellip;&hellip;等等，歡迎您闔家光臨哦。,886-3-5804907,新竹縣北埔鄉南坑村大南坑9鄰8之5號,1.南下： 北二高竹東芎林交流道下→縣道120號→右轉竹林大橋至台三線(走123號道) →左轉122號道往五峰方向→右轉接台三線往北埔→老頭擺農庄2.北上： 中山高頭份交流道下往三灣→縣道124號→至台三線往峨眉、北埔走→老頭擺農庄,09:00-17:00,{},"{'PositionLon': 121.0510025024414, 'PositionLat': 24.651399612426758, 'GeoHash': 'wsqh4xdsu'}",休閒農業類,{},新竹縣,2023-07-13T01:40:49+08:00,2023-07-13T02:10:57+08:00
C1_376440000A_000187,麥客田園,"甘肅地區當地農民於農穫收成時，會組織麥子收割隊延黃河南下協助南方之農家收割，俟返鄉時再行收割自家種植已臻成熟之麥田，人稱此收割隊為麥客。故麥客乃取其飲水思源之意，並冀望以真誠服務、顧客心喜、知性感性兼而有之。農場位於北埔鄉南埔村鄉村文化生態區內，佔地 20000 平方公尺，園區設施有牛車，可愛動物區，大型水車，混水摸魚區，古早鄉村手動抽水幫浦，客家古農具，自行車悠遊‧是體驗客米食與傳統文化的最佳鄉土旅遊景點。想要體驗客家農村樂趣，最好的入門就是親手製作以米為原料的各種點心及粄類食品。充滿田園風格的「麥克田園農場」，是體驗客家米食文化與傳統風情的最佳鄉土教材；才剛走入綠色隧道，抬起頭來就能看見許多植物蔬菜，魚兒和水鴨在池中悠閒吟唱，一旁的柳樹迎風搖曳，園中的動物明星麝香豬也在遠處打著招呼，園區內慢悠悠的牛車，閒適安逸的農家景緻讓人心曠神宜。麥克田園的劉經理說，因為園區佔地20,000平方公尺，而且設施眾多，配合專業導覽人員，一日遊是最適當的玩法，這裡可以焢窯、烤肉還有扎稻草人，夏日最受歡迎的就是「混水摸魚區」，在水中和魚兒接觸令孩子們樂不思「暑」，同時也是很好的親子互動。",886-3-5805678,新竹縣北埔鄉南埔2鄰13-3號,1.南下： 北二高竹東芎林交流道下→縣道120號→右轉竹林大橋至台三線(走123號道) →左轉122號道往五峰方向→右轉接台三線往北埔→麥客田園2.北上： 中山高頭份交流道下往三灣→縣道124號→至台三線往峨眉、北埔走→麥客田園,09:00~17:00,{},"{'PositionLon': 121.04199981689453, 'PositionLat': 24.6968994140625, 'GeoHash': 'wsqh6rujg'}",休閒農業類,{},新竹縣,2023-07-13T01:40:49+08:00,2023-07-13T02:10:57+08:00
C1_376440000A_000188,西瓜莊園,全台第一家沒有種西瓜的西瓜莊園。阿珠媽在60年代生了四個女兒，四姐妹小時候唯一的髮型就是「西瓜皮」，我們這群「西瓜皮女孩」對於母親而言是無價的珍寶， 並沒有因為當時重男輕女的觀念而受到任何限制，反而阿珠媽非常支持四個女兒的各自興趣並全力培養。現在「西瓜皮女孩」長大了，一起同心協力打造了一座「西瓜莊園」，邀請您來一起分享阿珠媽及「西瓜皮女孩」的夢想！西瓜莊園多年專營休閒、文創、研學及教育，不單只是親子戶外踏青的好去處，更是STEAM教育研學之基地，我們將自然工藝科學透過玩中學的方式，讓學習成為生活的樂趣，我們誠摯邀請你來體驗。,886-3-5802000,新竹縣北埔鄉水磜村六鄰32號之10號,從國道1號的 95B-新竹 號出口下交流道，走園區二路、寶山路二段、寶山路一段和中大壢路前往目的地北埔鄉,週六-日10:00-17:30,{},"{'PositionLon': 121.05899810791016, 'PositionLat': 24.715200424194336, 'GeoHash': 'wsqhdg22r'}",休閒農業類,{},新竹縣,2023-07-13T01:40:49+08:00,2023-07-13T02:10:57+08:00
C1_376440000A_000190,西瓜莊園文化教育園區,很難得能夠有一個地方，是以親子同遊的觀點出發。小時後頂著「西瓜皮」造形的四個姊妹，長大後最開心的事就是能全家大小一起出遊，但跑遍了全台灣各個角落，卻始終找不到符合親子休閒的理想場所，於是姐妹們開始構思，打造夢想中的「西瓜莊園」。指著自己親手鋪設的步道，西瓜二姐驕傲的說，給「嬰兒推車」用的步道雖不寬廣，卻可以讓父母親省下許多力氣，同時也方便身障朋友使用。小朋友最愛的室內彩繪，是將廢棄課桌椅切割後磨平串接，黏上園藝用鋁條，一隻隻栩栩如生的螞蟻與蜘蛛就這麼活靈活現的在眼前出現，小朋友可充分發揮創意與想像力，彩繪上壓克力顏料，表現出自己的風格。莊園內的昆蟲藉著彩繪換上了色彩斑斕的可愛新裝，褪去了蟲蟲的恐怖，西瓜二姐希望這個DIY作品可以作為居家擺飾，不但有廢物利用的意義，還加入了生態保育的概念，未來園區中飛舞的蝴蝶、甲蟲也會加入彩繪的行列。,886-3-5802000,新竹縣北埔鄉水磜村六鄰32號之10號,假日10:00-17:30,{},"{'PositionLon': 121.05999755859375, 'PositionLat': 24.715599060058594, 'GeoHash': 'wsqhdg34y'}",休閒農業類,{},新竹縣,2023-07-13T01:40:49+08:00,2023-07-13T02:10:57+08:00
C1_376440000A_000191,十二寮休閒農業區,新竹縣峨眉鄉『十二寮休閒農園』位於獅頭山國家風景區內，週邊有楓林步道、停車場、腳踏車環湖公路及芬多精健康步道。農場主人黃先生早年從事製造業，休閒農園的經營是跟隨父親由農業產銷班開始，回鄉六年學有所成，打從90年年底將經營轉向休閒農業，最初以量產到現在的精緻農業，栽種朝向少量多樣化，依季節均可滿足遊客遊賞採摘各式蔬果，不同凡響的農遊休閒活動，也是一般都市人的全新體驗及團體休閒的最佳去處。十二寮因日治時期第12座煉樟腦油的樟腦寮而得名，區內約有40家商家、自行車出租店約有10家，自行車數量相加總數約8、9百輛，自行車可以穿梭在池塘、水庫、吊橋、小徑等，豐富地形和地貌，成為喜好騎自行車人士的最佳選擇。沿著峨眉湖畔周圍，眼前有眺望不盡的山湖景觀，還有規劃完善的自行車路線。來到十二寮的旅人們，建議可以先到十二寮登山步道走訪，早晨的這裡有著各種昆蟲、蝴蝶與鳥兒，讓旅人可以趁機來一趟生態之旅；而這段緩和又完善的休閒步道，更適合任何年紀的旅客前來。,886-9-28211886,新竹縣峨眉鄉13鄰21號,1.中山高頭份交流道(110K出口)→苗124線→台三線往南96K處轉十二寮農區(走約三公里)→即可到達十二寮休閒農園。2.北二高新竹科學園區、寶山交流道(98K出口)→峨眉方向竹43線11.5K往大埔水庫→湖光社區大石頭標示進入500公尺即為十二寮農區→依指標即達。,09:00-18:00 (週一公休）,{},"{'PositionLon': 120.99299621582031, 'PositionLat': 24.674800872802734, 'GeoHash': 'wsqh37bmj'}",休閒農業類,{},新竹縣,2023-07-13T01:40:49+08:00,2023-07-13T02:10:57+08:00
C1_376440000A_000192,富興茶葉展售中心,位在峨眉湖北岸，有一座古代美女執壺泡茶的石雕像立於綠草如茵的庭院中，是這顯著的地標。展示中心分為製茶區、泡茶區和展示區三部分，遊客可在泡茶區喝茶品茗，或嚐嚐特別的茶焗蛋，風味獨特；製茶區裡，可觀賞茶農示範製茶過程；展示區則以文字、照片，圖文並茂的介紹茶葉的歷史，並陳列製茶機器。,886-3-5806320,新竹縣峨眉鄉12鄰22-6號,自竹東搭新竹客運往珊珠湖、獅潭，於富興站下車。,未提供,{},"{'PositionLon': 120.98500061035156, 'PositionLat': 24.69659996032715, 'GeoHash': 'wsqh3pfs4'}",休閒農業類,{},新竹縣,2023-07-13T01:40:49+08:00,2023-07-13T02:10:57+08:00
C1_376440000A_000193,背影橘舍觀光果園,峨眉鄉素來為桶柑的故鄉之一，年產量佔國內十分之一，適量的雨水以及夠冷的氣溫，相當適合桶柑的生長，背影橘舍觀光果園即為生產地之一，主要生產桶柑以及茂谷柑，每年十二月至次年三月為採果期，歡迎闔家光臨。,886-9-37178327,新竹縣峨眉鄉石井村4鄰27-6號,從國道3號的 98-寶山 號出口下交流道，走竹43鄉道和竹43-1鄉道前往峨眉鄉的竹38鄉道,未提供,{},"{'PositionLon': 121.00199890136719, 'PositionLat': 24.697999954223633, 'GeoHash': 'wsqh92nuq'}",休閒農業類,{},新竹縣,2023-07-13T01:40:49+08:00,2023-07-13T02:10:57+08:00
C1_376440000A_000194,松芸軒咖啡莊,隱身於峨眉十二寮的咖啡館，店裡招牌卻是臭豆腐。咖啡配臭豆腐奇妙組合讓客人有獨特的經驗，老闆娘長期茹素，對素食料理相當拿手與市面販售素食料理不同，歡迎來品嘗！,886-3-7603317,新竹縣峨眉鄉湖光村12鄰1-2號,中山高→頭份三灣交流道(往三灣方向)→接台三縣→往(大埔水庫指標)左轉方向→十二寮休閒農業區→松芸軒咖啡莊,10:00-17:00,{},"{'PositionLon': 120.99199676513672, 'PositionLat': 24.669099807739258, 'GeoHash': 'wsqh34zev'}",休閒農業類,{},新竹縣,2023-07-13T01:40:49+08:00,2023-07-13T02:10:57+08:00
C1_376440000A_000195,親親果農園,"雖然冬季將盡,春季即將到來,但前往「親親果農園」拜訪,仍忍不住拉緊了衣領,抵禦不時侵入肌膚的冷風。不過即便溫度低到讓人有點吃不消,在「親親果農園」的蔬菜園中,只見青農范嘉淇與林峻葦依 然勤免地在田裡工作,一點都不喊苦。「親親果農園」坐落在竹北市,一旁即是車流熙來攘往的高速公路。林峻葦正在菜園噴著蘇力菌。蘇力菌對蔬菜無害,但對蟲來說卻會造成毒蛋白,因為堅持無毒有機耕種,因此面對「蟲蟲危機」,兩人堅持不使用農藥,還是改以各種生物防治,希望能遏阻蟲害。跟蟲交朋友 減低蟲害「有時蟲害太嚴重,我乾脆跟蟲『溝通』,希望牠們能吃沒經濟價值的葉子,我不會傷害牠們,只希望能把中間的花菜留給我。」范嘉淇指著菜園 中葉片被啃得滿目瘡痍的鑽石花菜邊跟我說,這樣的「溝通」還真發揮不少效果,「你看葉子都啃光了,中間的花菜真的保留給我,我們給彼此一條路走。」蟲蟲給了范嘉淇一個生路,但兩人走在青農的道路上,卻並非這麼順遂。范嘉淇和先生林峻葦本是經營鞋業,有店面及從事網拍,後來淘寶進軍 台灣,原本的優勢沒了,所以事業劃下句點。就在兩人思考下一步該做什麼的時候,范嘉淇的公公發現罹癌,加上自己懷胎,於是開始思索飲食健康的重要性,便開始有務農的念頭。林峻葦40歲,范嘉淇35歲,說要務農談何容易,更何況是面對老一輩使用的慣性農法,農作物又大又漂亮,有機栽種簡直困難重重,甚至一度不受到諒解。范嘉淇說:「當時同意我務農的只有我爸爸,其餘包括夫家都不贊同,但我父親是神農獎得主,農業知識觀點精闢又有經驗,成為我的最佳幫手。」踏上青農路 一步一腳印在苗栗大湖種植草莓獲得神農獎的父親,儼然成了范嘉淇和林峻葦務農的最佳軍師,舉凡田地有何問題,該如何處理,兩人經常拍下照片請教范 爸爸,讓新手青農的他們少走很多冤枉路。而充滿智慧的范爸爸有時面對兩人遇到的問題也不急於解釋,而是讓孩子故意嘗試錯誤,得到寶貴經驗。因為父親是草莓農,因此「親親果農園」主要有三塊區域,兩塊為主力的草莓園,另外一塊則是蔬菜園。很有想法的范嘉淇和林峻葦,一開始就抱 定要用有機方式善待土地,種植健康作物,除了范爸爸的有力支持外,還會不斷思考如何讓作物更有效率的收成,像是「過濾網」的運用,就令人大為驚奇。冷氣過濾網 小兵立大功一般草莓農最困擾的,就是白粉病的傳播,通常草莓園四周都會架上防風與防鳥網,卻無法杜絕病害發生。范嘉淇有回突發奇想,想利用冷氣過濾 網取代傳統防風網,或許效果更佳,「真的很神奇,過濾網架設後,網室內是冬暖夏涼,像年初這波造成各地下雪的寒流來襲,草莓農個個損失苦不堪言,結果我們家農園完全不受影響,像是外頭1&deg;C時,網室內還能維持5&deg;C溫度。」除了過濾網的想法外,如何避免土壤養分流失,兩人還想到用PVC覆蓋土壤的想法。PVC 材質常被拿來作為草莓種植利用,覆蓋了PVC,既能讓土壤養分免於流失,也能降低細菌汙染的危機,范嘉淇把這套技術也拿來運用在種植的菜園上;甚至為了讓種菜更有效率,還自行發明戳洞種植 法,「只要拿起T字型工具,往土讓戳出圓圓的小洞,把菜苗丟進去就可以了。」范嘉淇笑說,這比傳統先得耙出一條溝,放入苗後再覆土等程序簡化 許多。以有機方式種菜種草莓,青年農夫范嘉淇與林峻葦曾經不被親友看好,從被質疑到現在的供不應求,甚至假日還提供拔菜採草莓的預約,在在展現了他們的韌性,也讓人看到台灣農業友善土地、提供好食材的未來趨勢。Info.地址:新竹縣竹北市環北路286巷80號&nbsp;電話:0925-070-601&nbsp;時間:周六、日可預約摘草莓、拔菜,開放時間以臉書公告為主&nbsp;",886-9-25070601,新竹縣竹北市環北路286巷80號,松山車站竹 → 北火車站,09:00-17:00,{},"{'PositionLon': 121.02100372314453, 'PositionLat': 24.84469985961914, 'GeoHash': 'wsqj3fufc'}",休閒農業類,{},新竹縣,2023-07-13T01:40:49+08:00,2023-07-13T02:10:57+08:00
C1_376440000A_000196,羅屋書院,"豫章堂羅屋書院便坐落在牛欄河、鳳山溪所構成的這片半徑五、六百公尺的區塊裡。這美麗的自然聚落景象,正巧也被齊柏林拍進《看見台灣》的鏡頭裡。希望老房子得以保留下來,並將編竹子、做菜包、水車灌溉平原⋯⋯這些客家記憶文化傳承下去,有了這樣的念頭,羅仕龍辭去工作回到祖先的老宅院,加入保存關西老屋的行列。住三合院體驗農村樂一堂四橫格局的客家古厝,第一次看到它絕對是驚豔的,昔日是羅家私塾與學堂的老宅院,牆上西洋式雕刻裝飾華美,雖是一般民宅卻有著廟宇等級的精美牆飾。羅屋書院現在開放部分空間當作民宿使用,古早味的客房與廚房成了體驗客庄文化最佳場域,寬敞的三合院禾埕也能變身露營場地,孩子能盡情在這裡奔跑玩童玩,每年到了七月、十一月還在庭院前欣賞黃金稻海,下田玩田埂迷宮。Info.地址:新竹縣關西鎮南山里上南片79號&nbsp;電話:0910-013-315",886-9-10013315,新竹縣關西鎮南山里上南片79號,沿國道1號、國道2號和國道3號前往關西鎮的正義路/118縣道 → 從國道3號的79-關西號出口下交流道 → 繼續走正義路/118縣道前往目的地,09:00-16:00,{},"{'PositionLon': 121.16500091552734, 'PositionLat': 24.790599822998047, 'GeoHash': 'wsqjj0vxt'}",休閒農業類,{},新竹縣,2023-07-13T01:40:49+08:00,2023-07-13T02:10:57+08:00
C1_376440000A_000197,不老居休閒農園,猶如食神現江湖 董娘絕藝會發光&nbsp;&nbsp;&nbsp; 行行復行行，第二站，我們來到了「不老居」，無可奈何地先入為主，景緻自是無法勝過「魯壁山莊」，心頭剛起了若有所失的惆悵時，泰雅滇妹子董貴份適時端上了家常菜椒麻雞、雲南大薄片與炸溪蝦及竹筒飯後，冷卻的激情再度被挑起，太意外了，人間竟有如此難以言喻的美食，那還是在妹子來不及準備招牌菜「金玉滿堂」與「蒙古包」食材的情況下，隨便弄的幾道家常菜！&nbsp;&nbsp;&nbsp; 林子文是外省第二代，海軍陸戰隊退役，娶雲南與泰雅合姻生下的美女董貴份為妻，郎才女貌共同守著「不老居」與世無爭，山居的恬靜生活，讓原本對廚藝就存在著驚人天份的董娘，更加心無旁騖的展現其食神再世的絕藝，酒香不怕巷子窄，是金子總會發光的，妹子，當門檻被踏破時，別忘了告訴我一聲！,886-3-5841483,尖石鄉新樂村煤源10鄰61號,走國道3號前往關西鎮的正義路/118縣道→從國道3號的 79-關西 號出口下交流道→走中豐公路/內山公路/台3線前往尖石鄉的120縣道,10:00-19:00,{},"{'PositionLon': 121.26799774169922, 'PositionLat': 24.717500686645508, 'GeoHash': 'wsqhxe8tv'}",休閒農業類,{},新竹縣,2023-07-13T01:40:49+08:00,2023-07-13T02:10:57+08:00
C1_376440000A_000198,力量菜園,&nbsp;力量菜園 食農教育讓人更珍惜食物曾經跟隨在第一代生機飲食達人李秋涼女士身邊，曾妃玉從中吸取相當多農作生機等概念，當她自己擁有一塊農園時，將友善土地的農耕方式力行得更徹底。曾妃玉的農園位於新竹關西，擁有獨立水源灌溉，栽種自己想吃的四季時蔬、仙草、水果，很簡單不複雜，如果產量多一點，就送到週末市集販售，分享給需要的民眾。擔任生機飲食的前鋒，食農教育也需要推廣，曾妃玉也經常開課教授關於栽種或料理的課程，讓更多人借重飲食愛惜自己。　雞鴨幫忙除草吃蟲曾妃玉與先生怎麼管理這農園？他們請了一群可愛的工作雞鴨來幫忙除草吃蟲。曾妃玉帶著我們到園子，一群雞正為了爭奪一隻青蛙起了爭執，四隻纖細的菜鴨悄悄從一旁冒出，跳進昨夜因大雨造成的水窪中戲水，這邊的工作雞鴨並無被宰殺的命運，是自然老死，曾妃玉指著其中一隻羽毛稀疏的公雞，「牠已經七、八年了，我們請牠來幫忙除草除蟲，要感謝牠。」懷著感恩的心境農務，是對大地友善的最好方式。除了自己下田耕作之外，曾妃玉在竹北13 好市集也位居重要的職務，她擔任稽核的黑臉任務。13 好市集凝聚新竹縣13 鄉鎮市區的好東西，對於攤位上販賣的物品特別嚴格，曾妃玉憑藉自己的經驗為消費者把關，嚴格篩選，獲得多數人的尊敬。也因為她的專業與威嚴，深獲信賴，許多小農會在面臨困境時尋求曾妃玉協助，像是賣相不好的柑橘，曾妃玉便將柑橘洗淨，取其皮入鍋熬製，做成蜜漬果皮乾或是加進餅乾，都是很不錯的方式。曾妃玉對於協助小農解決問題，樂在其中，透過集思廣益讓糧食不被浪費，讓水果達到無限可能，是食農教育的最佳實踐。,886-3-5868628,新竹縣關西鎮坪林56-10號,沿國道3號前往關西鎮的正義路/118縣道→從國道3號的 79-關西 號出口下交流道→繼續走正義路/118縣道前往目的地,平日：09:00-17:00／假日：10:00-19:00,{},"{'PositionLon': 121.14600372314453, 'PositionLat': 24.800600051879883, 'GeoHash': 'wsqjhdzcf'}",休閒農業類,{},新竹縣,2023-07-13T01:40:49+08:00,2023-07-13T02:10:57+08:00
C1_376440000A_000199,厚食聚落,厚食聚落民以食為天，好吃「厚食」就是生活中最大的幸福！「厚食聚落」以「來源清楚、製程透明、新鮮供應」的原則，邀集油品、蔬果、麵包、發酵等職人，同時以好食材、好食物提供美味餐點，在友善自然的環境中，帶領大家重新體認飲食和生活的況味。很難想像在竹北車流量最大的光明六路上，竟然有這麼一個綠色市集，轉入「厚食聚落」招牌很低調的大門，眼前彷彿是另一個世界，冬暖夏涼的山洞前有水塘，成蔭綠樹下流水潺潺，抬頭還可以發現樹枝間黑冠麻鷺的鳥巢，彷如自然的山村聚落般，六個提供「好食」的可愛店家，加上一個手工藝店鋪，就散落在這塊城市綠洲中。「厚食」是客家話「好吃」的意思，厚食聚落農食合作社表示，在這裡販售的任何一個東西，都要符合「來源清楚、製程透明、新鮮供應」三個原則；並且透過樹院子共好平台將這樣的觀念分享傳遞給大眾。正因為認知到大規模的商業化生產雖然降低了成本，卻衍生出更多關於環境、食安和社會正義的問題，因此，團隊希望透過厚食聚落這樣小而美的社區經濟，重新找回充滿人情味的美好生活。,886-3-5506289,新竹縣竹北市光明六路東二段95-5號,高鐵新竹站→步行於光明六路東二段向左轉,11：00 ～22：00（週一二休）,{},"{'PositionLon': 121.03099822998047, 'PositionLat': 24.81719970703125, 'GeoHash': 'wsqj4ju4d'}",休閒農業類,{},新竹縣,2023-07-13T01:40:49+08:00,2023-07-13T02:10:57+08:00
C1_376440000A_000200,溝貝農莊,溝貝農莊 輕鬆釣魚趣玩水、玩沙，釣魚、拔蔥，還有桌遊、滑草，然後再享受烤蝦、烤魚大餐，還可預約桶仔雞，這麼一個可以讓大人放鬆休閒，小孩也玩得不亦樂乎的地方，就是位在竹北的Go Bear 溝貝親子休閒農莊。農莊老闆因為自己熱愛和朋友去釣魚，常因此不小心忽略了老婆、小孩，才動念要打造一個大人在享受釣魚樂趣時，小孩也可以安全玩耍的休閒農莊。農莊由釣魚釣蝦場改造而成，現仍保有戶外魚池和室內釣蝦場，但增添了許多適合親子同樂的設施和活動，只要付一次門票，都可以盡情體驗，光是入口處的小小滑草坡，就可以讓小朋友玩上半個小時都不喊累。超多活動適合親子同樂接下來的廣大庭園中，有夏天最消暑的金魚池，可以讓小朋友直接走進小池子裡撈金魚，還有對小孩充滿魔力的沙坑，因此爸爸媽媽可別忘了幫小孩多帶一套衣服。此外，這裡還有釣小青蛙、小魚、螯蝦等不同的玩法，到櫃檯去借釣竿、釣餌（須付押金）就可體驗，再加上超可愛的兔子區，還有多種桌遊免費出借，大人小孩都能玩得很開心。若是大人想認真釣魚、釣蝦，室內可釣泰國蝦和鱸魚，室外魚池則有福壽魚、烏鰡、草魚等，其中鱸魚非常容易上鉤，即使是第一次釣魚的人或小朋友，都能享受到和大魚鬥智角力的成就感喔！,886-9-81643468,新竹縣竹北市聯興三街451巷61號,新豐火車站→中5300壢客運新竹火車站(中正路)→水產試驗所,平日：09:00-17:00／假日：09:00-19:00,{},"{'PositionLon': 120.98799896240234, 'PositionLat': 24.851299285888672, 'GeoHash': 'wsqj3hhc2'}",休閒農業類,{},新竹縣,2023-07-13T01:40:49+08:00,2023-07-13T02:10:57+08:00
C1_376440000A_000201,頤禾園,這是新竹縣地方特色產業發展協會主辦的「鄉間幸福好食光」系列活動─頤禾園／稻田中的餐桌，新竹縣在地的特色食材，邀請大家前來品嚐。頤禾園鄉間饗宴在地食材迎賓客頤禾園所在地的竹東鎮軟橋里，是竹縣水利發展史的重要起始點，也是理想的單車路線。整個軟橋地區約有農田12公頃，其中85%種植稻米，10%為蔬菜，5%為個別自用農產。軟橋地區的稻米多是有機種植，有機米產銷班有自己的碾米、乾燥、包裝設備，曾經獲得全國有機米第一名，曾經獲得全國有機米第一名，當大家來到頤禾園，不妨將這限量的幸福滋味帶回家。陳禮龍打造農園有機生活逍遙遊頤禾園經營者陳禮龍是軟橋地區的女婿，長久養成的科技人特性，讓他從種菜程序中歸納出「最佳化」的經營方式。首先，他採用「計畫性種植」，客戶的訂購期是一期4個月，預付款項，等於確定這筆訂單後，才開始種。因此每週出菜給訂戶時，農園餘留的蔬菜不會超過5包，避免供過於求的問題。陳禮龍將這片農園做多元化、多角化的經營。他曾經推廣都市人來鄉耕種，也在社區大學開設「有機蔬菜種植與養生」，獲選為99年度學術優良課程，吸引住在都會區的學員來此種菜，實際操作有機農法，還可經驗農村生活。之後他再推出一天或半天的「食農教育體驗營」，20人以上即可組團，吸引許多農會、幼兒園、老人大學、及親子家庭來參加。AIESEC國際志工來台體驗3年前，國際經濟商管學生會（AIESEC）交大分會，在新竹縣市尋覓一處實作農場，讓國際志工可以來此停留6至8週，實際操作有機農業各工序。交大AIESEC學生先是自己來農場短住體驗，覺得可行，便於2012年暑假開始，招募到AIESEC海外學生來台短住，每週一到週五外籍生在頤禾園從事農耕，週末再與交大學生到台灣各地旅遊。看著志工學生們在田間工作的身影，陳禮龍說，寒暑假較忙，很多營隊團體要接待安排。寒暑假結束後，就剩我們兩個老人種田了。其實就算平日，這位新竹縣農業大使也不得閒，各方前來討論交流有機農業的參訪團體，還有竹縣產發會促進在地農產交流的各項活動，還是會讓他忙得不可開交。這位在竹東上坪溪畔建立交流平台的科技農夫，已是竹縣農業觀光的最佳代言人。,886-9-81463589,新竹縣竹東鎮軟橋21-2號,從國道3 號竹林交流 道或國道1 號新竹公道五交流道 → 68 號快速道路往竹東、橫山方 向至竹東端下→右轉3 號省道→ 左轉122 縣道→左轉佳鄉餐廳旁 巷子（25.8 KM 處）→右轉有機 米產銷班300M 即可抵達。,05:30-17:00,{},"{'PositionLon': 121.10199737548828, 'PositionLat': 24.696500778198242, 'GeoHash': 'wsqh7xzg9'}",休閒農業類,{},新竹縣,2023-07-13T01:40:49+08:00,2023-07-13T02:10:57+08:00
C1_376440000A_000202,十二寮雲雀山莊,峨眉鄉是早年臺灣樟腦的重要產地，製作樟腦的第十二個隘寮或腦寮，就是今日峨眉鄉十二寮休閒農業風景區的所在地。為了灌溉附近的農田，農家也開鑿了十二寮大埤。大埤附近綠草如茵，埤塘仿若水鏡，將藍天、綠樹全都倒映成影。靜靜坐在埤邊賞景，直覺「此景只應天上有，人間難得幾回聞」。想要造訪十二寮登山步道，最好起個大早，才能在蟲鳴鳥叫的天籟中，享受生態之旅。這裡的步道緩和，沿途不時可以見到桐花，最適合各種年紀的旅客一同漫步，譜出不同世代的桐花樂章。若是喜愛單騎旅遊，十二寮也有自行車或協力車出租，沿著規劃完善的自行車路線，穿過山林、跨過水圳，還可以繞著峨眉湖的環湖步道，盡攬各種角度的湖光山色以及彌勒佛身影。行有餘力，甚至可以一路騎到獅頭山，串連起完整的峨眉鄉桐花景點。因為已經是熱門的旅遊景點，因此沿途不乏知名小吃、異國餐廳或浪漫的景觀咖啡廳，遊人可以憑各自的體力和喜好，規劃專屬的旅程。至於近年臺灣流行的路跑，峨眉湖也是很適合的景點。新竹縣政府教育處體健科將於五月四日舉辦峨眉大佛路跑活動，從天恩彌勒佛廣場出發，環峨眉湖一圈，盡攬山光水色，可以說是風景最美麗的路跑路道。例如占地約兩公頃的雲雀山莊，就是用餐休閒的好選擇。山莊內自有果園和土雞場，因此提供的料理和飲料，都是自給自足的食材，自然新鮮味美，食得安心。如果有機會住宿山莊，還可以夜觀滿天星斗、晨迎日出雲海，不論親友相約團聚、公司旅遊活動，都是絕佳的休憩地點。,886-9-36098915,新竹縣峨眉鄉湖光村12鄰2-8號,竹南站→5804苗栗客運南庄站→亞太創意技術學院→公車→5609新竹客運竹東站→峨眉湖口→十二寮雲雀山莊,未提供,{},"{'PositionLon': 120.98999786376953, 'PositionLat': 24.670900344848633, 'GeoHash': 'wsqh35nnr'}",休閒農業類,{},新竹縣,2023-07-13T01:40:49+08:00,2023-07-13T02:10:57+08:00
C1_376440000A_000203,那羅部落,從內灣往那羅部落前進，過了那羅派出所後，請記得搖下車窗，仔細嗅聞、用心感受，依季節不同，香草部落的空氣將充滿各種不同的芳香，不論您認不認得出那些味道是哪一種香草，但你一定會同意，這些味道有一個共同的名字，叫做幸福。那羅是一個以泰雅族為主的部落，原住民族群對自然作物的瞭解，根植在他們的血液中。他們有細膩的心思和靈巧的雙手，懂得和大自然相處的哲學，因此在原住民族委員會、新竹縣政府和新社種苗改良場的輔導下，那羅部落早在十幾年前就開始計畫性地種植「芳香藥用植物」，也就是我們俗稱的香草，同時成立產銷班，在國內造成了一股種植香草的熱潮然而就在香草事業蓬勃發展之際，民國九十三年的艾莉颱風，卻讓美好的遠景一夕成空。嚴重的土石流不僅毀了所有的花田，更重重打擊部落居民的信心。還好產銷班的吳秀梅班長堅信，隨著國人的生活條件愈來愈好，香草的需求一定會愈來愈高，因此她帶領產銷班的班員研究、開發香草的加工運用，讓那羅香草部落除了提供原物料外，也可以生產高附加價值的香草產品。十年歲月，他們憑著一股傻勁，利用有機栽植，建立與香草間的親密連結。如今，那羅香草部落的香草純露不僅供貨給國內的知名保養品廠商，連品質管控最嚴格的德國品牌，都遠赴重洋來採購。香草部落的堅持，終於換來了自己的幸福。吳班長提到，雖然大家對於香草的印象，都停留在西方的產品，但其實《本草綱目》中就提過包括水仙在內多達二十八種香草和香花，而炎帝神農氏「始嘗百草，始有醫藥」，可見香草真的不是舶來品，在食品調味、民俗保健、美容保養、精油薰香、粹煉製藥等方面，都可以找到香草在中華文化中的根基。因此，結合西方的香草知識，發揮我們既有的文化特色，才是適合在地的香草生活。例如，提到迷迭香，大家都會想到可以用來搭配烤肉，但是吳班長說，其實炒蛤蜊（或其他蚌殼類海鮮）時放迷迭香，更是對味。如果想學習更多的香草料理，甚至動手自己製作保養品，那麼何不預約一場花田漫步，讓吳班長和產銷班的成員引領您進入他們的香草王國。,886-3-5841001,新竹縣尖石鄉錦屏村 11 鄰 163 號,新竹火車站→富貴火車站→南河橋→5625那羅,08:00-17:00,{},"{'PositionLon': 121.2509994506836, 'PositionLat': 24.684999465942383, 'GeoHash': 'wsqhrju29'}",休閒農業類,{},新竹縣,2023-07-13T01:40:49+08:00,2023-07-13T02:10:57+08:00
C1_376440000A_000204,油點草生態農場,這是一則科技人才棄高薪回歸山林的故事。這裡可以聽聞交織著關懷環境和社區溫情的奮鬥史。這是讓孩子認識自然、學習謙卑的好去處。北埔鄉的南外社區最近又獲得營建署、水土保持局和新竹縣政府的補助，他們的社區活動中心即將完工，未來將擔負社區老人的照護重責，而中心前蝴蝶造型的生態池也開始復育水生植物。催生這一切軟硬體設施的重要推手之一，正是油點草農場的主人陳紹忠。陳紹忠自小在南外社區長大，家裡的那座山，就是養活一家老小的命脈。不論種柑橘、茶葉、地瓜，都仰賴化肥和農藥。直到紛飛的彩蝶和震天的蛙鳴已經慢慢從記憶中消失，螢火蟲也不再在夜晚照路，陳紹忠才驚覺，自己腳下的土地已經變了色。為了挽救農場的生態，陳紹忠毅然辭去科學園區的工作，從頭開始學習自然農法和生態教學，要將油點草農場打造成適合親子共遊、師生共學的生態基地。十二年過去了，他從一個理工背景的工程師，變成滔滔不絕訴說昆蟲生平、信手拈來都是花草特色的生態農人，他的成就，盡在油點草農場裡。油點草是農田旁很容易見到的野草，屬臺灣特有種。因為花朵的基部有花蜜，是鄉下孩子們最愛的野食，引用它做為農場的名字，除了它填充陳紹忠兒時的美好記憶外，也代表了他對農場的希望──蛙鳴、蝶舞、鳥啼、蜂鬧的各種聲音，能夠讓農場充滿「有點吵」的熱鬧氣氛。,886-9-32314252,新竹縣北埔鄉南坑村19號,走國道3號前往寶山鄉的大雅路二段/寶山交流道聯絡道路。從國道3號的 98-寶山 號出口下交流道→走大坪路、寶山路二段、寶山路一段、中大壢路和竹37-2鄉道前往目的地北埔鄉,未提供,{},"{'PositionLon': 121.05500030517578, 'PositionLat': 24.674299240112305, 'GeoHash': 'wsqh6evd1'}",休閒農業類,{},新竹縣,2023-07-13T01:40:49+08:00,2023-07-13T02:10:57+08:00
C1_376440000A_000205,巨埔生態休閒農場,退休校長吳聲淼回到從小長大的巨埔生態休閒 農場，闢建新的「生態農場教育園區」，透過食 農教育、生態導覽等親近土地的活動，希望讓現 代的小朋友，有機會更了解在地的生活與故事。順著霄裡溪河岸旁的馬路前行，還沒到巨埔 生態休閒農場，就已能夠先感受到巨埔社 區這個客家城鎮的農情魅力。馬路北岸是綿延一 片的農田景色，秋收時稻浪隨風搖曳；南岸則是 層層疊疊的丘陵起伏，不少農家散居於林樹之間， 更顯自然悠閒氣氛。若沒特別注意，很容易錯過隱身在一片綠林中的巨埔農場，直到順著馬 路旁的坡道往上走，才會發現庭院、生態池、菜園、果樹、溫室、餐廳等依 序出現，景觀別有洞天。走進園區的後山，還有行家才知道的巨埔步道，漫 步其中，宛如來到神祕的山林祕境。巨埔農場園區內開闢許多有機耕種的蔬果菜園區，配合活動時，遊客可 以親自體會採菜樂趣。同時，還規劃有蝴蝶復育區、獨角仙生態區、螢火蟲 復育區等，生態樣貌豐富。農場場長吳俊穎更推薦遊客每年三月、五月來 訪。三月時黃花風鈴木盛開，一片黃色花海甚是美麗；五月時則輪到油桐花 季登場，山頭白皚皚一片，又是不同景象。客製化活動，種菜、採菜自己來由吳氏家族合力經營的巨埔農場，成員分工負責菜園、客家餐廳等不同 區域，大家齊心守護的是這塊家族經營數十年的土地，而這裡，自然也充滿 他們的兒時記憶。「小時候，這裡整片山都是我的遊樂場。」國小校長退休的吳聲淼說。從 事科學教育 30 多年，吳聲淼其實有許多有趣的身分，他不僅是在地的文史 工作者、作家，對於河川保育、客家文學有深入的研究，同時還出版過《客家兒童繪本》、《兒童植物寓言》等書，對於兒童文學推廣不遺餘力。兩年 前，吳聲淼回到農場，闢建了「巨埔生態農場教育園區」，除了想與更多小 朋友分享他的童年記憶外，也希望能將兒童教育與在地社區發展做結合。「以前，我們只要一把刀子，就有本領在山上過一天，知道哪些植物可 以吃、哪些植物該怎用，但現在的小朋友就不行了，所以要帶動他們多動動 腦。」吳聲淼笑說。吳聲淼設立教育園區，希望能作為國中小學及幼稚園兒童科學教育的場 所，同時，他更提供客製化的活動，視遊客需求規劃自然生態導覽，或者利 用場地進行各種體驗遊戲，果然吸引不少學校單位或團體，前來從事校外教 學等活動。在這裡，不僅可以善用農場資源，親自體會種菜、拔菜的樂趣，吳聲淼更 教導小朋友們運用天然素材，製作各種童玩，如斛瓜製作成水瓢、月桃葉片 摺成箭筒等。另外，更帶領著小朋友們做生態導覽，讓孩童認識各式昆蟲、 動植物等。園區內最吸引人目光的，還有色彩繽紛的「涵管屋科學教室」，每間教室可以設計成一個科學闖關場所，也是孩童最喜歡的聚會場地，平時還能作為 遊客的包廂，坐覽園區綠意美景。吳聲淼特別提到，若從高空往下看，涵管 屋教室與活動廣場剛好就像是一朵盛開的花，這是當初在設計時的巧思。回到故鄉，吳聲淼其實有更大的願景，他希望能帶動巨埔社區的發展，為 故鄉多做點事。在他心中，巨埔一帶有山林、桐花、夕陽，有霄裡溪的河岸 景色，有客家柿餅、茶葉，更重要的是，巨埔社區還是台灣文學作家吳濁流 的故居，更增添在地的人文氣息。因此，吳聲淼希望以教育園區為起點，一步步帶動巨埔社區的發展。園區 除了接待團體活動外，還曾舉辦音樂會及免費的生態講座等，沒有特別對外 宣傳，就已吸引許多人前來參與。「我退休後，過得好像比退休前還忙。」儘管生活變得更忙碌，吳聲淼卻 是甘之如飴，因為他已在故鄉找到更能發揮專長的生活方式。,886-3-5899612,新竹縣新埔鎮新龍路752巷2號,未提供,{},"{'PositionLon': 121.10099792480469, 'PositionLat': 24.83919906616211, 'GeoHash': 'wsqj79z4c'}",休閒農業類,{},新竹縣,2023-07-13T01:40:49+08:00,2023-07-13T02:10:57+08:00
C1_376440000A_000206,有助牧場!!放養雞生好蛋!!,"走進新竹縣竹東鎮陸豐里的鄉間小路,路旁 斗大的「有助牧場」就寫在屋舍的外牆 上,牧場內首先映入眼簾的是一座座存放大豆 飼料的高塔,走近瞧瞧,會發現五座雞舍就散布 其中,這些雞舍有些是小雞生長的地方,有些則 是蛋雞產蛋的地方,同時,還有為數眾多的雞隻 在雞舍旁的空地奔跑著,每隻雞都是農場第二 代主人羅有助最呵護的寶貝。不到 30 歲的羅有助,是新竹縣土生土長的客家子弟,自小便看著父親羅世龍養雞長大,對雞隻一直有著深厚的感情。羅有助退伍後曾短暫從事一年的業務工作,但業務工作 壓力大,反倒是看著父親每天開心 踏實的照顧雞隻,讓他決定回鄉幫 忙,開始他的養雞人生。友善養殖 雞隻快樂產蛋原本羅家養的是土雞,某天一位 賣雞蛋的業務前來拜訪,提及雞蛋 的行情不錯,加上家中有一些閒置 的雞舍,激發起羅有助養蛋雞的企 圖心。「養雞人家就是什麼雞都想養 看看。」羅有助笑說。於是父子倆一 起投入養蛋雞的領域,從原本的不 熟悉到逐漸養出心得,現在有助牧 場不僅全養蛋雞,更是全家人的「開 心牧場」。有助牧場最特別的是採用放牧方 式來飼養蛋雞,一般來說,往往肉雞 才有此「放山雞」的待遇。「為什 麼蛋雞只能沒日沒夜待在籠子裡生 蛋,這樣你看著心裡也會不舒服。」 從小就將雞當作玩伴的羅有助,認 為友善對待雞,雞就能生出好蛋,儘 管放養的方式看似不符合「經濟效 益」,但羅有助仍堅持「取之有道」 的原則,以人道方式對待雞隻。有助牧場蛋箱採用自動集蛋設計,蛋不落地,不經水洗可減少污染。但要如何讓這些習慣四處奔跑的雞乖乖到專屬的產蛋箱中下蛋呢?原來在蛋雞預備生產時,都會蹲下靜止不動,此時就要將雞抱至產蛋箱,讓他們習慣在裡面產蛋。面對上千隻雞,這樣的訓練期會長達一到兩個月,每天從早到晚,不斷重複這個動作,期間的辛苦可想而知。自家調配!!無毒健康飼料讓雞玩得開心,更要讓雞吃的無毒、健康。走進有助牧場調配飼料的倉 房,裡頭堆放著各種原料,員工在秤重機上一一秤重後調配妥當,再傳送到 雞舍讓雞隻們大快朵頤。從父親羅世龍開始,便嘗試研究飼料的調配方式, 羅有助接手後持續進行調整,前前後後更改過三十幾次的配方,包括哪種成 分會對蛋殼厚薄產生影響?那種元素會改變蛋黃的顏色?這些都要一一研 究才知道。「就像人吃飯配菜一樣,米飯當然是主食。」有助牧場的飼料以 五穀為主,並加入微量元素、海藻以及益生菌等,每一批飼料都要花時間調 配好比例。羅有助認為,這就像家中媽媽自己煮菜一樣,雖然辛苦,但用什 麼食材、源頭來自哪裡都一清二楚。而在不添加化學合成成分後,加上對飼 料的用心,讓有助動福雞蛋更為天然無毒,在食安問題頻傳的狀況下,依然 得到許多客戶的肯定。一步一腳印!!打開行銷通路面對的挑戰,還有行銷的問題。剛開始從土雞轉為蛋雞時,不僅喪失原來 的客戶,年輕的羅有助去拜訪雞蛋的通路店家時,許多人還以為他只是玩玩 而已,懷疑他能堅持多久。後來一次偶然的機會,羅有助遇到了「台灣動物 社會研究會」這個強調友善養殖動物的組織,透過他們的介紹,讓許多有機 店家認識有助牧場的無毒雞蛋,順利解決部分通路的問題。另外,羅有助也 走向第一線,參加許多小農市集,一對一面對面與消費者溝通,「我常告訴 消費者,一顆雞蛋十幾元看似很貴,但它有許多價值是你看不到的。」一步 步踏實的打開市場,目前包括新竹縣青農直銷站、有機商店等,都可以買到 有助動福雞蛋。「辛苦時,我會回想當初堅持的原因,不就是因為撿到第一顆蛋時的喜悅 感嗎?」在一顆顆雞蛋中,羅有助找到自己存在的意義,也努力與更多人分 享這單純的快樂。",886-3-5923717,新竹縣竹東鎮陸豐里8鄰87號,未提供,{},"{'PositionLon': 121.06900024414062, 'PositionLat': 24.77359962463379, 'GeoHash': 'wsqhfvzu8'}",休閒農業類,{},新竹縣,2023-07-13T01:40:49+08:00,2023-07-13T02:10:57+08:00
C1_376440000A_000207,竹北天后宮,竹北天后宮奉祀主神 天上聖母（媽祖）為全臺唯一泥塑金身，宮址舊稱豆仔埔，亦即今之竹北里、竹仁里與竹義里一帶地區，該地名稱之由來，源於此地聚落位於新庄子圳上游，引水不易，而過去荒埔地經開墾後，僅能種植豆類，因此稱為「豆仔埔」。由於耕作不易，居民務漁者甚眾，渡海來台之初，先民奉請居家航海之守護神－媽祖香火，以祈求平安，護境佑民。當時清廷海禁嚴厲管制，不論偷渡或合法移民，均無法攜眷前來，以至人心至為浮動，所幸媽祖慈威顯赫，神庥廣被，先民之精神信仰皆賴以所託。百餘年來，每逢元宵佳節，信眾均覓地搭棚啟建平安祈福三獻法會，以感念媽祖聖恩，此一宗教活動延續至今，蔚為天后宮之特色。,886-3-5553063,新竹縣竹北市仁德街50號,中山高速公路=>下竹北交流道=>往竹北市區方向右轉縣政二路=>中正東路左轉=>過竹仁國小後右轉即可抵達竹北天后宮。省道台１線（中華路）=>至竹北市=>轉入中正東路=>過陸橋後左轉即可抵達竹北天后宮。,未提供,{},"{'PositionLon': 121.01100158691406, 'PositionLat': 24.83679962158203, 'GeoHash': 'wsqj39msb'}",廟宇類,{},新竹縣,2023-07-13T01:40:49+08:00,2023-07-13T02:10:57+08:00
C1_376440000A_000208,蓮華寺,清光緒三年竹塹知縣李慎彝途經蓮華寺現址，面對十八尖山及頭前溪深讚地靈，乃授意鄉紳建廟。林希賢等十二位鄉紳遂於1878年發起創建蓮華寺（俗稱觀音廟），主祀觀世音菩薩。1895年台灣割讓與日本而兵燹四起，本廟亦被殃及成一片荒蕪。迨1904年賴鄉紳林榮和、林祺富、楊慶雲等發起重建，香火隨之興盛。民國四十八年，由修慧法師接任住持，一本佛心，銳意整頓環境，整修大殿及房舍等處，維持古風，遂使該寺煥然一新，成為竹北暨遠近信徒朝拜之聖地。蓮華寺整體為二殿二廊二橫屋的規模，主體建築於戰亂中遭受破壞，經後代重修，而成今日樣貌。綜觀蓮華寺之建築不但保留清末、日治初期、光復初期之建築特色，且是地區性信仰文化的整合中心，對於地區性文化之研究是極好的素材。,886-3-5501342,新竹縣竹北市犁頭山下39號,中山高速公路=>竹北交流道下=>往芎林方向=>自強北路左轉（往新埔方向）直行=>於普善巷即可抵達蓮華寺（全程約2公里）。,未提供,{},"{'PositionLon': 121.03600311279297, 'PositionLat': 24.82710075378418, 'GeoHash': 'wsqj4pxsr'}",廟宇類,{},新竹縣,2023-07-13T01:40:49+08:00,2023-07-13T02:10:57+08:00
C1_376440000A_000209,蓮花寺,座落鳳山崎山山腳處，主祀觀世音菩薩。因此地的地勢很像蓮花座，所以將廟名取為「蓮花」。外觀莊嚴樸實，廟宇前除了有雅致的小橋流水與蓮花池外，寺廟旁還有一座松樹林，內有著完善的野炊設備，適合全家同遊踏青。而站在寺廟前向北遠望，則可見觀音燈塔與香山全景。沿蓮花寺左方「鳳崎步道」拾級而上，兩側自然生態豐富、景致宜人，視野遼闊，為民眾一覽竹北市全景之美的絕佳去處。,886-3-5561805,新竹縣竹北市蓮花路925號,國道1號竹北交流道下→光明六路→右轉縣政二路→左轉中正東路(118縣道)直行，續行中正西路→右轉鄉道竹73號(舊台15線)，循指標右轉即可抵。,未提供,{},"{'PositionLon': 120.96099853515625, 'PositionLat': 24.876699447631836, 'GeoHash': 'wsqj889j7'}",廟宇類,{},新竹縣,2023-07-13T01:40:49+08:00,2023-07-13T02:10:57+08:00
C1_376440000A_000210,溪南湖口顯聖宮,位於鬧區中的顯聖宮廟貌巍峨，殿宇堂皇，入口有兩座古色古香的牌樓，穿過牌樓站在寬闊廟埕四望，兩旁是水泥房舍，戲臺位於兩座牌樓之間，在慶典時可供宴神娛人。三川門前有一對石獅鎮守，登上三川殿前廊，左右牆堵盡是所師們盡心雕飾的石雕藝術。跨過門檻，進人三川殿內，這裡是信徒入宮初拜殿；往中庭望去，在光影明暗的對映下，更覺正殿幽深神祕，肅穆莊嚴。左側殿設置辦事處，另與右側殿各祀岳飛、包公及信士祿位之神龕。過側殿左轉，面向正殿只覺輝煌華麗，處處顯得極為隆重用心。主祀是聖母尊，左祀註生娘娘，右祀九天玄女。二樓則主祀觀音佛祖，配祀關帝、孔子，陳設簡單樸素。「顯聖宮」定每年農曆三月二十三日為聖母千秋聖誕祭典，由轄區四鄉鎮信徒輪流辦理。,886-3-5992634,新竹縣湖口鄉民生街120號,中山高湖口交流道下→往湖口方向接台１號省道至老湖口→左轉中正路往湖口市區方向到底→右轉接民生街即可抵達。,未提供,{},"{'PositionLon': 121.0479965209961, 'PositionLat': 24.90690040588379, 'GeoHash': 'wsqjdw0mn'}",廟宇類,{},新竹縣,2023-07-13T01:40:49+08:00,2023-07-13T02:10:57+08:00
C1_376440000A_000211,湖口三元宮,湖口三元宮是老湖口地區的信仰中心，基本格局包括三川殿、過廊、左右護堂、中庭、正殿及左右耳房，其單護龍合院廟宇格局模式，廟旁即是著名的湖口老街，也是本縣的觀光勝地之一，廟內奉祀三官大帝、媽祖、觀音娘、伯公及註生娘娘等神，於九十年指定為縣定古蹟。 大湖口地區約於清乾隆嘉慶年間吸引大批客籍移民墾拓，而逐漸形成散村，老湖口由於位居山區與台地之間，而成為社群中心與貨物集散地。光緒十三年（ 1887 ）基隆到新竹間的鐵路開始興築，因行經湖口又在老湖口設站，光緒十九年通車後更為老湖口帶來商機，一時之間商業急遽成長而成為商業重鎮。三元宮於民國九十年經縣府公告指定為新竹縣縣定古蹟。由於九二一大地震時，古蹟本體受到嚴重的傷害，部份牆體龜裂，屋瓦漏水，經縣府向內政部爭取修復經費，獲得內政部核定動支九二一社區重建更新基金全額補助辦理修護工程。 三元宮修護工程委託徐裕健建築師事務所進行設計監造，於九十一年十二月完成發包，工程於九十二年二月動工，至九十四年五月完工。,886-3-5692667,新竹縣湖口鄉湖口老街278號,中山高湖口交流道下→往湖口方向接台1號省道至老湖口→轉入湖口老街即可抵達。,未提供,{},"{'PositionLon': 121.05899810791016, 'PositionLat': 24.877099990844727, 'GeoHash': 'wsqjdb8rx'}",廟宇類,{},新竹縣,2023-07-13T01:40:49+08:00,2023-07-13T02:10:57+08:00
C1_376440000A_000212,鳳山寺,鳳山寺主祀釋迦牟尼佛、文殊菩薩、普賢菩薩，寺廟莊嚴宏麗，週邊景致優雅怡人，附近花木更是四時挺秀爭妍，登高一眺，鳳山崎之環山抱水景色，美景盡收眼底。,886-3-5981369,新竹縣湖口鄉新興路838巷101號,從國道1號的 83-湖口 號出口下交流道，靠右以繼續行駛高速公路聯絡道，走光華路。,未提供,{},"{'PositionLon': 121.01100158691406, 'PositionLat': 24.882099151611328, 'GeoHash': 'wsqj99ts8'}",廟宇類,{},新竹縣,2023-07-13T01:40:49+08:00,2023-07-13T02:10:57+08:00
C1_376440000A_000213,鳳蓮宮,民國五十八年歲次庚戊由地方何姓施主捐獻廟基土地，並召集地方士紳磋商共襄盛舉募款籌建，成立鳳蓮宮觀音廟。由何友家先生為管理人。 本宮廟內主祀 觀世音菩薩，配祀五穀神農帝，註生娘娘， 延平郡王，福德正神，民國95年整修完竣後，廟旁增設文昌廳，內配祀文昌帝君，關聖帝君，文財神爺。,886-3-5579009,新竹縣新豐鄉建興路一段51巷58號,中山高 南下83公里處，由新豐/湖口交流道下右轉 →直走到底十字路口（士林電機大門）右轉 →過天橋接省道左轉台1省道，過新豐火車站再前行至建興路右轉可達,未提供,{},"{'PositionLon': 120.99600219726562, 'PositionLat': 24.8710994720459, 'GeoHash': 'wsqj3rdse'}",廟宇類,{},新竹縣,2023-07-13T01:40:49+08:00,2023-07-13T02:10:57+08:00
C1_376440000A_000214,池府王爺廟,池府王爺廟又稱池和宮，其建築採門庭採用中國傳統式的山門造型，以及重簷歇山式的屋簷，三川殿的左右兩側有八角鐘樓與鼓樓閣，屋頂上也有許多龍、鳳與武將的剪黏藝術，廟的後方還有一座清幽的花園，可供民眾休閒遊憩，每逢王爺聖誕等節日，人聲鼎沸，香客絡繹不絕。,886-3-5680024,新竹縣新豐鄉池府路156號,竹北交流道下→120縣道→右轉1號省道北行→過明新技術學院→左轉康樂路至新庄子→15號省道北行至王爺廟旁，續指標前行即抵。,未提供,{},"{'PositionLon': 120.97599792480469, 'PositionLat': 24.909799575805664, 'GeoHash': 'wsqj8ysn1'}",廟宇類,{},新竹縣,2023-07-13T01:40:49+08:00,2023-07-13T02:10:57+08:00
C1_376440000A_000215,天德堂,天德堂由地方軍政及富商名流合資而建，為天德教在台灣最大的廟宇，廟中供奉無形古佛。天德教信奉的是一種「道」的信念，而非人物偶像。天德堂位於松柏嶺西側，廟宇經過整修後，廣場上可放風箏及玩耍，下坡處的古道更是附近居民清晨運動、傍晚散步的好去處。廟前廣場可眺望南寮漁港與風力發電廠，為民眾口耳相傳的極佳觀景點。,886-3-5592862,新竹縣新豐鄉德昌街236號,由新竹火車站前搭新竹客運往新庄子的班車，於明新科技大學站下車可抵達。,未提供,{},"{'PositionLon': 120.9800033569336, 'PositionLat': 24.86720085144043, 'GeoHash': 'wsqj2yyvy'}",廟宇類,{},新竹縣,2023-07-13T01:40:49+08:00,2023-07-13T02:10:57+08:00
C1_376440000A_000216,新豐三元宮,循著鄉間小路前行，眼前忽有湛紅華麗牌樓高聳於田園鄉野中，抬頭仰望，頂部刻工飾樣華貴氣派，卻仍難掩其莊嚴隆重之勢。穿過牌樓，宮廟前一對石獅子鎮守在此，有別於傳統石獅子，這裡的石獅子面貌扁平，體型圓潤，咧開的八字形嘴，十分生動逗趣。跨過門檻，進入三川殿內，大紅燈籠高掛滿殿，氣勢非凡；從正門至神龕眼前所及皆是由香樟木建造，雕樑畫棟獨具匠心，裝飾雕琢極盡富麗堂皇，精緻絕倫，猶如身處藝術殿堂。華燈初上，夜晚點燃五彩燈光，進入其中更有如置身聖境。&nbsp;,886-3-5993317,新竹縣新豐鄉中崙38號,從國道1號的 83-湖口 號出口下交流道，繼續走高速公路聯絡道。走光華路前往新豐鄉的竹6鄉道。,未提供,{},"{'PositionLon': 121.00800323486328, 'PositionLat': 24.898000717163086, 'GeoHash': 'wsqj9se36'}",廟宇類,{},新竹縣,2023-07-13T01:40:49+08:00,2023-07-13T02:10:57+08:00
C1_376440000A_000217,新豐普元宮,普元宮位於新豐鄉坡頭村，信徒涵蓋新豐、湖口、竹北地民眾。廟內奉祀池府王爺、觀音菩薩、玉皇大帝、王母娘娘等眾神。&nbsp;,886-3-5680379,新竹縣新豐鄉95之7號,從國道1號的 83-湖口 號出口下交流道，走光華路，朝竹6鄉道前進，走新庄路/竹3鄉道，西濱公路/西部濱海快速公路/台61線靠右行駛。,未提供,{},"{'PositionLon': 120.97799682617188, 'PositionLat': 24.924800872802734, 'GeoHash': 'wsqjbcmmr'}",廟宇類,{},新竹縣,2023-07-13T01:40:49+08:00,2023-07-13T02:10:57+08:00
C1_376440000A_000218,三聖宮,三聖宮主祀三恩主公，但仍以關聖帝君為主，左右配祀張司命帝君(灶君公)，呂純陽仙師(呂仙公)，因此三聖宮又別名聖帝廟。廟邊古木參天，寺廟建築宏偉，位處蓮華山古道的入口、地勢高亢，展望極佳，鳳山溪支流淌流廟前，依山傍水，鍾靈毓秀。河床寬闊平坦，可烤肉、戲水、抓蝦及露營。,886-3-5882153,新竹縣新埔鎮三聖路488號,新竹客運→新竹火車站搭往新埔。,未提供,{},"{'PositionLon': 121.0989990234375, 'PositionLat': 24.831300735473633, 'GeoHash': 'wsqj78msg'}",廟宇類,{},新竹縣,2023-07-13T01:40:49+08:00,2023-07-13T02:10:57+08:00
C1_376440000A_000219,廣和宮,位於新竹縣新埔鎮中正路608號的新埔廣和宮，當地人稱為「王爺宮」，卻非奉祀五府千歲等王爺信仰，而主祀三山國王，因客家人稱三山國王為「王爺」。由於三山國王為客家人特有信仰，客家人移墾台灣後，也將這個信仰帶入台灣，因此廣和宮也是新埔地區客家人的信仰中心，更是當地遠近馳名的廟宇之一。廣和宮最大的特色，莫過於在建築上的「對場作」，這與屏東縣萬丹鄉的萬惠宮相同，就是以中軸線為界，左右木雕分別由兩組師傅施工，所以左右兩邊的吊筒、雀替、獅座都不太一樣，因此出自不同的師傅之手。,886-3-5885758,新竹縣新埔鎮中正路608號,1.北二高關西交流道下→循118縣道往新埔鎮市區方向即可抵。 2.北二高竹林交流道下→循120、115縣道至新埔→右轉118縣道續行即可抵逹。 3.中山高竹北交流道下→循120縣道左轉117縣道→右轉接118縣道往新埔鎮市區即可抵達。,未提供,{},"{'PositionLon': 121.07499694824219, 'PositionLat': 24.828100204467773, 'GeoHash': 'wsqj5pu45'}",廟宇類,{},新竹縣,2023-07-13T01:40:49+08:00,2023-07-13T02:10:57+08:00
C1_376440000A_000220,新埔文昌祠,新埔文昌祠建於道光年間，是新竹縣三所文昌廟之一，光緒年間因老舊而重建，重建之祠，書房兼廟堂，更為新埔甚早即有文明氣質之代表建築。民國初年因文昌祠突然失火而付之一炬，於是再於民國八十四年，積極重建。文昌主祭文昌帝君、文魁帝君、朱衣神君、文衡聖帝與孚佑帝君五大帝，屬道教之多神主義。,886-3-5886578,新竹縣新埔鎮成功街202巷7號,從國道1號的 69-楊梅 號出口下交流道，走115縣道前往新埔鎮的成功街,未提供,{},"{'PositionLon': 121.07599639892578, 'PositionLat': 24.828699111938477, 'GeoHash': 'wsqj5puve'}",廟宇類,{},新竹縣,2023-07-13T01:40:49+08:00,2023-07-13T02:10:57+08:00
C1_376440000A_000221,元和宮,元和宮位於關西坪林國小西側，已有百餘年歷史，宮內奉祀主神為三官大帝，配祀神尊為關聖帝君、神農大帝、文昌帝君、觀世音菩薩、天上聖母、註生娘娘。是坪林地區信眾之精神依歸，常為百姓帶來風調雨順的日子。廟前有一棵百年老榕樹，與廟與相互映下顯的更獨具意義。,886-3-5868892,新竹縣關西鎮坪林隧道29號,國道三號北二高關西交流道→接118號縣道往關西方向→正義路→接竹16線道→元和宮,未提供,{},"{'PositionLon': 121.13899993896484, 'PositionLat': 24.801799774169922, 'GeoHash': 'wsqjhe48z'}",廟宇類,{},新竹縣,2023-07-13T01:40:49+08:00,2023-07-13T02:10:57+08:00
C1_376440000A_000222,關西太和宮,關西地區在漢人入墾之前，屬於原住民居棲之處。目前關西街區的墾拓約始於乾隆五十八年（1793）由泉州人陳智仁所組成的「連際盛」墾號，當時關西地區稱為「美里庄」。後來連際盛墾號因遭泰雅族人襲擊，而於嘉慶年間放棄該地的墾拓工作，並由衛阿貴承接。衛阿貴承接當地的墾拓工作後，於嘉慶年間成立公館作為課租收穀之地，並將此地改稱為「新興庄」。嘉慶二十五年（1820）衛阿貴的五個兒子合組「衛壽宗」公號，接替衛阿貴的墾戶地位，並於道光三年（1823）將「新興庄」改為「鹹菜甕」，後人雅其名為「咸彩鳳」或「鹹菜硼」，最後轉為使用「咸菜硼」之名。關西太和宮，又稱為三界廟，主祀三官大帝，約於清嘉慶十七年(1812)，由當時的墾主衛阿貴所創建，原址位於復興庄。清同治年間由黃台三、黃台貴等人發起修建，位置遷移至今關西分駐所一帶，日治初期被佔為竹北二堡辦務署，後遭日人焚毀。明治三十三年（1900）羅碧玉、陳春隆等人發起新建完竣，並擇遷至現址前方，而改稱太和宮。昭和四年（1929），羅碧玉、黃德洋等人再發起遷建至今址，於昭和六年正式完工。民國五十八年廟宇進行修繕，而成為今日所見之廟貌。,886-3-5872216,新竹縣關西鎮大同路30號,於新竹車站搭關西方向之新竹客運至關西站下車步行約三分鐘即可到達。本廟位於舊市區，停車不易，請儘量搭乘其他交通工具,未提供,{},"{'PositionLon': 121.177001953125, 'PositionLat': 24.7908992767334, 'GeoHash': 'wsqjj3n3k'}",廟宇類,{},新竹縣,2023-07-13T01:40:49+08:00,2023-07-13T02:10:57+08:00
C1_376440000A_000223,代勸堂,代勸堂位於芎林鄉新鳳村燥坑19號，又名為聖帝廟。其興建於西元1892年，至今已有百餘年的歷史。代勸堂乃昔時地方仕紳楊福來、鍾逢源等，感於飛鳳山上，氣勢磅礡，環境幽美，特別是山腰處，宛如福地洞天之仙境，故倡議建廟。代勸堂主祀關聖帝君、孚佑帝君與司命真君等神。因以其代天勸化，降福濟世，故而名之為「代勸堂」。,886-3-5921729,新竹縣芎林鄉十鄰燥坑19號,北二高竹林交流道下→接120號線道往橫山、竹東方向→注意左方有飛鳳山之指標→循飛鳳山指標左轉上山→代勸堂,未提供,{},"{'PositionLon': 121.10800170898438, 'PositionLat': 24.764400482177734, 'GeoHash': 'wsqhguhph'}",廟宇類,{},新竹縣,2023-07-13T01:40:49+08:00,2023-07-13T02:10:57+08:00
C1_376440000A_000224,文林閣,文林閣主祀三恩主及文昌帝君，是座歷史相當悠久的廟宇，也因此信徒眾多，香火鼎盛，不僅是芎林地區遠近馳名的廟宇之一，也是早期重要的學堂。文林閣於清朝同治年間，由舉人鄧兆熊所創設，當時為地方作育英才的學堂。至光緒年間，改創設「文林社」，成為頭前溪流域文士以文會友的場所，之後才將學堂改為神廟，名曰「文林閣」，亦稱文祠。至民國二十一年（西元1932年）改建，將原本土牆廟宇改為紅磚琉璃瓦的建築。現今之廟貌乃民國八十年（西元1991年）左右所重建而成的。每年九月二十八日為孔子誕辰，是芎林文林閣最隆重的祭祀之日，廟方會舉行盛大的活動慶祝，各地前來參拜善男信女絡繹不絕，香火鼎盛。,886-3-5924871,新竹縣芎林鄉文山路238號,北二高竹林交流道下→120縣道→循指標可抵。,未提供,{},"{'PositionLon': 121.08300018310547, 'PositionLat': 24.773099899291992, 'GeoHash': 'wsqhgmccy'}",廟宇類,{},新竹縣,2023-07-13T01:40:49+08:00,2023-07-13T02:10:57+08:00
C1_376440000A_000225,新豐宮,豐宮座落於新竹縣寶山鄉新城村，主祀「三山國王」，也是寶山鄉鄉民非常重要的信仰。廟之後方及前空地闢為花園，配合戲台，亭閣行程一美麗園景，此不啻我庄民信仰之聖地，亦可稱為寶山鄉之社區公園。,886-3-5762056,新竹縣寶山鄉新湖路五段326號,中山高新竹交流道下→接光復路往竹東方向→右轉介壽路進入竹科→右轉園區1路→左轉園區5路→左轉雙園路進入寶山鄉→接寶新路續行即可抵達。,未提供,{},"{'PositionLon': 120.96499633789062, 'PositionLat': 24.731599807739258, 'GeoHash': 'wsqh8wk00'}",廟宇類,{},新竹縣,2023-07-13T01:40:49+08:00,2023-07-13T02:10:57+08:00
C1_376440000A_000226,種福禪寺,位於山湖村新湖路，主祀「觀世音菩薩」，建於清朝同治六年﹙西元一八六七年)，又稱「觀音堂」，環境清涵臨近於寶山水庫山明水秀之地，是山湖村民信仰中心。,886-3-5761172,新竹縣寶山鄉山湖路8號,國道三號下寶山交流道下，右彎接大雅路，直行右轉接園區三路、五路，右轉接寶山路，續行接水仙路，循指標往寶山水庫前進，轉竹40新湖路，約3分鐘可以抵達,未提供,{},"{'PositionLon': 121.03299713134766, 'PositionLat': 24.73819923400879, 'GeoHash': 'wsqhdpmw3'}",廟宇類,{},新竹縣,2023-07-13T01:40:49+08:00,2023-07-13T02:10:57+08:00
C1_376440000A_000227,元聖宮,位於寶山村新湖路，建於西元1925年(日治大正14年)，祀奉「三官大帝」，為寶山村、芎蕉窩、泥船、寶岡、枋仔坑等鄉民信仰中心。,886-3-5761443,新竹縣寶山鄉新湖路一段270號,1.二高寶山交流道→往寶山村方向約300公尺→左轉大坪路直行→過寶興橋右轉→寶山路二段→經過寶山國小→楓橋派出所(寶山社區)2.二高科學園區交流道接寶山路直行→經愛迪生社區→寶山路二段→經過寶山國小→楓橋派出(寶山社區),未提供,{},"{'PositionLon': 121.0260009765625, 'PositionLat': 24.732999801635742, 'GeoHash': 'wsqhdn82n'}",廟宇類,{},新竹縣,2023-07-13T01:40:49+08:00,2023-07-13T02:10:57+08:00
C1_376440000A_000228,保生宮,位於大崎村大坪路，祀奉「保生大帝」。「保生大帝」原為福建同安人吳飛冀之神位，為閩南屬性之神祇。建於清朝道光九年﹙西元一八二九年﹚，係由郭、陳、蘇三姓墾戶及官隘隘丁集資獻建。為大崎、雙溪兩村村民之信仰中心。,886-3-5799926,新竹縣寶山鄉大雅一街88號,北二高寶山交流道後往寶山鄉公所方向走，轉三峰路後直走接大坪路左轉可達,未提供,{},"{'PositionLon': 121.01599884033203, 'PositionLat': 24.747499465942383, 'GeoHash': 'wsqhcc1ht'}",廟宇類,{},新竹縣,2023-07-13T01:40:49+08:00,2023-07-13T02:10:57+08:00
C1_376440000A_000229,聖女小德蘭教堂,聖女小德蘭教堂為天主教新竹教區主要朝聖地，又稱新城天主堂。小德蘭是一位西班牙的天主教聖徒，普受後世天主教徒景仰，世界各地都有以德蘭為名的天主教堂。抬頭仰望，教堂外那幅巨大的小德蘭聖像，透露著教堂仁慈救世的情懷!走上教堂二樓的聖殿，窗戶全為彩繪玻璃，午後陽光從窗外射進來，所有玻璃都泛著不同的金亮光彩。漫步在教堂外的小步道，可以看到莊嚴慈祥的聖母像，往前走近，為人類而難的耶穌，釘在十字架上，正矗立於天地之間，沿著小道，石板刻畫著15處的受難記，猶歷歷在目。,886-3-5762139,新竹縣寶山鄉新城村寶新路三段110號,中山高新竹95B交流道下→左轉園區二路→左轉園區3路→左轉雙園一段進入寶山鄉→接寶新路續行即可抵達,平日不開放，參觀須事先預約,{},"{'PositionLon': 120.96099853515625, 'PositionLat': 24.730100631713867, 'GeoHash': 'wsqh8tcp7'}",廟宇類,{},新竹縣,2023-07-13T01:40:49+08:00,2023-07-13T02:10:57+08:00
C1_376440000A_000230,新城新豐宮,創建於道光年間，主祀三山國王，向來是寶山鄉內的新城、寶斗與深井三地的信仰中心。新豐宮最熱鬧的時候，是三山國王的誕辰，分別在農曆2、5、8月的25日，另外在元月14、15日還會舉辦「閹雞大賽」，屆時，居民將自家飼養的雞帶到這裡參加比賽，比較誰家養的雞最肥大，也是地方一大盛事。早年缺乏醫療、地方又瘟疫橫行。每年農曆正月14-15日二天、以新豐宮為主舉行神明遶境祈福活動，期望新年能平安度過，而辦理打中午活動。現今打中午取其「時空空、好年冬」之意，中午遶境隊伍在村落歇息時，村民自發性提供美食供其食用。藉由打中午活動凝聚向心力，發揚客家人昊課、分享、惜福、奉獻的精神，為客家文化傳承的重要活動,886-3-5762056,新竹縣寶山鄉新湖路五段326號,從國道3號的 103-茄苳 號出口下交流道，走新林路前往寶山鄉的新湖路五段/竹40鄉道。,未提供,{},"{'PositionLon': 120.9729995727539, 'PositionLat': 24.725900650024414, 'GeoHash': 'wsqh8v1yg'}",廟宇類,{},新竹縣,2023-07-13T01:40:49+08:00,2023-07-13T02:10:57+08:00
C1_376440000A_000231,惠昌宮,惠昌宮正殿主祀三山國王，三官大帝，是個道教、佛教並容的綜合性廟宇，因位居市鎮中心區，香火鼎盛，成為竹東鎮聞名遐邇，深具悠久輝煌歷史的廟堂。惠昌宮同時也是竹東一帶做戲最久的廟，如金光布袋戲就曾在此上演，成為居民兒時的美好回憶。,886-3-5103322,新竹縣竹東鎮東寧路三段67號,1.中山高新竹交流道下→接122號線道往竹東方向→竹東→惠昌宮。2.國道3號北二高竹林交流道下→接120號道路往竹東方向→竹林大橋→朝陽路→左轉東寧路→惠昌宮。,未提供,{},"{'PositionLon': 121.08699798583984, 'PositionLat': 24.73859977722168, 'GeoHash': 'wsqhersbg'}",廟宇類,{},新竹縣,2023-07-13T01:40:49+08:00,2023-07-13T02:10:57+08:00
C1_376440000A_000232,玉泉山普照宮,普照宮主祀神關聖帝君，關聖帝君是我國歷史上記載的真實人物，亦即三國時代的猛將關羽，由於他高尚的五常品格－－仁、義、禮、智、信，和忠義之氣，被士民敬為神。,886-3-5962478,新竹縣竹東鎮環山路一段5號,從國道3號的 90-竹林 號出口下交流道，繼續走120縣道。走123縣道前往竹東鎮的公園路/竹45鄉道,未提供,{},"{'PositionLon': 121.08399963378906, 'PositionLat': 24.73430061340332, 'GeoHash': 'wsqheqdxt'}",廟宇類,{},新竹縣,2023-07-13T01:40:49+08:00,2023-07-13T02:10:57+08:00
C1_376440000A_000233,清泉天主堂,靜謐的風，呼應著聖堂的莊嚴，穿過吊橋，緩緩步上石階，清泉天主堂矗立山腰，居高臨下，猶如懷抱著五峰大地。 這座獨特的教堂是村落的藝術、精神及文化的中心。1976年，年輕的丁松青神父來到了清泉，丁神父用愛與美構築了天主堂。教堂內色彩瑰麗的彩繪鑲嵌玻璃，與隨處可見的壁畫及木雕，甚至教堂外籃球場邊坡的大型馬賽克牆，這些創作都是出自於神父之手，把聖經故事與原住民傳說巧妙地融合。丁神父將他多彩的青春歲月注入清泉，為這個原本清冷的地區增添了藝術的熱度與生命的撼動。,886-3-5856026,新竹縣五峰鄉桃山村10鄰184號,於90-竹林出口下交流道，前往竹東鎮的中豐公路/中豐路一段/內山公路/台3線，走南清公路/122縣道前往五峰鄉的大鹿林道本線,未提供,{},"{'PositionLon': 121.10399627685547, 'PositionLat': 24.575599670410156, 'GeoHash': 'wsq5gcc5p'}",廟宇類,{},新竹縣,2023-07-13T01:40:49+08:00,2023-07-13T02:10:57+08:00
C1_376440000A_000234,廣濟宮,穿過蜿蜒小巷，眼前突然豁然開朗，廣濟宮，座落於老街的端點上，是村內居民的信仰中心，早期因該村地處偏遠長年遭受生蕃猛獸侵害，村民乃奉迎褒忠義民爺，設廟祈求平安，目前宮內增加了開漳聖王、天上聖母以及三官大帝，滿足了人民的信仰。,886-3-5849301,新竹縣橫山鄉內灣村大同路1號,從國道3號的 79-關西 號出口下交流道，沿118縣道、中豐公路/內山公路/台3線和中山街一段/120縣道前往目的地橫山鄉。,未提供,{},"{'PositionLon': 121.18000030517578, 'PositionLat': 24.70599937438965, 'GeoHash': 'wsqht98df'}",廟宇類,{},新竹縣,2023-07-13T01:40:49+08:00,2023-07-13T02:10:57+08:00
C1_376440000A_000235,丹桂宮,"是一座擁有百年以上歷史的古剎，為當地居民重要的信仰中心。崇祀主神為三宮大帝、五谷神農大帝、開化梓潼文昌帝君，其寺建築金碧輝煌,與青山白雲掩映,分外綺麗",886-3-5800984,新竹縣峨眉鄉峨眉街2號,中山高頭份交流道下＞接台124號道路(往峨眉方向行駛)＞珊珠湖接台三線道路＞峨眉鄉＞丹桂宮,未提供,{},"{'PositionLon': 121.02100372314453, 'PositionLat': 24.688899993896484, 'GeoHash': 'wsqh3ykz3'}",廟宇類,{},新竹縣,2023-07-13T01:40:49+08:00,2023-07-13T02:10:57+08:00
C1_376440000A_000236,隆聖宮,隆聖宮主祀關聖帝君，已有百年以上的歷史，是當地人的信仰中心，在日本昭和十年時發生大地震，隆聖宮有部份牆壁受損，因此在1947年修繕，此後陸陸續續的加以整修過，因此已非當時舊建築，雖舊建築並無完整保存，但整修時所拆下的古物建構並無丟棄，而是放在廟前的廣場以及富興老茶廠，對古文物有興趣的話可以觀賞當時的工藝技術。,886-3-5806902,新竹縣峨眉鄉忠義街16號,竹南火車站西站（前站）出口對面銀行旁竹南站站牌，搭乘苗栗客運5810［竹南－富興（經大埔壩）］，到終點站富興下車，往前走大同街，即可抵達富興老街,未提供,{},"{'PositionLon': 120.97899627685547, 'PositionLat': 24.696699142456055, 'GeoHash': 'wsqh2zyhw'}",廟宇類,{},新竹縣,2023-07-13T01:40:49+08:00,2023-07-13T02:10:57+08:00
C1_376440000A_000237,元光寺,位在七星村六寮，又稱獅岩洞，地處山巔，亦為獅頭山寺廟群中興建最早之佛剎。於清光緒21年（西元1895年）由普捷和尚開山，為獅頭山佛境開山之祖，嗣候富興庄曾秀春捐獻地基，於洞前建堂祀觀世音菩薩、釋迦牟尼。,886-3-5809255,新竹縣峨眉鄉七星村13鄰六寮53號,國道1號竹北交流道下→光明六路→117縣道→省道台68線→省道台3線→竹41線即可抵達。 2.國道3號竹林交流道下→120縣道→123縣道→122縣道→省道台3線→竹41線即可抵達。,未提供,{},"{'PositionLon': 121.01200103759766, 'PositionLat': 24.6427001953125, 'GeoHash': 'wsqh1wn4p'}",廟宇類,{},新竹縣,2023-07-13T01:40:49+08:00,2023-07-13T02:10:57+08:00
C1_376440000A_000238,萬佛庵,萬佛庵位於新竹、苗栗交界處的獅頭山上，地處蓊鬱的林間，正殿供奉的是千手千眼觀世音菩薩。進入萬佛庵後會看到很多很可愛的小沙彌群像，無論是迎客的小沙彌們，或是挑水、掃地的小沙彌，個個都令人倍感親切。,886-3-5800065,新竹縣峨眉鄉六寮59號,新竹客運：獅山線（珊珠湖→獅山或竹東→獅山，於獅山古道登山口步行上山）,未提供,{},"{'PositionLon': 121.02799987792969, 'PositionLat': 24.656299591064453, 'GeoHash': 'wsqh609ck'}",廟宇類,{},新竹縣,2023-07-13T01:40:49+08:00,2023-07-13T02:10:57+08:00
C1_376440000A_000240,新豐高爾夫球場,桃竹苗區歷史最悠久，亦是台灣首座擁有27個球洞的標準高球場，時有國際比賽舉辦，場內遍植杉柏，球道分布於茂密蓊鬱的松林中，為球友最佳的遮蔭場所，球場可俯視台灣海峽，景致優美居全新豐鄉之冠。,886-3-5596140,新竹縣新豐鄉上坑村坑子口104號,明新科技大學前右轉康樂路直行即可抵達。,天氣明亮–天色昏暗,{},"{'PositionLon': 120.97899627685547, 'PositionLat': 24.87689971923828, 'GeoHash': 'wsqj8bwnq'}",體育健身類,{},新竹縣,2023-07-13T01:40:49+08:00,2023-07-13T02:10:57+08:00
C1_376440000A_000241,旭陽高爾夫球場,旭陽高爾夫球場是一座由歐美及日本高球大師所設計的十八洞球場，巧妙運用自然景觀的隔局，使打球活動富於樂趣與變化。紅瓦白牆西班牙式建築的會館，讓人置身其中彷彿進入十八世紀時的莊園，環境樸素，設計精細。,886-3-5476568,新竹縣關西鎮南新里新城段100號,國道三號關西交流道→正義路→中山路→中豐路→東光陸橋前左轉→新竹客運新富站右轉,05:30–18:30,{},"{'PositionLon': 121.18399810791016, 'PositionLat': 24.747499465942383, 'GeoHash': 'wsqhv95kx'}",體育健身類,{},新竹縣,2023-07-13T01:40:49+08:00,2023-07-13T02:10:57+08:00
C1_376440000A_000242,老爺關西高爾夫球場,戰略型的18洞球場，每一洞都經過巧妙佈局的設計，是當今美國及亞洲地區當紅設計師 J.Michael Poellot 的作品，設施規劃完全符合國際水準，連灌溉系統、草皮鋪蓋、碼距標示系統等，都經過精心設計。,886-3-5476331,新竹縣關西鎮玉山里一鄰赤柯山1號,國道3號關西交流道→左轉關西方向→正義路→明德路左轉(右前方有一郵局)→走到底右轉中豐路→到台三線右轉竹東方向→到東光陸橋(東光國小前)左轉→直行約5.3公里右手邊即有球場指標,05:00–18:00,{},"{'PositionLon': 121.197998046875, 'PositionLat': 24.752099990844727, 'GeoHash': 'wsqhvcvxq'}",體育健身類,{},新竹縣,2023-07-13T01:40:49+08:00,2023-07-13T02:10:57+08:00
C1_376440000A_000243,立益高爾夫球場,座落於新竹縣關西鎮的立益高爾夫球場為18洞，總碼數6848碼，標準桿72桿的球場，長年以來重視自然生態保育，先後種植二十餘萬株林木，擁有多種台灣特別樹種，球場草坪以百慕達草為主，每個球洞皆具備其特殊性與安全性，巧妙地將球場與自然融成一體，讓整個球場保有自然景觀的美感。位於第8洞經典洞的紅橋更是具備景觀與挑戰性，是高爾夫球友津津樂道，絕對不可錯過的體驗之一。 立益球場交通便利，夏天因森林調節更較都會區涼爽約3~4 &deg;C，四季皆是打球或休閒最佳選擇， 是台灣地區調和自然與人文的森林高爾夫球場典範。立益餐廳的美食更是不容錯過，當專精與客家料理及川味料理的廚師團隊與關西在地新鮮食材撞擊出激烈的火花，主廚精緻的手藝巧妙帶出食材最原始的風味，每一道佳餚都讓顧客陶醉於幸福洋溢的美味，盼望每位蒞臨球場的球友皆能「玩得盡興，吃的開心」。立益球場也常是許多新人的婚紗攝影與婚宴聖地，長年下來已與眾多才子佳人共同譜出一段浪漫的回憶。,886-3-5875111,新竹縣關西鎮東山里湖肚55號,由國道第二高速公路關西交流道下，往關西鎮市區方向，直走正義路，接中山路，經關西鎮活動中心與關西高農，穿越省道台三線十字路口，直行約800公尺即達立益球場。,06:00–18:00,{},"{'PositionLon': 121.19599914550781, 'PositionLat': 24.782800674438477, 'GeoHash': 'wsqhvzs4r'}",體育健身類,{},新竹縣,2023-07-13T01:40:49+08:00,2023-07-13T02:10:57+08:00
C1_376440000A_000244,福龍宮,"竹東鎮柯湖里福龍宫沿革史前清宣宗時代道光十四年甲午歲(公元一八三四年)台灣府淡水「同知」(李嗣鄴）奉肯授權粤籍「姜秀巒」。墾治竹塹東南廂山地。由官方補助經費壹仟兩銀元,並有閩人「周邦正」。號百萬者。亦參與墾治。即向閩粤人等籌集。二十四股。臻成官民聯墾。租稱「金廣福」「墾號」。與姜周二氏為。各籍各戸之首。金指官資。廣指粵人。福指閩人。進行墾治。當時柯湖地帶。四面環山中央盆地。且森林密佈。「土著」依高臨下。防易攻難。且外週地勢低矮。墾治人馬。無法進入柯湖地區。改由三角城。小地名曰：「細咸菜細甕」。攻入樹杞林番社子等地。當夜「土著」看見天空中有三王率兵從天降。「土著」驚惶。一夜之間不戰盡退。番社中即今王爺廟坪邊。留有一老婦人不能走動者。後漢人進入柯湖。由其傳說得知。乃係三山國王顯聖。即在此地築蓋。一簡陋廟宇。為祀奉三山國王也。名稱「王爺廟」。將周園三甲餘土地。姜周二氏及墾股合議。不能分有。抽起作為「王爺廟」維持燒香點茶使用。名曰：「王爺嘗」日據時期稱為。寺廟公業主「王爺嘗」。漢人進入柯湖開墾水田烟地。此地肥沃。四面環山。無季節風吹入。且有溪水清秀。屈曲長流。耕地農作物豐收。人民平安。畜產旺盛。頓時人口雲集。此皆神靈庇佑。竹塹城至樹杞林「即新竹至竹東」無築道路。竹塹城至柯湖。有牛車路可通。「王爺廟」坪。設有轉運站。開「大隘」即今北埔峨眉等地。所需物資再用人工肩擔。經由上大壢入北埔。故昔日有屠商雜貨店等。雲集繁盛時期。至清光緒二十一年乙未歲。(公元一八九五年)六月間。日軍攻入竹塹城。柯湖地區。組田賦兵抵抗日軍。在第七鄰山上搭「隘寮」日夜守備。至今名曰隘察凸。王爺廟對面山設有夜間守備至今名曰更寮凸。日軍恨漢人抵抗。日軍攻入柯湖。將「王爺廟」並附村莊。放火燒毁。戰亂平息。光緒二十三年丁酉歲。（公元一八九七年)。五月間眾人倡議募捐。二次重建「王爺廟」土角磚造正廳五間横屋六間。至民國二十三年甲戌歲。（公元一九三四年)正月二十五日。「三山國王」金身修面一次。是年五月間。「三山國王第二次顯聖救民疾苦。每日數以仟計民眾。朝拜求仙丹仙水者。群擁不絕。迨至台灣光復。民國三十五年。改稱本廟為福龍宮。風雨侵襲。且係土角磚造。破舊漏水不堪。民國七十年辛酉歲。（公元一九八一年)。眾人倡議改建。同年成立第一屆管理委員會。掌理廟務焕然一新。民國七十九年。庚午歲三月二十四日。本宮組團前往大陸。湄洲媽祖廟。南普陀寺。揭西縣河婆霖田宫。三山國王祖廟。朝聖参拜。並奉請「三王夫人」香爐一座。回宮鎮廟奉拜。是年十一月二十七日。一連五天慶成圓醮法會。祈求風調雨順。國泰民安。是以為誌。",886-3-5826753,新竹縣竹東鎮柯湖路三段291號,國道1號-新竹交流道出口往竹東方向-至中興路三段-見學府路右轉直行-見岔路往雲南路右側直行-接柯湖路方向-可抵達福龍宮國道3號-芎林交流道出口往穹林方向接富林路三段/122縣道，左轉新中正橋至光明路左轉直行，接中興路三段/縣道122左轉直行-見學府路右轉直行-見岔路往雲南路右側直行-接柯湖路方向-可抵達福龍宮國道3號-寶山交流道-園區三路-園區二路-水仙路-柯湖路三段-福龍宮,未提供,{},"{'PositionLon': 121.03700256347656, 'PositionLat': 24.761999130249023, 'GeoHash': 'wsqhf7b3n'}",廟宇類,{},新竹縣,2023-07-13T01:40:49+08:00,2023-07-13T02:10:57+08:00
C1_376440000A_000245,竹東五穀宮,竹東五穀宮，神農大帝祖廟俗稱五穀爺。是一座位在臺灣新竹縣竹東二重里地區的神農大帝廟，也是竹東地區唯一主祀五穀爺的廟宇，該廟是台灣神農大帝信仰的代 表廟宇之一。,886-3-5826243,310新竹縣竹東鎮中興路三段73巷30號,國道1號-新竹交流道出口往竹東方向-至中興路三段可見五穀宮標示牌右轉可抵達竹東五穀宮國道3號-芎林交流道出口往芎林方向接富林路三段/122縣道，左轉新中正橋至光明路左轉直行，接中興路三段/縣道122左轉直行-右側可見竹東五穀宮標示牌-右轉可抵達,未提供,{},"{'PositionLon': 121.05699920654297, 'PositionLat': 24.765899658203125, 'GeoHash': 'wsqhfsrpb'}",廟宇類,{},新竹縣,2023-07-13T01:40:49+08:00,2023-07-13T02:10:57+08:00
C1_376440000A_000246,青蛙石大峽谷,尖石往司馬庫斯途中，於溪谷可見一形似青蛙的巨岩面朝山頭蹲踞於溪谷中，傳說昔日一隻大青蛙為追食一雙大蚊蠅而至此處，蠅飛到山頭而青蛙為陡峭山壁所阻，無法越過山頭，只得對著山頭望穿秋水，經數百年後，終物化為一巨石。新竹縣尖石鄉「青蛙石」位於錦屏村與那羅溪的溪谷內，甚為雄偉，起腳下係深不見底之峽谷，並有一處高約40公尺之瀑布，瀑水傾洩而下，甚為壯觀。可從天然谷下到此河谷，是一優美的遊憩地點。「青蛙石」為一個佇立在山谷間的奇石，不僅外觀像，更是大自然造物的力量，也是尖石鄉獨特的美景，是遊客不可不到的地方。,886-3-5102040,新竹縣尖石鄉,北二高竹林交流道下→沿120縣道往橫山、尖石方向直駛→尖石→右轉直行即可達。,未提供,{},"{'PositionLon': 121.22799682617188, 'PositionLat': 24.687700271606445, 'GeoHash': 'wsqhqw783'}",生態類,{},新竹縣,2023-07-13T01:40:49+08:00,2023-07-13T02:10:57+08:00
C1_376440000A_000247,湖口老街,1893年縱貫鐵路在老湖口設有車站，成為交通、經濟重心，帶動老街發展，1914年起興建特殊的「大正式建築」，結合華南的紅磚建材，加上堂號浮雕，充滿典雅氣氛。隨著車站於1929年遷移，老街漸漸沒落，近年經活化而重新展現風采。今日的湖口老街雖已鉛華洗盡換上一身素雅紅杉，但特有的懷舊與藝術氛圍，猶吸引著無數的文人墨客造訪遊歷。雖然一旁就是高速公路，但走入湖口老街就像走入了另一空間。天主堂門前佇立的木車站，娓娓訴說著流逝的火車歲月，矮房舍形式、磚紅色的巴洛克建築，正面牌樓的立體雕刻，復古造型的商號以及維持完好拱形的騎樓道，都將老街的歷史堆疊至民國初年的樣子，由天主堂至街底三元宮全長約300公尺，寬約10公尺的街道，處處有讓人驚艷的典雅建築。街道上除了當地居住的人家，也有老診所、文史工作室、咖啡廳、餐廳、豆汁味豆腐店等等，小吃店裡傳來陣陣薑絲炒大腸的香氣，與濃醇的咖啡香融合在一起，感覺中西合璧。遊客在遊賞同時，不妨進入當地的人文工作室，以更深度的方式體驗老湖口新面貌之美。,886-3-5695963,新竹縣湖口鄉湖鏡村湖口老街,新竹客運→新竹火車站搭往湖口，在湖鏡村下車，循指標約步行250公尺即抵。,未提供,{},"{'PositionLon': 121.05500030517578, 'PositionLat': 24.876800537109375, 'GeoHash': 'wsqjd8ttc'}",觀光工廠類,{},新竹縣,2023-07-13T01:40:49+08:00,2023-07-13T02:10:57+08:00
C1_376440000A_000249,鳳崎晚霞,鳳山、崎山位於新豐鄉坑子口山末端，因形狀如鳳凰的鼻子，俗稱鳳鼻尾。由明新科技大學旁產業道路進入，於西端突出之海濱高地向下眺望，北見觀音鄉、南望新竹與香山平原，日暮時分，山色與晚霞相輝映，霞光映照海面，淡水廳誌記載為淡水廳八景之一，名稱為「鳳崎晚霞」。,886-3-5518101,新竹縣竹北市尚義里蓮花路925號,國道1號湖口交流道→光華路、忠信街→竹3-1鄉道→竹3鄉道→竹5-1鄉道→西濱公路→台61線,未提供,{},"{'PositionLon': 120.96199798583984, 'PositionLat': 24.87660026550293, 'GeoHash': 'wsqj889ud'}",生態類,{},新竹縣,2023-07-13T01:40:49+08:00,2023-07-13T02:10:57+08:00
C1_376450000A_000640,獅頭山古道,獅頭山座落苗栗縣南庄鄉與新竹縣峨眉鄉交界，全山層巒聳翠，奇岩林立，毓秀鍾靈，超塵絕俗。山中現有寺廟十一座，大部分依天然岩洞建築，掩映於青山綠樹間，錯落有致，意境空靈，為全台著名弘揚儒釋道三教之聖地。 獅頭山處處古木參天，蔭翳蔽空，寺宇錯落，氣韻靜謐。假日偷得浮生半日，在此小憩一宵，或短期渡假，禮佛參禪，晨鐘暮鼓中令人煙塵盡滌，俗慮全消，是一處莊嚴寧靜的遊覽勝地。 獅頭山為全台灣十二勝之一，介於南庄、峨眉鄉境內，獅頭山分水嶺之南，屬苗栗縣南庄鄉管轄，分水嶺之北隸屬新竹縣峨眉鄉。南面巨石峻峭，隔三灣溪與象鼻山相對峙；迤北崗陵起伏，盤屈於藤坪村六寮之間，其形酷肖獅子蹲踞之狀。清道光年間，淡水同知李慎彝以其形命名為「獅頭山」。 獅頭山海拔496公尺，為一標準豚脊狀山嶺，山頂時常煙雲縹緲，漫山遍谷如蟠龍；竹林雜樹，叢生於巖石間。石磴迂迥穿過蔭翳之密林，殆不見天日，雖夏亦涼。嶺半懸崖峭立，高約數十仞。 獅頭山步道，以望月亭為竹苗兩縣界碑，分為南庄鄉前山和峨眉鄉後山兩部分。前山部分，保存完整之石階步道千餘階；後山部分，全部改為水泥步道，只剩下各寺廟前的小段石階。前山地形陡峭較不易行，後山緩坡易行。 民國54年以前走訪獅頭山，尚未修建環山公路，遊客必須由舊的登山口拾級而上，可通達饒益院、靈塔及勸化堂。這段石板登山道，數十年以來，仍受尋幽或健身者所熱衷，修竹織舞，溪澗潺潺，奇岩聳立。若正常步伐約二十餘分鐘可抵達勸化堂。 如今多數遊客停車於勸化堂下方廣場，開始步行經六角亭進入輔天宮，再上勸化堂。在道德門左切，可達舍利洞、開善寺，來回各十分鐘步程。若向前直行爬昇，經大岩壁，登望月亭長度六百公尺，約二十分鐘。前山石階禪道除極少數部分待整修之外，堪稱相當完整易行 由望月亭開始一路緩坡下降，至獅尾登山口全程約三公里，全屬水泥農路。沿途寺廟：獅岩洞、海會庵、靈霞洞、金剛寺、萬佛庵，經獅尾登山口到梵音寺（水濂洞）。其中元光寺建廟107年，是獅頭山區最早的佛寺，再來是勸化堂101年，都深具歷史意義。,獅頭山座落苗栗縣南庄鄉與新竹縣峨眉鄉交界，全山層巒聳翠，奇岩林立，毓秀鍾靈，超塵絕俗。山中現有寺廟十一座，大部分依天然岩洞建築，掩映於青山綠樹間，錯落有致，意境空靈，為全台著名弘揚儒釋道三教之聖地。 獅頭山處處古木參天，蔭翳蔽空，寺宇錯落，氣韻靜謐。假日偷得浮生半日，在此小憩一宵，或短期渡假，禮佛參禪，晨鐘暮鼓中令人煙塵盡滌，俗慮全消，是一處莊嚴寧靜的遊覽勝地。 獅頭山為全台灣十二勝之一，介於南庄、峨眉鄉境內，獅頭山分水嶺之南，屬苗栗縣南庄鄉管轄，分水嶺之北隸屬新竹縣峨眉鄉。南面巨石峻峭，隔三灣溪與象鼻山相對峙；迤北崗陵起伏，盤屈於藤坪村六寮之間，其形酷肖獅子蹲踞之狀。清道光年間，淡水同知李慎彝以其形命名為「獅頭山」。 獅頭山海拔496公尺，為一標準豚脊狀山嶺，山頂時常煙雲縹緲，漫山遍谷如蟠龍；竹林雜樹，叢生於巖石間。石磴迂迥穿過蔭翳之密林，殆不見天日，雖夏亦涼。嶺半懸崖峭立，高約數十仞。,886-37-824570,苗栗縣南庄鄉獅頭山古道,自行開車：頭份交流道→124縣道→珊珠湖→3號省道→三灣→轉124甲縣道→嵌頂寮→獅頭山 大眾運輸：從新竹、竹南、頭份搭往南庄的苗栗客運，至獅頭由或勸化堂下車。,每日開放,{},"{'PositionLon': 121.01152038574219, 'PositionLat': 24.64345932006836, 'GeoHash': 'wsqh1wjys'}",遊憩類,自然風景類,廟宇類,{},新竹縣,2023-07-13T01:40:49+08:00,2023-07-13T02:10:57+08:00
C1_387000000A_001512,桃山瀑布,名列全台六大瀑布之一，位於武陵國家森林遊樂區內桃山步道的終點處，又名「煙聲瀑布」，海拔2200公尺，落差約80公尺，雨季過後水量驚人壯觀，水聲聲勢澎湃。瀑布前設有一觀景台，可以在山壁上找找日漸斑駁的「煙聲」二字。,名列全台六大瀑布之一，位於武陵國家森林遊樂區內桃山步道的終點處，又名「煙聲瀑布」，海拔2200公尺，落差約80公尺，雨季過後水量驚人壯觀，水聲聲勢澎湃。瀑布前設有一觀景台，可以在山壁上找找日漸斑駁的「煙聲」二字。,886-4-25901020,臺中市424和平區武陵路,424,詳見官網或電話洽詢,"{'PictureUrl1': 'https://travel.taichung.gov.tw/content/images/attractions/50699/640x480_image637740578875089210.jpg', 'PictureDescription1': '桃山瀑布'}","{'PositionLon': 121.3016586303711, 'PositionLat': 24.435070037841797, 'GeoHash': 'wsq70230t'}",自然風景類,{},新竹縣,2023-07-13T01:40:49+08:00,2023-07-13T02:10:57+08:00
C1_A25000000E_100008,書酷英文書店 Suku Books,書酷英文書店選在竹東鎮開店，收集最容易啟蒙孩子語言學習的英文繪本，讓偏鄉和弱勢的孩子不被排除在資源限制之外。堅持所有的二手書都以低於五十元的價格來守候當地；也積極募資和書籍到偏鄉。店內舉辦各種語言推廣的活動，從語言教師甄選交流到孩子的桌遊體驗，為孩子開啟外語之門。,886-3-5100571,新竹縣  竹東鎮東寧路1段207號,310,週六～日10:00-18:00，週一～五公休,{'PictureUrl1': 'http://cloud.culture.tw/h_upload_ccacloud/festival/image/A0/B0/C0/D0/E0/F39/d24108cd-5299-46ff-a8b7-4429c6b695d4.jpg'},"{'PositionLon': 121.09404754638672, 'PositionLat': 24.726150512695312, 'GeoHash': 'wsqhet3br'}",藝術類,{},新竹縣,2023-07-13T01:40:49+08:00,2023-07-13T02:10:57+08:00
